순번,SIDO,PLACE,LAT,MANAGER,LON,SSID,TEL,GU_DESC,JIBUN_ADDR,ROAD_ADDR,PLACE_DETAIL,MANUFACTURER,TYPE
1,부산광역시,부산광역시 강서구,35.212205,부산광역시 강서구청,128.980626,Public WiFi,051-970-4175,강서구,부산광역시 강서구 대저1동 2300,부산광역시 강서구 낙동북로 477,민원실,LGU+,관공서
2,부산광역시,지사민원센터,35.150603,부산광역시 강서구청,128.833995,Public WiFi,051-970-4175,강서구,부산광역시 강서구 지사동 1180,부산광역시 강서구 과학산단2로 20번길 5,민원실,LGU+,관공서
3,부산광역시,강동보건지소,35.2159,부산광역시 강서구청,128.937696,Public WiFi,051-970-4175,강서구,부산광역시 강서구 강동동 60-3,부산광역시 강서구 낙동북로 102번길 76,민원실,LGU+,관공서
4,부산광역시,강서구 보건소,35.1806278,부산광역시 강서구청,128.9570987,Public WiFi,051-970-4175,강서구,부산광역시 강서구 대저2동 1932-1,부산광역시 강서구 공항로811번가길 10,민원실,LGU+,관공서
5,부산광역시,산업단지 행정지원센터,35.0838571,부산광역시 강서구청,128.839975,Public WiFi,051-970-4175,강서구,부산광역시 강서구 송정동 1759,부산광역시 강서구 녹산산단262로50번길 53,민원실,LGU+,관공서
6,부산광역시,가덕도동 주민센터,35.052639,부산광역시 강서구청,128.830696,Public WiFi,051-970-4175,강서구,부산광역시 강서구 성북동 407-1,부산광역시 강서구 천가길338번길 1,민원실,LGU+,관공서
7,부산광역시,명지동 주민센터,35.084745,부산광역시 강서구청,128.899769,Public WiFi,051-970-4175,강서구,부산광역시 강서구 명지동 1443-2,부산광역시 강서구 영강길 19번길 58,민원실,LGU+,관공서
8,부산광역시,녹산동 주민센터,35.153454,부산광역시 강서구청,128.831938,Public WiFi,051-970-4175,강서구,부산광역시 강서구 범방동 1843-2,부산광역시 강서구 가락대로 900번가길 32,민원실,LGU+,관공서
9,부산광역시,가락동 주민센터,35.196447,부산광역시 강서구청,128.901775,Public WiFi,051-970-4175,강서구,부산광역시 강서구 죽림동 716-3,부산광역시 강서구 가락대로 1476,민원실,LGU+,관공서
10,부산광역시,강동동 주민센터,35.214776,부산광역시 강서구청,128.935303,Public WiFi,051-970-4175,강서구,부산광역시 강서구 강동동 135-1,부산광역시 강서구 제도로 1171,민원실,LGU+,관공서
11,부산광역시,대저2동 주민센터,35.178683,부산광역시 강서구청,128.95761,Public WiFi,051-970-4175,강서구,부산광역시 강서구 대저2동 2011-3,부산광역시 강서구 공항로811번가길 30-1,민원실,LGU+,관공서
12,부산광역시,대저1동 주민센터,35.214609,부산광역시 강서구청,128.980643,Public WiFi,051-970-4175,강서구,부산광역시 강서구 대저1동 2377-10,부산광역시 강서구 대저로255번길 15,민원실,LGU+,관공서
13,부산광역시,부산광역시 강서구,35.212205,부산광역시 강서구청,128.980626,Public WiFi,051-970-4175,강서구,부산광역시 강서구 대저1동 2300,부산광역시 강서구 낙동북로 477,여성센터,SKT,서민·복지시설
14,부산광역시,을숙도노인요양원,35.116308,부산광역시 강서구청,128.923444,Public WiFi,051-970-4175,강서구,부산광역시 강서구 명지동 3175-35,부산광역시 강서구 낙동남로 991번길 54-1,1층 사무실,KT,서민·복지시설
15,부산광역시,정다운어르신의집,35.113511,부산광역시 강서구청,128.8686126,Public WiFi,051-970-4175,강서구,부산광역시 강서구 녹산동 1101,부산광역시 강서구 낙동남로 483번가길 21,요양보호실,LGU+,서민·복지시설
16,부산광역시,부산시립박물관,35.137204,부산광역시 남구청,129.092961,Public Wifi,1899-4876,남구,부산광역시 남구 대연동 948-1,부산광역시 남구 유엔평화로 63,관리사무실,LGU,관공서
17,부산광역시,용호1동 주민센터,35.120801,부산광역시 남구청,129.109047,Public Wifi,1899-4876,남구,부산광역시 남구 용호동 414-47,부산광역시 남구 용호로42번길 140,민원실,LGU,관공서
18,부산광역시,대연3동 주민센터,35.140006,부산광역시 남구청,129.103862,Public Wifi,1899-4876,남구,부산광역시 남구 대연동 1862,"부산광역시 남구 수영로 345, 118호 (대연동, 대연힐스테이트푸르지오 상가)",민원실,LGU,관공서
19,부산광역시,문현3동 주민센터,35.138157,부산광역시 남구청,129.071703,Public Wifi,1899-4876,남구,부산광역시 남구 문현동 205-44,부산광역시 남구 고동골로4번길 7-18,민원실,LGU,관공서
20,부산광역시,용호3동 주민센터,35.121002,부산광역시 남구청,129.112831,Public Wifi,1899-4876,남구,부산광역시 남구 용호동 371-2,부산광역시 남구 동명로145번길 33,민원실,LGU,관공서
21,부산광역시,대연5동 주민센터,35.138457,부산광역시 남구청,129.090172,Public Wifi,1899-4876,남구,부산광역시 남구 대연동 1463-1,부산광역시 남구 진남로46번길 7,민원실,LGU,관공서
22,부산광역시,감만1동 주민센터,35.116895,부산광역시 남구청,129.080672,Public Wifi,1899-4876,남구,부산광역시 남구 감만동 141-3,부산광역시 남구 우암로 71-7,민원실,LGU,관공서
23,부산광역시,대연1동 주민센터,35.134534,부산광역시 남구청,129.093477,Public Wifi,1899-4876,남구,부산광역시 남구 대연동 984-20,부산광역시 남구 유엔평화로 24,민원실,LGU,관공서
24,부산광역시,용호4동 주민센터,35.113212,부산광역시 남구청,129.110405,Public Wifi,1899-4876,남구,부산광역시 남구 용호동 533-23,부산광역시 남구 용호로216번길 10,민원실,LGU,관공서
25,부산광역시,우암동 주민센터,35.124992,부산광역시 남구청,129.075871,Public Wifi,1899-4876,남구,부산광역시 남구 우암동 162-18,부산광역시 남구 우암로 190-15,민원실,LGU,관공서
26,부산광역시,대연4동 주민센터,35.129812,부산광역시 남구청,129.091415,Public Wifi,1899-4876,남구,부산광역시 남구 대연동 1090-14,부산광역시 남구 석포로91번길 96,민원실,LGU,관공서
27,부산광역시,대연6동 주민센터,35.134931,부산광역시 남구청,129.083567,Public Wifi,1899-4876,남구,부산광역시 남구 대연동 1768-3,부산광역시 남구 수영로 155,민원실,LGU,관공서
28,부산광역시,문현1동 주민센터,35.142523,부산광역시 남구청,129.071322,Public Wifi,1899-4876,남구,부산광역시 남구 문현동 127-10,부산광역시 남구 고동골로60번길 1,민원실,LGU,관공서
29,부산광역시,㈜용호시장,35.115316,부산광역시 남구청,129.112862,Public Wifi,1899-4876,남구,부산광역시 남구 용호2동 516-10번지,부산광역시 남구 동명로152번길 93,상인회실,LGU+,기타
30,부산광역시,남구노인복지관,35.136361,부산광역시 남구청,129.093298,Public Wifi,1899-4876,남구,부산광역시 남구 대연동 1346,부산광역시 남구 못골로 97-10,관리사무실,KT,서민·복지시설
31,부산광역시,대동골 문화센터,35.154542,부산광역시 남구청,129.089261,Public Wifi,1899-4876,남구,부산광역시 남구 대연동 245-170,부산광역시 남구 황령대로319번가길 147,민원실,KT,관공서
32,부산광역시,"남구청(2층, 3층 민원실)",35.136649,부산광역시 남구청,129.084298,Public Wifi,1899-4876,남구,부산광역시 남구 대연동 1268-1,부산광역시 남구 못골로 19(대연동),민원실,SKT,관공서
33,부산광역시,남구 보건소(1층 민원실),35.136071,부산광역시 남구청,129.084985,Public Wifi,1899-4876,남구,부산광역시 남구 대연동 1268-3,부산광역시 남구 못골로 23(대연동),민원실,SKT,관공서
34,부산광역시,남구 드림스타트(구 대연2동사),35.134507,부산광역시 남구청,129.084119,Public Wifi,1899-4876,남구,부산광역시 남구 대연동 1241-2,부산광역시 남구 수영로 160 (대연동),민원실,SKT,관공서
35,부산광역시,감만2동 주민센터,35.122753,부산광역시 남구청,129.084548,Public Wifi,1899-4876,남구,부산광역시 남구 감만동 20-58,부산광역시 남구 석포로 32-1,민원실,SKT,관공서
36,부산광역시,용호2동 주민센터,35.115141,부산광역시 남구청,129.113456,Public Wifi,1899-4876,남구,부산광역시 남구 용호동 517-19,부산광역시 남구 용호로197번길 41,민원실,SKT,관공서
37,부산광역시,용당동 주민센터,35.117883,부산광역시 남구청,129.095041,Public Wifi,1899-4876,남구,부산광역시 남구 용당동 401-1,부산광역시 남구 신선로 349-4,민원실,SKT,관공서
38,부산광역시,용호1동 현장민원실,35.130356,부산광역시 남구청,129.107195,Public Wifi,1899-4876,남구,부산광역시 남구 용호동 176-64,부산광역시 남구 신선로 566-2,민원실,SKT,관공서
39,부산광역시,남구장애인복지관,35.129536,부산광역시 남구청,129.099231,Public Wifi,1899-4876,남구,부산광역시 남구 대연동 567-16,부산광역시 남구 조각공원로11번길 38 (대연동),관리사무실,SKT,서민·복지시설
40,부산광역시,문현4동 주민센터,35.136487,부산광역시 남구청,129.069039,Public Wifi,1899-4876,남구,부산광역시 남구 문현4동 366-18,"부산광역시 남구 수영로 12, 3층 3호(문현동, 세종그랑시아상가)",민원실,SKT,관공서
41,부산광역시,남구도서관,35.137953,부산광역시 남구청,129.094551,Public Wifi,1899-4876,남구,부산광역시 남구 대연동 317-56,부산광역시 남구 수영로 267번길,민원실,SKT,관공서
42,부산광역시,새빛기독보육원,35.116798,부산광역시 남구청,129.113528,Public Wifi,1899-4876,남구,부산광역시 남구 용호동 517-19,부산광역시 남구 용호로 197번길 41,관리사무실,SKT,서민·복지시설
43,부산광역시,나사함발달장애인복지관,35.143585,부산광역시 남구청,129.089241,Public Wifi,1899-4876,남구,부산광역시 남구 대연동 1483-9,부산광역시 남구 못골번영로 70,관리사무실,SKT,서민·복지시설
44,부산광역시,명장2동주민센터,35.207954,동래구청 재무과,129.102423,dongrae108,051-550-4171,동래구,부산광역시 동래구 명장2동 326-4,부산광역시 동래구 명서로 168,명장2동주민센터 민원실,KT,관공서
45,부산광역시,명장1동주민센터,35.205008,동래구청 재무과,129.104394,dongrae107,051-550-4171,동래구,부산광역시 동래구 명장동 133-5,부산광역시 동래구 명장로 32,명장1동주민센터 민원실,KT,관공서
46,부산광역시,안락2동주민센터,35.197712,동래구청 재무과,129.110123,dongrae106,051-550-4171,동래구,부산광역시 동래구 안락2동 464-38,부산광역시 동래구 명안로18번길 103,안락2동주민센터 민원실,KT,관공서
47,부산광역시,안락1동주민센터,35.197038,동래구청 재무과,129.098591,dongrae105,051-550-4171,동래구,부산광역시 동래구 안락1동 433-24,부산광역시 동래구 안연로110번길 9,안락1동주민센터 민원실,KT,관공서
48,부산광역시,사직3동주민센터,35.199472,동래구청 재무과,129.069448,dongrae104,051-550-4171,동래구,부산광역시 동래구 사직3동 123-23,부산광역시 동래구 아시아드대로154번길 79,사직3동주민센터 민원실,KT,관공서
49,부산광역시,사직2동주민센터,35.199256,동래구청 재무과,129.057533,dongrae103,051-550-4171,동래구,부산광역시 동래구 사직동 29-8,부산광역시 동래구 사직북로63번길 22,사직2동주민센터 민원실,KT,관공서
50,부산광역시,사직1동주민센터,35.199001,동래구청 재무과,129.061961,dongrae102,051-550-4171,동래구,부산광역시 동래구 사직1동 50-16,부산광역시 동래구 석사로 19,사직1동주민센터 민원실,KT,관공서
51,부산광역시,온천3동주민센터,35.204958,동래구청 재무과,129.066322,dongrae101,051-550-4171,동래구,부산광역시 동래구 온천3동 1246-6,부산광역시 동래구 아시아드대로231번길 21,온천3동주민센터 민원실,KT,관공서
52,부산광역시,온천2동주민센터,35.207981,동래구청 재무과,129.07302,dongrae13,051-550-4171,동래구,부산광역시 동래구 온천2동 707-3,부산광역시 동래구 충렬대로107번길 28,온천2동주민센터 민원실,KT,관공서
53,부산광역시,온천1동주민센터,35.220078,동래구청 재무과,129.080128,dongrae10,051-550-4171,동래구,부산광역시 동래구 온천1동 221-1,부산광역시 동래구 금강로 127,온천1동주민센터 민원실,KT,관공서
54,부산광역시,명륜동주민센터,35.212492,동래구청 재무과,129.081521,dongrae09,051-550-4171,동래구,부산광역시 동래구 명륜동 700-200,부산광역시 동래구 명륜로207번길 26,명륜동주민센터 민원실,KT,관공서
55,부산광역시,복산동주민센터,35.205829,동래구청 재무과,129.086096,dongrae08,051-550-4171,동래구,부산광역시 동래구 복천동 462-2,부산광역시 동래구 복천로 1,복산동주민센터 민원실,KT,관공서
56,부산광역시,수민동주민센터,35.19601,동래구청 재무과,129.091035,dongrae07,051-550-4171,동래구,부산광역시 동래구 낙민동 135-10,부산광역시 동래구 온천천로339번길 48,수민동주민센터 민원실,KT,관공서
57,부산광역시,동래문화회관,35.211991,동래구청 재무과,129.090367,dongrae06,051-550-4171,동래구,부산광역시 동래구 명륜동 137,부산광역시 동래구 문화로 80 동래문화회관,문화회관 대강당,KT,관공서
58,부산광역시,보건소,35.211366,동래구청 재무과,129.079877,dongrae05,051-550-4171,동래구,부산광역시 동래구 명륜동 702-54,부산광역시 동래구 명륜로187번길 56,보건소,KT,관공서
59,부산광역시,동래구청,35.205019,동래구청 재무과,129.083626,dongrae04,051-550-4171,동래구,부산광역시 동래구 복천동 381,부산광역시 동래구 명륜로94번길 55,건축과,KT,관공서
60,부산광역시,동래구청,35.205019,동래구청 재무과,129.083626,dongrae03,051-550-4171,동래구,부산광역시 동래구 복천동 381,부산광역시 동래구 명륜로94번길 55,복지과,KT,관공서
61,부산광역시,동래구청,35.205019,동래구청 재무과,129.083626,dongrae02,051-550-4171,동래구,부산광역시 동래구 복천동 381,부산광역시 동래구 명륜로94번길 55,토지정보과,KT,관공서
62,부산광역시,동래구청,35.205019,동래구청 재무과,129.083626,dongrae01,051-550-4171,동래구,부산광역시 동래구 복천동 381,부산광역시 동래구 명륜로94번길 55,민원여권과,KT,관공서
63,부산광역시,양정1동 주민센터,35.172662,부산광역시 부산진구청,129.073175,Public WiFi Free,051-605-4171,부산진구,부산광역시 부산진구 양정동 507-7,부산광역시 부산진구 범양로125번길 26,민원실,SKT,관공서
64,부산광역시,아순타의 집,35.1586973,부산광역시 부산진구청,129.0241575,Public WiFi Free,051-605-4171,부산진구,부산광역시 부산진구 개금3동 24-36번지,부산광역시 부산진구 개금본동로17번길 12,아순타의집,LGU+,서민·복지시설
65,부산광역시,신애지역아동센터,35.168558,부산광역시 부산진구청,129.0410086,Public WiFi Free,051-605-4171,부산진구,부산광역시 부산진구 부암3동 410-5번지,부산광역시 부산진구 백양순환로 137,센터,LGU+,서민·복지시설
66,부산광역시,신애재활원,35.177394,부산광역시 부산진구청,129.0559943,Public WiFi Free,051-605-4171,부산진구,부산광역시 부산진구 초읍동 525-1,부산광역시 부산진구 성지로62번길 40,재활원,KT,서민·복지시설
67,부산광역시,성지지역아동센터,35.1643241,부산광역시 부산진구청,129.0401921,Public WiFi Free,051-605-4171,부산진구,부산광역시 부산진구 당감동 275-26,부산광역시 부산진구 동평로94번길 28,센터,KT,서민·복지시설
68,부산광역시,새생명지역아동센터,35.146346,부산광역시 부산진구청,129.0552959,Public WiFi Free,051-605-4171,부산진구,부산광역시 부산진구 범천2동 1284-50번지,부산광역시 부산진구 신암로 51-5,센터,LGU+,서민·복지시설
69,부산광역시,사랑빛지역아동센터,35.1623986,부산광역시 부산진구청,129.025711,Public WiFi Free,051-605-4171,부산진구,부산광역시 부산진구 개금동 1-8,부산광역시 부산진구 백양관문로77번길 99,센터,LGU+,서민·복지시설
70,부산광역시,부전전자종합시장,35.1635842,부산광역시 부산진구청,129.063306,Public WiFi Free,051-605-4171,부산진구,부산광역시 부산진구 부전동 20-1,부산광역시 부산진구 중앙대로 803,시장,SKT,편의시설
71,부산광역시,부전마켓타운,35.1633578,부산광역시 부산진구청,129.0610234,Public WiFi Free,051-605-4171,부산진구,부산광역시 부산진구 부전동 573-3 일대,부산광역시 부산진구 중앙대로 755번길 21,타운,SKT,서민·복지시설
72,부산광역시,부전2동 주민센터,35.1526035,부산광역시 부산진구청,129.056792,Public WiFi Free,051-605-4171,부산진구,부산광역시 부산진구 부전동 523-6,부산광역시 부산진구 부전로20번길 13,민원실,SKT,관공서
73,부산광역시,부암역,35.1579105,부산광역시 부산진구청,129.0514241,Public WiFi Free,051-605-4171,부산진구,부산광역시 부산진구 부암1동 707,부산광역시 부산진구 가야대로 729,역사,LGU+,교통시설
74,부산광역시,부암1동주민센터,35.1633084,부산광역시 부산진구청,129.0485503,Public WiFi Free,051-605-4171,부산진구,부산광역시 부산진구 부암동 226,부산광역시 부산진구 신천대로241번길 41,민원실,KT,관공서
75,부산광역시,부산진구종합사회복지관,35.1426631,부산광역시 부산진구청,129.0196571,Public WiFi Free,051-605-4171,부산진구,부산광역시 부산진구 개금동 산57-9,부산광역시 부산진구 복지로 117-12,복지관,KT,서민·복지시설
76,부산광역시,부산진구장애인복지관,35.1640492,부산광역시 부산진구청,129.0658461,Public WiFi Free,051-605-4171,부산진구,부산광역시 부산진구 전포2동 581번지,부산광역시 부산진구 전포대로300번길 6,복지관,LGU+,서민·복지시설
77,부산광역시,부산진구다문화가족지원센터,35.1595497,부산광역시 부산진구청,129.0326632,Public WiFi Free,051-605-4171,부산진구,부산광역시 부산진구 당감동 516-8,부산광역시 부산진구 백양대로 160,센터,KT,서민·복지시설
78,부산광역시,부산진구 청소년문화의집,35.1552996,부산광역시 부산진구청,129.0747629,Public WiFi Free,051-605-4171,부산진구,부산광역시 부산진구 전포동 326-10,부산광역시 부산진구 진남로328번길 62,문화의집,KT,서민·복지시설
79,부산광역시,부산진구 보건소,35.1461958,부산광역시 부산진구청,129.0598958,Public WiFi Free,051-605-4171,부산진구,부산광역시 부산진구 범천동 849-10,부산광역시 부산진구 황령대로8번길 36,민원실,KT,서민·복지시설
80,부산광역시,부산진구 노인복지관,35.1640492,부산광역시 부산진구청,129.0658461,Public WiFi Free,051-605-4171,부산진구,부산광역시 부산진구 전포2동 581번지,부산광역시 부산진구 전포대로300번길 6,복지관,LGU+,서민·복지시설
81,부산광역시,부산진구 건강증진센터,35.1628733,부산광역시 부산진구청,129.0531703,Public WiFi Free,051-605-4171,부산진구,부산광역시 부산진구 부암1동 666-16번지,부산광역시 부산진구 시민공원로 30,"2,3층",LGU+,서민·복지시설
82,부산광역시,부산데프주간보호센터,35.162382,부산광역시 부산진구청,129.0579073,Public WiFi Free,051-605-4171,부산진구,부산광역시 부산진구 부전1동 346-89번지,부산광역시 부산진구 새싹로52번길 39,센터,LGU+,서민·복지시설
83,부산광역시,부산교육청 궁리마루,35.1559524,부산광역시 부산진구청,129.0631424,Public WiFi Free,051-605-4171,부산진구,부산광역시 부산진구 전포1동 682,부산광역시 부산진구 전포대로209번길 26,옥외,SKT,관공서
84,부산광역시,부산 상공회의소,35.1477079,부산광역시 부산진구청,129.0621565,Public WiFi Free,051-605-4171,부산진구,부산광역시 부산진구 범천1동 853-1,부산광역시 부산진구 황령대로 24,민원실,LGU+,관공서
85,부산광역시,부산진우체국,35.1549967,부산광역시 부산진구청,129.0353856,Public WiFi Free,051-605-4171,부산진구,부산광역시 부산진구 가야3동 256-7,부산광역시 부산진구 가야대로 579,민원실,KT,관공서
86,부산광역시,부산진구청,35.1628868,부산광역시 부산진구청,129.0531778,Public WiFi Free,051-605-4171,부산진구,부산광역시 부산진구 부암동 666-16,부산광역시 부산진구 시민공원로 30,1층 로비,KT,관공서
87,부산광역시,범천2동주민센터,35.1469657,부산광역시 부산진구청,129.0556587,Public WiFi Free,051-605-4171,부산진구,부산광역시 부산진구 범천2동 1258-82번지,부산광역시 부산진구 신암로 48,민원실,SKT,관공서
88,부산광역시,범천2동작은도서관,35.1465036,부산광역시 부산진구청,129.0562039,Public WiFi Free,051-605-4171,부산진구,부산광역시 부산진구 범천동 960-1,부산광역시 부산진구 신암로 48,도서관,SKT,지역문화시설
89,부산광역시,범천1동 주민센터,35.142288,부산광역시 부산진구청,129.060661,Public WiFi Free,051-605-4171,부산진구,부산광역시 부산진구 범천동 854-15,부산광역시 부산진구 범일로192번길 21,민원실,SKT,관공서
90,부산광역시,범전문화센터,35.1661431,부산광역시 부산진구청,129.0620582,Public WiFi Free,051-605-4171,부산진구,부산광역시 부산진구 범전동 43-4,부산광역시 부산진구 범양로 6,센터,SKT,서민·복지시설
91,부산광역시,"범전마을쉼터(구,범전주민센터)",35.1658378,부산광역시 부산진구청,129.0612029,Public WiFi Free,051-605-4171,부산진구,부산광역시 부산진구 범전동 329-15번지,부산광역시 부산진구 범양로 6,민원실,SKT,관공서
92,부산광역시,대한적십자 부전점,35.1552338,부산광역시 부산진구청,129.0618677,Public WiFi Free,051-605-4171,부산진구,부산광역시 부산진구 부전2동 169-2,부산광역시 부산진구 중앙대로702번길 50,민원실,KT,관공서
93,부산광역시,당평비전지역청소년센터,35.161891,부산광역시 부산진구청,129.033257,Public WiFi Free,051-605-4171,부산진구,부산광역시 부산진구 당감동 516-3,부산광역시 부산진구 백양대로136번길 37-9,센터,KT,서민·복지시설
94,부산광역시,당감종합사회복지관,35.1622517,부산광역시 부산진구청,129.0366152,Public WiFi Free,051-605-4171,부산진구,부산광역시 부산진구 당감동 818-220,부산광역시 부산진구 당감서로 16,복지관,KT,서민·복지시설
95,부산광역시,당감4동주민센터,35.1679325,부산광역시 부산진구청,129.036497,Public WiFi Free,051-605-4171,부산진구,부산광역시 부산진구 당감동 751-3번지,부산광역시 부산진구 당감서로 85,민원실,SKT,관공서
96,부산광역시,당감2동주민센터,35.1578483,부산광역시 부산진구청,129.0479515,Public WiFi Free,051-605-4171,부산진구,부산광역시 부산진구 당감동 71-7번지,부산광역시 부산진구 가야대로703번길 13,민원실,SKT,관공서
97,부산광역시,당감1동주민센터,35.1644603,부산광역시 부산진구청,129.0356527,Public WiFi Free,051-605-4171,부산진구,부산광역시 부산진구 당감동 375-1번지,부산광역시 부산진구 당감로10번길 3,민원실,SKT,관공서
98,부산광역시,당감1동 행복마을센터,35.1627354,부산광역시 부산진구청,129.0400027,Public WiFi Free,051-605-4171,부산진구,부산광역시 부산진구 당감동 252-104,부산광역시 부산진구 당감로10번길 3,센터,SKT,지역문화시설
99,부산광역시,당감1동 작은도서관,35.1644597,부산광역시 부산진구청,129.0356431,Public WiFi Free,051-605-4171,부산진구,부산광역시 부산진구 당감동 375-1,부산광역시 부산진구 동평로44번길 49-6,도서관,SKT,지역문화시설
100,부산광역시,다사랑복합문화예술회관,35.1503499,부산광역시 부산진구청,129.0346375,Public WiFi Free,051-605-4171,부산진구,부산광역시 부산진구 가야1동 433-1번지,부산광역시 부산진구 대학로 60,회관,LGU+,지역문화시설
101,부산광역시,근로복지공단(부전),35.1602314,부산광역시 부산진구청,129.0617925,Public WiFi Free,051-605-4171,부산진구,부산광역시 부산진구 부전1동 91-5,부산광역시 부산진구 중앙대로 766,공단,LGU+,관공서
102,부산광역시,개금시장,35.1536815,부산광역시 부산진구청,129.0267564,Public WiFi Free,051-605-4171,부산진구,부산광역시 부산진구 개금동 549-13,부산광역시 부산진구 냉정로 227-1,시장,KT,서민·복지시설
103,부산광역시,개금사회복지관,35.1617713,부산광역시 부산진구청,129.0224823,Public WiFi Free,051-605-4171,부산진구,부산광역시 부산진구 개금동 1-1,부산광역시 부산진구 백양관문로77번길 140,복지관,KT,서민·복지시설
104,부산광역시,개금3동주민센터,35.1557519,부산광역시 부산진구청,129.0220242,Public WiFi Free,051-605-4171,부산진구,부산광역시 부산진구 개금동 428-8번지,부산광역시 부산진구 개금본동로 88,민원실,SKT,관공서
105,부산광역시,개금2동주민센터,35.1449231,부산광역시 부산진구청,129.0195062,Public WiFi Free,051-605-4171,부산진구,부산광역시 부산진구 개금동 633-5번지,부산광역시 부산진구 복지로 93,민원실,SKT,관공서
106,부산광역시,개금2동 행복마을센터,35.1442072,부산광역시 부산진구청,129.0171982,Public WiFi Free,051-605-4171,부산진구,부산광역시 부산진구 개금동 633-35,부산광역시 부산진구 진사로83번길 21,센터,SKT,지역문화시설
107,부산광역시,개금1동주민센터,35.1526863,부산광역시 부산진구청,129.0219201,Public WiFi Free,051-605-4171,부산진구,부산광역시 부산진구 개금동 503-18번지,부산광역시 부산진구 가야대로454번길 9,민원실,SKT,관공서
108,부산광역시,가야2동주민센터,35.1497583,부산광역시 부산진구청,129.0290073,Public WiFi Free,051-605-4171,부산진구,부산광역시 부산진구 가야동 601-7번지,부산광역시 부산진구 가야공원로40번길 14,민원실,SKT,관공서
109,부산광역시,가야1동주민센터,35.1532736,부산광역시 부산진구청,129.0342963,Public WiFi Free,051-605-4171,부산진구,부산광역시 부산진구 가야동 296-1번지,부산광역시 부산진구 가야대로572번길 22,민원실,SKT,관공서
110,부산광역시,(사)부산평화시장,35.1414964,부산광역시 부산진구청,129.0606529,Public WiFi Free,051-605-4171,부산진구,부산광역시 부산진구 범천동 839-212번지,부산광역시 부산진구 자유평화로 7,시장,SKT,서민·복지시설
111,부산광역시,부산어린이대공원,35.184631,부산광역시 부산진구청,129.043471,Public WiFi Free,051-605-4171,부산진구,부산광역시 부산진구 초읍동 43,부산광역시 부산진구 새싹로 295,공원,KT,지역문화시설
112,부산광역시,양정2동주민센터,35.172859,부산광역시 부산진구청,129.075748,Public WiFi Free,051-605-4171,부산진구,부산광역시 부산진구 양정동 52-2,부산광역시 부산진구 양정로15번길 26,민원실,SKT,관공서
113,부산광역시,삼성전자서비스(주) 서면,35.162164,부산광역시 부산진구청,129.051423,Public WiFi Free,051-605-4171,부산진구,부산광역시 부산진구 부암동 123-1,부산광역시 부산진구 신천대로 222,매장,LGU+,기타
114,부산광역시,부산시민공원 역사관,35.167101,부산광역시 부산진구청,129.054661,Public WiFi Free,051-605-4171,부산진구,부산광역시 부산진구 범전동 195,부산광역시 부산진구 시민공원로 73,역사관,LGU+,지역문화시설
115,부산광역시,부산광역시립 시민도서관,35.183522,부산광역시 부산진구청,129.050224,Public WiFi Free,051-605-4171,부산진구,부산광역시 부산진구 초읍동 산 51-6,부산광역시 부산진구 월드컵대로 462,도서관,KT,지역문화시설
116,부산광역시,부산백병원,35.146138,부산광역시 부산진구청,129.020875,Public WiFi Free,051-605-4171,부산진구,부산광역시 부산진구 개금동 633-165,부산광역시 부산진구 복지로 75,병원,LGU+,서민·복지시설
117,부산광역시,부산 CBS,35.152992,부산광역시 부산진구청,129.049312,Public WiFi Free,051-605-4171,부산진구,부산광역시 부산진구 범천동 1155-2,부산광역시 부산진구 신암로 141,CBS,LGU+,기타
118,부산광역시,동의의료원,35.169764,부산광역시 부산진구청,129.076783,Public WiFi Free,051-605-4171,부산진구,부산광역시 부산진구 양정동 산 45-1,부산광역시 부산진구 양정로 62,의료원,LGU+,서민·복지시설
119,부산광역시,서면역1호선,35.156922,부산광역시 부산진구청,129.059125,Public WiFi Free,051-605-4171,부산진구,부산광역시 부산진구 부전동 573-1,부산광역시 부산진구 중앙대로 730,역사,LGU+,교통시설
120,부산광역시,한울타리지역아동센터,35.1599808,부산광역시 부산진구청,129.0649268,Public WiFi Free,051-605-4171,부산진구,부산광역시 부산진구 전포2동 638-7번지,부산광역시 부산진구 서전로47번길 48,센터,LGU+,서민·복지시설
121,부산광역시,평강지역아동센터,35.1765337,부산광역시 부산진구청,129.0743937,Public WiFi Free,051-605-4171,부산진구,부산광역시 부산진구 양정2동 145-3번지,부산광역시 부산진구 중앙대로 978,센터,LGU+,서민·복지시설
122,부산광역시,축복지역아동센터,35.1687073,부산광역시 부산진구청,129.0366357,Public WiFi Free,051-605-4171,부산진구,부산광역시 부산진구 부암3동 506-1번지,부산광역시 부산진구 당감서로98번길 20-22,센터,LGU+,서민·복지시설
123,부산광역시,초읍동주민센터,35.1787168,부산광역시 부산진구청,129.0475759,Public WiFi Free,051-605-4171,부산진구,부산광역시 부산진구 초읍동 278-8,부산광역시 부산진구 새싹로 253,민원실,SKT,관공서
124,부산광역시,전포지역아동센터,35.1570828,부산광역시 부산진구청,129.0659728,Public WiFi Free,051-605-4171,부산진구,부산광역시 부산진구 전포1동 207-75번지,부산광역시 부산진구 서전로58번길 16,센터,LGU+,서민·복지시설
125,부산광역시,전포사회복지관,35.153656,부산광역시 부산진구청,129.067529,Public WiFi Free,051-605-4171,부산진구,부산광역시 부산진구 전포1동 343-5,부산광역시 부산진구 전포대로190번길 35,복지관,LGU+,서민·복지시설
126,부산광역시,전포2동주민센터,35.1616893,부산광역시 부산진구청,129.066199,Public WiFi Free,051-605-4171,부산진구,부산광역시 부산진구 전포동 175-26,부산광역시 부산진구 동성로118번길 34,민원실,KT,관공서
127,부산광역시,전포1동주민센터,35.1513072,부산광역시 부산진구청,129.0664499,Public WiFi Free,051-605-4171,부산진구,부산광역시 부산진구 전포동 363-63,부산광역시 부산진구 서전로58번길 143,민원실,SKT,관공서
128,부산광역시,이신호뷰티건물,35.1552707,부산광역시 부산진구청,129.0580386,Public WiFi Free,051-605-4171,부산진구,부산광역시 부산진구 부전2동 242-20,부산광역시 부산진구 서면로 52,건물,LGU+,기타
129,부산광역시,육아종합지원센터,35.1549123,부산광역시 부산진구청,129.0359933,Public WiFi Free,051-605-4171,부산진구,부산광역시 부산진구 가야동 258-2,부산광역시 부산진구 가야대로587번길 21-21,센터,KT,서민·복지시설
130,부산광역시,연지동주민센터 작은도서관,35.172799,부산광역시 부산진구청,129.052836,Public WiFi Free,051-605-4171,부산진구,부산광역시 부산진구 연지동 238-9,부산광역시 부산진구 국악로 30,도서관,SKT,지역문화시설
131,부산광역시,연지동주민센터,35.1727868,부산광역시 부산진구청,129.0528236,Public WiFi Free,051-605-4171,부산진구,부산광역시 부산진구 연지동 238-9번지,부산광역시 부산진구 국악로 30,민원실,SKT,관공서
132,부산광역시,에이스지역아동센터,35.1578334,부산광역시 부산진구청,129.0472454,Public WiFi Free,051-605-4171,부산진구,부산광역시 부산진구 당감2동 93-15번지,부산광역시 부산진구 가야대로703번나길 23,센터,LGU+,서민·복지시설
133,부산광역시,양정청소년수련관,35.177257,부산광역시 부산진구청,129.0717253,Public WiFi Free,051-605-4171,부산진구,부산광역시 부산진구 양정2동 260-5번지,부산광역시 부산진구 동평로405번길 81,청소년 문화의집,LGU+,서민·복지시설
134,부산광역시,양정청소년수련관,35.1772767,부산광역시 부산진구청,129.0717285,Public WiFi Free,051-605-4171,부산진구,부산광역시 부산진구 양정동 260-5,부산광역시 부산진구 동평로405번길 85,수련관,LGU+,서민·복지시설
135,부산광역시,농협 화명점,35.239101,부산광역시청,129.014504,Public WiFi,051-888-4602,북구,부산광역시 북구 화명동 1528-5,부산광역시 북구 금곡대로 344,민원실,SKT,기타
136,부산광역시,농협 덕천동지점,35.211185,부산광역시청,129.008581,Public WiFi,051-888-4602,북구,부산광역시 북구 덕천동 382-8,부산광역시 북구 만덕대로 33,민원실,SKT,기타
137,부산광역시,구포시장 상인회,35.123212,부산광역시청,129.001275,Public WiFi,051-888-4602,북구,부산광역시 북구 구포동 599-18,부산광역시 북구 구포시장길 9 (구포동),시장,KT,편의시설
138,부산광역시,아이쿱푸른바다생협,35.140303,부산광역시청,129.003853,Public WiFi,051-888-4602,북구,부산광역시 북구 화명동 2275-6,부산광역시 북구 화명신도시로 115 (화명동),로비,KT,지역문화시설
139,부산광역시,화명1동주민센터,35.13578,부산광역시청,129.004999,Public WiFi,051-888-4602,북구,부산광역시 북구 화명동 1230-3,부산광역시 북구 금곡대로 274 (화명동),민원실,LGU+,관공서
140,부산광역시,리틀스쿨지역아동센터,35.142839,부산광역시청,129.011587,Public WiFi,051-888-4602,북구,부산광역시 북구 화명동 498-6,부산광역시 북구 산성로 76-8 (화명동),로비,LGU+,서민·복지시설
141,부산광역시,1318미래세대지역아동센터,35.125033,부산광역시청,129.004041,Public WiFi,051-888-4602,북구,부산광역시 북구 덕천동 321-13,부산광역시 북구 만덕대로65번길 49 (덕천동),로비,LGU+,서민·복지시설
142,부산광역시,북구시니어클럽,35.123378,부산광역시청,129.004953,Public WiFi,051-888-4602,북구,부산광역시 북구 덕천동 241-66,부산광역시 북구 덕천로 83 (덕천동),로비,LGU+,서민·복지시설
143,부산광역시,실버벨노인종합복지관,35.11393,부산광역시청,129.003122,Public WiFi,051-888-4602,북구,부산광역시 북구 구포동 1255-2,부산광역시 북구 시랑로 114번길 45 (구포동),로비,LGU+,서민·복지시설
144,부산광역시,삼동재가노인지원서비스센터,35.141417,부산광역시청,129.005304,Public WiFi,051-888-4602,북구,부산광역시 북구 화명동 1410-10,부산광역시 북구 금곡대로 324번길 11 (화명동),로비,LGU+,서민·복지시설
145,부산광역시,구포2동 주민센터,35.2027181,부산광역시청,128.9979931,Public WiFi,051-888-4602,북구,부산광역시 북구 구포1동 1060,부산광역시 북구 낙동북로663번길 23 (구포동),민원실,LGU+,관공서
146,부산광역시,새구포종합상가시장,35.12437,부산광역시청,129.003552,Public WiFi,051-888-4602,북구,부산광역시 북구 덕천동 355-4,부산광역시 북구 의성로 96 (덕천동),시장,LGU+,편의시설
147,부산광역시,낙동지역아동센터,35.121689,부산광역시청,129.000578,Public WiFi,051-888-4602,북구,부산광역시 북구 구포동 718-25,부산광역시 북구 백양대로 1127 (구포동),로비,LGU+,서민·복지시설
148,부산광역시,반딧불이지역아동센터,35.153861,부산광역시청,129.005487,Public WiFi,051-888-4602,북구,부산광역시 북구 금곡동 98-1,부산광역시 북구 금곡대로 616번길 10-23 (금곡동),로비,LGU+,서민·복지시설
149,부산광역시,북구청소년상담복지센터,35.122611,부산광역시청,129.00193,Public WiFi,051-888-4602,북구,부산광역시 북구 구포동 610-1,부산광역시 북구 덕천로 3 (구포동),로비,LGU+,서민·복지시설
150,부산광역시,청록만덕실버센터,35.124447,부산광역시청,129.022672,Public WiFi,051-888-4602,북구,부산광역시 북구 만덕동 376-35,부산광역시 북구 중리로 32 (만덕동),로비,LGU+,서민·복지시설
151,부산광역시,정화양로원,35.143874,부산광역시청,129.010987,Public WiFi,051-888-4602,북구,부산광역시 북구 화명동 298,부산광역시 북구 양달로 55 (화명동),로비,LGU+,서민·복지시설
152,부산광역시,덕천종합사회복지관,35.123244,부산광역시청,129.005726,Public WiFi,051-888-4602,북구,부산광역시 북구 덕천동 808,부산광역시 북구 덕천로 74 (덕천동),로비,LGU+,서민·복지시설
153,부산광역시,기후변화체험관,35.140073,부산광역시청,129.003176,Public WiFi,051-888-4602,북구,부산광역시 북구 화명동 2279,부산광역시 북구 학사로 118 (화명동),로비,LGU+,관공서
154,부산광역시,만덕2동 제일상가시장,35.123057,부산광역시청,129.021436,Public WiFi,051-888-4602,북구,부산광역시 북구 만덕동 845-5,부산광역시 북구 은행나무로 12 (만덕동),시장,KT,편의시설
155,부산광역시,열린아동지역센터,35.2070431,부산광역시청,129.0391171,Public WiFi,051-888-4602,북구,부산광역시 북구 만덕2동 867-8,부산광역시 북구 은행나무로 35번길 11,사무실,KT,서민·복지시설
156,부산광역시,동원종합사회복지관,35.2643911,부산광역시청,129.0173661,Public WiFi,051-888-4602,북구,부산광역시 북구 금곡동 98-1,부산광역시 북구 금곡대로 616번지10-9,사무실,KT,서민·복지시설
157,부산광역시,덕천보건지소,35.2124681,부산광역시청,129.0368831,Public WiFi,051-888-4602,북구,부산광역시 북구 덕천동 378-7,부산광역시 북구 만덕대로 89번길 9 (덕천동),민원실,KT,서민·복지시설
158,부산광역시,북구보건소,35.2585161,부산광역시청,129.0161511,Public WiFi,051-888-4602,북구,부산광역시 북구 화명동 1531-4,부산광역시 북구 금곡대로 348 (화명동),민원실,KT,서민·복지시설
159,부산광역시,덕천1동 주민센터,35.2124681,부산광역시청,129.0368831,Public WiFi,051-888-4602,북구,부산광역시 북구 덕천1동 389-33,부산광역시 북구 만덕대로102번가길 11,민원실,KT,관공서
160,부산광역시,만덕2동 주민센터,35.2091491,부산광역시청,129.0393011,Public WiFi,051-888-4602,북구,부산광역시 북구 만덕2동 289-1,부산광역시 북구 만덕2로44번길10 (만덕동),민원실,KT,관공서
161,부산광역시,덕천3동 주민센터,35.2130021,부산광역시청,129.0110351,Public WiFi,051-888-4602,북구,부산광역시 북구 덕천동 809-1,부산광역시 북구 덕천로 118 (덕천동),민원실,KT,관공서
162,부산광역시,화명3동 주민센터,35.2319021,부산광역시청,129.0100311,Public WiFi,051-888-4602,북구,부산광역시 북구 화명3동 2285,부산광역시 북구 화명신도시로85,민원실,KT,관공서
163,부산광역시,화명2동 주민센터,35.2435311,부산광역시청,129.0198621,Public WiFi,051-888-4602,북구,부산광역시 북구 화명2동 318-2,부산광역시 북구 양달로 58,민원실,KT,관공서
164,부산광역시,구포3동 주민센터,35.1948981,부산광역시청,129.0088031,Public WiFi,051-888-4602,북구,부산광역시 북구 구포3동 1252-1,부산광역시 북구 시랑로118번길 23(구포동),민원실,KT,관공서
165,부산광역시,구포1동 주민센터,35.2064681,부산광역시청,129.0011401,Public WiFi,051-888-4602,북구,부산광역시 북구 구포1동 430-1,부산광역시 북구 낙동대로 1762번길 75,민원실,KT,관공서
166,부산광역시,부산장애인자립센터,35.2346851,부산광역시청,129.0105021,Public WiFi,051-888-4602,북구,부산광역시 북구 화명3동 2275-3,부산광역시 북구 화명신도시로 117,사무실,SKT,서민·복지시설
167,부산광역시,소상공인지원센터(부산),35.2110451,부산광역시청,129.0079581,Public WiFi,051-888-4602,북구,부산광역시 북구 덕천동 398-4,부산광역시 북구 만덕대로27번길 3,사무실,SKT,관공서
168,부산광역시,숙등역,35.124367,부산광역시청,129.004796,Public WiFi,051-888-4602,북구,부산광역시 북구 구포동 1157-1,부산광역시 북구 만덕대로 79 (덕천동),승강장,LGU+,교통시설
169,부산광역시,구포역,35.2066991,부산광역시청,128.9964191,Public WiFi,051-888-4602,북구,부산광역시 북구 구포동 1157-1,부산광역시 북구 낙동대로 1697,승강장,SKT,교통시설
170,부산광역시,화명역,35.2363431,부산광역시청,129.0138411,Public WiFi,051-888-4602,북구,부산광역시 북구 화명동 1458-9,부산광역시 북구 금곡대로 311,승강장,LGU+,교통시설
171,부산광역시,화명종합사회복지관,35.2268391,부산광역시청,129.0098891,Public WiFi,051-888-4602,북구,부산광역시 북구 화명동 2310,부산광역시 북구 금곡대로199번길 21,사무실,LGU+,서민·복지시설
172,부산광역시,화정종합사회복지관,35.2525141,부산광역시청,129.0148761,Public WiFi,051-888-4602,북구,부산광역시 북구 금곡동 1108,부산광역시 북구 효열로 76-1,사무실,LGU+,서민·복지시설
173,부산광역시,북부산우체국,35.2322571,부산광역시청,129.0099011,Public WiFi,051-888-4602,북구,부산광역시 북구 화명동 2282,부산광역시 북구 화명신도시로 89,민원실,KT,관공서
174,부산광역시,북구 디지털도서관(부산),35.2061481,부산광역시청,129.0370561,Public WiFi,051-888-4602,북구,부산광역시 북구 만덕2동 843,부산광역시 북구 은행나무로 26,로비,KT,지역문화시설
175,부산광역시,남산정복지관,35.2173751,부산광역시청,129.0206571,Public WiFi,051-888-4602,북구,부산광역시 북구 덕천1동 814-1,부산광역시 북구 만덕대로 155번길 86-9,로비,KT,서민·복지시설
176,부산광역시,공창종합사회복지관,35.2679621,부산광역시청,129.0194221,Public WiFi,051-888-4602,북구,부산광역시 북구 금곡동 53-1,부산광역시 북구 효열로 268,로비,KT,서민·복지시설
177,부산광역시,덕천2동 주민센터,35.124468,부산광역시청,129.002873,Public WiFi,051-888-4602,북구,부산광역시 북구 덕천2동 346-2,부산광역시 북구 금곡대로로20번길 60 (덕천동),민원실,LGU+,관공서
178,부산광역시,금곡청소년수련관,35.2594941,부산광역시청,129.0166681,Public WiFi,051-888-4602,북구,부산광역시 북구 금곡동 100-1,부산광역시 북구 효열로 158,로비,KT,서민·복지시설
179,부산광역시,화명동 어촌박물관,35.2336641,부산광역시청,129.0086881,Public WiFi,051-888-4602,북구,부산광역시 북구 화명3동 2279,부산광역시 북구 학사로 128,민원실,SKT,지역문화시설
180,부산광역시,만덕3동 주민센터,35.2113891,부산광역시청,129.0292251,Public WiFi,051-888-4602,북구,부산광역시 북구 만덕1동 830-34,부산광역시 북구 만덕1로 1(만덕동),민원실,SKT,관공서
181,부산광역시,만덕1동 주민센터,35.2134731,부산광역시청,129.0363911,Public WiFi,051-888-4602,북구,부산광역시 북구 구포2동 1139-1,부산광역시 북구 백양대로1016번다길 43(구포동),열람실,SKT,관공서
182,부산광역시,부산광역시립 구포도서관,35.1939141,부산광역시청,128.9964811,Public WiFi,051-888-4602,북구,부산광역시 북구 구포2동 1030-68,부산광역시 북구 낙동북로663번길 23 (구포동),민원실,SKT,지역문화시설
183,부산광역시,구포2동 주민센터,35.2027181,부산광역시청,128.9979931,Public WiFi,051-888-4602,북구,부산광역시 북구 구포1동 1060,부산광역시 북구 구포만세길 137(구포동),승강장,SKT,관공서
184,부산광역시,만덕종합사회복지관,35.2019111,부산광역시청,129.0353841,Public WiFi,051-888-4602,북구,부산광역시 북구 만덕2동 949-1,부산광역시 북구 함박봉로140번길 102(만덕동),로비,LGU+,서민·복지시설
185,부산광역시,한국산업인력공단 부산지부,35.2485011,부산광역시청,129.0108511,Public WiFi,051-888-4602,북구,부산광역시 북구 금곡동 1877,부산광역시 북구 금곡대로441번길 26(금곡동),로비,LGU+,관공서
186,부산광역시,금곡청소년센터,35.2594941,부산광역시청,129.0166681,Public WiFi,051-888-4602,북구,부산광역시 북구 금곡동 100-1,부산광역시 북구 효열로 158(금곡동),로비,LGU+,서민·복지시설
187,부산광역시,송도해수욕장,35.077201,부산광역시,129.018067,Dynamic Busan,051-888-4601,서구,부산광역시 서구 암남동 135-1,부산광역시 서구 송도해변로 140,기린모텔앞가로등,부산광역시,관광
188,부산광역시,송도해수욕장,35.075448,부산광역시,129.016759,Dynamic Busan,051-888-4601,서구,부산광역시 서구 암남동 135-5,부산광역시 서구 송도해변로 100,임해봉사실,부산광역시,관광
189,부산광역시,송도해수욕장,35.077773,부산광역시,129.021608,Dynamic Busan,051-888-4601,서구,부산광역시 서구 암남동 135-2,부산광역시 서구 암남동 135-2,거북섬입구,부산광역시,관광
190,부산광역시,송도해수욕장,35.076154,부산광역시,129.022793,Dynamic Busan,051-888-4601,서구,부산광역시 서구 암남동 135-5,부산광역시 서구 송도해변로 50,송도해양레포츠센터,부산광역시,관광
191,부산광역시,구덕도서관,35.1217054,부산광역시,129.0170745,Public WiFi,051-888-4601,서구,부산광역시 서구 서대신동3가 산2-3,부산광역시 서구 대신공원로 41,도서관,KT,지역문화시설
192,부산광역시,구덕운동장,35.1162056,부산광역시,129.015218,Public WiFi,051-888-4601,서구,부산광역시 서구 서대신동3가 210,부산광역시 서구 망양로 57,야구장,SKT,지역문화시설
193,부산광역시,구덕운동장,35.1162056,부산광역시,129.015218,Public WiFi,051-888-4601,서구,부산광역시 서구 서대신동3가 210,부산광역시 서구 망양로 57,주경기장,SKT,지역문화시설
194,부산광역시,구덕운동장,35.1161447,부산광역시,129.015032,Public WiFi,051-888-4601,서구,부산광역시 서구 서대신동3가 210-1,부산광역시 서구 망양로 57,실내체육관,SKT,지역문화시설
195,부산광역시,구덕청소년수련관,35.1252393,부산광역시,129.0106974,Public WiFi,051-888-4601,서구,부산광역시 서구 서대신동3가 750번지,부산광역시 서구 꽃마을로156번길 109,수련관,LGU+,서민·복지시설
196,부산광역시,남부민1동 주민센터,35.092788,부산광역시,129.0233929,Public WiFi,051-888-4601,서구,부산광역시 서구 남부민동 643-16,부산광역시 서구 충무대로255번길 5-26,민원실,LGU+,관공서
197,부산광역시,남부민2동 주민센터,35.0843062,부산광역시,129.0230598,Public WiFi,051-888-4601,서구,부산광역시 서구 남부민동 456-6,부산광역시 서구 천마로 87,민원실,LGU+,관공서
198,부산광역시,동대신1동 골목시장,35.1098895,부산광역시,129.0196419,Public WiFi,051-888-4601,서구,부산광역시 서구 동대신동1가 164-7,부산광역시 서구 대영로74번길 15,시장,LGU+,서민·복지시설
199,부산광역시,동대신3동 주민센터,35.1144341,부산광역시,129.0172561,Public WiFi,051-888-4601,서구,부산광역시 서구 동대신동3가 329-1,부산광역시 서구 대영로73번길 92,민원실,LGU+,관공서
200,부산광역시,부민노인복지관,35.1074863,부산광역시,129.0180367,Public WiFi,051-888-4601,서구,부산광역시 서구 부용동2가 86,부산광역시 서구 부용로 30,복지관,SKT,서민·복지시설
201,부산광역시,부민동 주민센터,35.103831,부산광역시,129.018465,Public WiFi,051-888-4601,서구,부산광역시 서구 부민동3가 29-1,부산광역시 서구 임시수도기념로 22-11,민원실,LGU+,관공서
202,부산광역시,부산기독교종합사회복지관,35.1014098,부산광역시,129.021133,Public WiFi,051-888-4601,서구,부산광역시 서구 토성동2가 4-1번지,부산광역시 서구 까치고개로229번길 40,복지관,LGU+,서민·복지시설
203,부산광역시,부산서구청,35.0976972,부산광역시,129.0241259,Public WiFi,051-888-4601,서구,부산광역시 서구 토성동4가 2-3번지,부산광역시 서구 구덕로 120,민원실,LGU+,관공서
204,부산광역시,서구노인복지관,35.0732005,부산광역시,129.0142802,Public WiFi,051-888-4601,서구,부산광역시 서구 암남동 553-1,부산광역시 서구 장군산로 46번길 21,복지관,LGU+,서민·복지시설
205,부산광역시,서구청 평생학습관,35.0976972,부산광역시,129.0241259,Public WiFi,051-888-4601,서구,부산광역시 서구 토성동4가 2-3번지,부산광역시 서구 구덕로 120,민원실,LGU+,관공서
206,부산광역시,서대신1동 골목시장,35.110422,부산광역시,129.0173213,Public WiFi,051-888-4601,서구,부산광역시 서구 구덕로295번길 4,부산광역시 서구 서대신동2가 99-5,시장,LGU+,서민·복지시설
207,부산광역시,서대신1동 주민센터,35.111091,부산광역시,129.014454,Public WiFi,051-888-4601,서구,부산광역시 서구 서대신동2가 179-1,부산광역시 서구 구덕로315번길 49,민원실,LGU+,관공서
208,부산광역시,서대신3동 주민센터,35.113484,부산광역시,129.011935,Public WiFi,051-888-4601,서구,부산광역시 서구 서대신동3가 609,부산광역시 서구 대신로 27,민원실,LGU+,관공서
209,부산광역시,서대신4동 주민센터,35.119201,부산광역시,129.012579,Public WiFi,051-888-4601,서구,부산광역시 서구 서대신동3가 706-11,부산광역시 서구 보수대로 303,민원실,LGU+,관공서
210,부산광역시,송남시장,35.0785144,부산광역시,129.0168094,Public WiFi,051-888-4601,서구,부산광역시 서구 암남동 346-2,부산광역시 서구 암남동 346-2,시장,LGU+,서민·복지시설
211,부산광역시,송도가정,35.0839451,부산광역시,129.0123595,Public WiFi,051-888-4601,서구,부산광역시 서구 암남동 5-7번지,부산광역시 서구 천해남로 7,송도가정,LGU+,서민·복지시설
212,부산광역시,아미동 주민센터,35.100182,부산광역시,129.015452,Public WiFi,051-888-4601,서구,부산광역시 서구 아미동2가 133-8,부산광역시 서구 해돋이로269번길 17,민원실,LGU+,관공서
213,부산광역시,동대신1동 주민센터,35.1096039,부산광역시,129.0202049,Public WiFi,051-888-4601,서구,부산광역시 서구 동대신동1가 202,부산광역시 서구 구덕로280번길 32,민원실,LGU+,관공서
214,부산광역시,아미시장,35.0996486,부산광역시,129.0174768,Public WiFi,051-888-4601,서구,부산광역시 서구 아미동2가 96-11,부산광역시 서구 아미초장로 132,시장,LGU+,서민·복지시설
215,부산광역시,동대신2동 주민센터,35.1129848,부산광역시,129.0232214,Public WiFi,051-888-4601,서구,부산광역시 서구 동대신동2가 933-1,부산광역시 서구 동대신동2가 933-1,민원실,SKT,관공서
216,부산광역시,안나모자원,35.1279547,부산광역시,129.0057797,Public WiFi,051-888-4601,서구,부산광역시 서구 서대신동3가 7-23,부산광역시 서구 꽃마을로 163번길 40,모자원,KT,서민·복지시설
217,부산광역시,은애모자원,35.0702691,부산광역시,129.016094,Public WiFi,051-888-4601,서구,부산광역시 서구 암남동 169-1,부산광역시 서구 장군산로 103번길 6,모자원,KT,서민·복지시설
218,부산광역시,천마산조각공원,35.091343,부산광역시,129.018327,Public WiFi,051-888-4601,서구,부산광역시 서구 남부민동 14-1,부산광역시 서구 남부민동 14-1,공원,SKT,관광
219,부산광역시,천마재활원,35.0802937,부산광역시,129.019172,Public WiFi,051-888-4601,서구,부산광역시 서구 암남동 81-90,부산광역시 서구 천해로 7번길 55-10,재활원,SKT,서민·복지시설
220,부산광역시,초장동 주민센터,35.095977,부산광역시,129.020293,Public WiFi,051-888-4601,서구,부산광역시 서구 초장동 75-483,부산광역시 서구 초장로27번길 32,민원실,LGU+,관공서
221,부산광역시,충무동 주민센터,35.098025,부산광역시,129.021635,Public WiFi,051-888-4601,서구,부산광역시 서구 토성동5가 22-11,부산광역시 서구 구덕로148번길 16,민원실,LGU+,관공서
222,부산광역시,암남동 주민센터,35.0799388,부산광역시,129.0213237,Public WiFi,051-888-4601,서구,부산광역시 서구 암남동 676-1번지,부산광역시 서구 충무대로 85,민원실,LGU+,관공서
223,부산광역시,광안리해수욕장,35.153144,부산광역시,129.118661,Dynamic Busan,051-888-4601,수영구,부산광역시 수영구 광안동 200-1,부산광역시 수영구 광안해변로 183,게스후레스토랑앞,부산광역시,관광
224,부산광역시,광안리해수욕장,35.146116,부산광역시,129.114781,Dynamic Busan,051-888-4601,수영구,부산광역시 수영구 남천동 147-2,부산광역시 수영구 광안해변로54번길 222,광남초등학교 앞,부산광역시,관광
225,부산광역시,광안리해수욕장,35.146059,부산광역시,129.117613,Dynamic Busan,051-888-4601,수영구,부산광역시 수영구 남천동 148-6,부산광역시 수영구 남천동 148-6,삼익비치타운301동앞,부산광역시,관광
226,부산광역시,광안리해수욕장,35.156367,부산광역시,129.122167,Dynamic Busan,051-888-4601,수영구,부산광역시 수영구 민락동 177-8,부산광역시 수영구 광안해변로 259,엘모텔 GS25앞,부산광역시,관광
227,부산광역시,광안리해수욕장,35.15949,부산광역시,129.124,Dynamic Busan,051-888-4601,수영구,부산광역시 수영구 민락동 181-223,부산광역시 수영구 수변로 29,씨사이드웨딩홀 앞,부산광역시,관광
228,부산광역시,광안리해수욕장,35.153979,부산광역시,129.131236,Dynamic Busan,051-888-4601,수영구,부산광역시 수영구 민락동 113-53,부산광역시 수영구 민락동 113-53,부산시수협방파제,부산광역시,관광
229,부산광역시,광안리해수욕장,35.154949,부산광역시,129.133841,Dynamic Busan,051-888-4601,수영구,부산광역시 수영구 민락동 110-19,부산광역시 수영구 민락수변로 125,수변공원끝부분,부산광역시,관광
230,부산광역시,광안1동주민센터,35.162906,부산광역시,129.112495,Public WiFi,051-888-4601,수영구,부산광역시 수영구 광안동 494-1,부산광역시 수영구 광일로14번길 17 (광안동),민원실,SKT,관공서
231,부산광역시,광안2동주민센터,35.155671,부산광역시,129.11376,Public WiFi,051-888-4601,수영구,부산광역시 수영구 광안동 509-19,부산광역시 수영구 광안로16번길 22,민원실,SKT,관공서
232,부산광역시,광안3동주민센터,35.167904,부산광역시,129.113577,Public WiFi,051-888-4601,수영구,부산광역시 수영구 광안동 1070-3,부산광역시 수영구 망미번영로38번길 103,민원실,SKT,관공서
233,부산광역시,광안4동주민센터,35.155056,부산광역시,129.11141,Public WiFi,051-888-4601,수영구,부산광역시 수영구 광안동 773-8,부산광역시 수영구 호암로9번길 34,민원실,SKT,관공서
234,부산광역시,광안어패류시장,35.155495,부산광역시,129.124623,Public WiFi,051-888-4601,수영구,부산광역시 수영구 민락동 181-72번지,부산광역시 수영구 민락동 181-72,시장,SKT,관광
235,부산광역시,금련산청소년수련원,35.154551,부산광역시,129.101869,Public WiFi,051-888-4601,수영구,부산광역시 수영구 광안4동 산60-3,부산광역시 수영구 황령산로 156,수련원,SKT,서민·복지시설
236,부산광역시,남부산우체국,35.14551,부산광역시,129.1103,Public WiFi,051-888-4601,수영구,부산광역시 수영구 남천1동 27-4번지,부산광역시 수영구 수영로 448,민원실,KT,관공서
237,부산광역시,남천1동 주민센터,35.142697,부산광역시,129.110318,Public WiFi,051-888-4601,수영구,부산광역시 수영구 남천동 14-28,부산광역시 수영구 남천동로 13(남천동),민원실,LGU+,관공서
238,부산광역시,남천2동 주민센터,35.143818,부산광역시,129.114759,Public WiFi,051-888-4601,수영구,부산광역시 수영구 남천동 148-75,부산광역시 수영구 광안해변로99(남천동),민원실,LGU+,관공서
239,부산광역시,남천동 도서관,35.14451,부산광역시,129.105197,Public WiFi,051-888-4601,수영구,부산광역시 수영구 남천동 489-33,부산광역시 수영구 남천서로 33,도서관,SKT,지역문화시설
240,부산광역시,남천역,35.142318,부산광역시,129.108617,Public WiFi,051-888-4601,수영구,부산광역시 수영구 남천동 19,부산광역시 수영구 수영로 408,역사,LGU+,교통시설
241,부산광역시,남천해변시장,35.160599,부산광역시,129.112509,Public WiFi,051-888-4601,수영구,부산광역시 수영구 남천동 556,부산광역시 수영구 광안해변로15번길 77 (남천동),시장,LGU+,서민·복지시설
242,부산광역시,도영하우스,35.167853,부산광역시,129.110008,Public WiFi,051-888-4601,수영구,부산광역시 수영구 광안동 1041-15,부산광역시 수영구 망미 번영로16번 나길4 (광안동),도영하우스,LGU+,서민·복지시설
243,부산광역시,동산원,35.160614,부산광역시,129.109941,Public WiFi,051-888-4601,수영구,부산광역시 수영구 광안1동 536-44,부산광역시 수영구 광일로 29번길 42,동산원,LGU+,서민·복지시설
244,부산광역시,망미1동 복합청사,35.173438,부산광역시,129.104945,Public WiFi,051-888-4601,수영구,부산광역시 수영구 망미동 640-15,부산광역시 수영구 연수로315번길 23(망미동),민원실,LGU+,관공서
245,부산광역시,망미2동주민센터,35.175286,부산광역시,129.115263,Public WiFi,051-888-4601,수영구,부산광역시 수영구 망미동 257-2,부산광역시 수영구 구락로81번길 40 (망미동),민원실,LGU+,관공서
246,부산광역시,망미도서관 분관,35.173438,부산광역시,129.104945,Public WiFi,051-888-4601,수영구,부산광역시 수영구 망미동 640-15,부산광역시 수영구 연수로315번길 23,1층,SKT,지역문화시설
247,부산광역시,망미도서관 분관,35.173438,부산광역시,129.104945,Public WiFi,051-888-4601,수영구,부산광역시 수영구 망미동 640-15,부산광역시 수영구 연수로315번길 23,2층,SKT,지역문화시설
248,부산광역시,망미도서관 분관,35.173438,부산광역시,129.104945,Public WiFi,051-888-4601,수영구,부산광역시 수영구 망미동 640-15,부산광역시 수영구 연수로315번길 23,3층,SKT,지역문화시설
249,부산광역시,망미도서관 분관,35.173438,부산광역시,129.104945,Public WiFi,051-888-4601,수영구,부산광역시 수영구 망미동 640-15,부산광역시 수영구 연수로315번길 23,4층,SKT,지역문화시설
250,부산광역시,망미도서관 분관,35.173438,부산광역시,129.104945,Public WiFi,051-888-4601,수영구,부산광역시 수영구 망미동 640-15,부산광역시 수영구 연수로315번길 23,5층,SKT,지역문화시설
251,부산광역시,망미도서관 분관,35.173438,부산광역시,129.104945,Public WiFi,051-888-4601,수영구,부산광역시 수영구 망미동 640-15,부산광역시 수영구 연수로315번길 23,6층,SKT,지역문화시설
252,부산광역시,민락골목시장,35.157116,부산광역시,129.124288,Public WiFi,051-888-4601,수영구,부산광역시 수영구 민락동 190-1,부산광역시 수영구 광안해변로277번길 28-8,시장,SKT,편의시설
253,부산광역시,민락동주민센터,35.157284,부산광역시,129.125403,Public WiFi,051-888-4601,수영구,부산광역시 수영구 민락동 34-10,부산광역시 수영구 광안해변로295번길 20,민원실,SKT,관공서
254,부산광역시,민락씨랜드회센터,35.15685,부산광역시,129.126102,Public WiFi,051-888-4601,수영구,부산광역시 수영구 민락동 181-228,부산광역시 수영구 광안해변로 299 (민락동),회센터,SKT,편의시설
255,부산광역시,민락어패류시장,35.155675,부산광역시,129.124443,Public WiFi,051-888-4601,수영구,부산광역시 수영구 민락동 181-8번지,부산광역시 수영구 광안해변로 278,시장,SKT,편의시설
256,부산광역시,부산시민천문대,35.155155,부산광역시,129.100569,Public WiFi,051-888-4601,수영구,부산광역시 수영구 광안4동 산60-3,부산광역시 수영구 황령산로 156,천문대,SKT,관광
257,부산광역시,수영구 구민정보화교육장,35.174517,부산광역시,129.101065,Public WiFi,051-888-4601,수영구,부산광역시 수영구 망미동 826-54,부산광역시 수영구 연수로275번길 30,교육장,KT,지역문화시설
258,부산광역시,수영구 드림스타트센터,35.173467,부산광역시,129.116564,Public WiFi,051-888-4601,수영구,부산광역시 수영구 망미동 250-17,부산광역시 수영구 수미로 53,센터,LGU+,서민·복지시설
259,부산광역시,수영구노인복지관,35.140081,부산광역시,129.111188,Public WiFi,051-888-4601,수영구,부산광역시 수영구 남천동 552,부산광역시 수영구 황령대로489번길 83,복지관,LGU+,서민·복지시설
260,부산광역시,수영구도서관,35.144457,부산광역시,129.105238,Public WiFi,051-888-4601,수영구,부산광역시 수영구 남천동 489-33번지,부산광역시 수영구 남천서로 33,도서관,SKT,지역문화시설
261,부산광역시,수영구보건소,35.162652,부산광역시,129.113443,Public WiFi,051-888-4601,수영구,부산광역시 수영구 광안동 661-1,부산광역시 수영구 수영로 637-5 (광안동),민원실,LGU+,서민·복지시설
262,부산광역시,수영구자원봉사센터,35.16054,부산광역시,129.113983,Public WiFi,051-888-4601,수영구,부산광역시 수영구 광안동 118-3,부산광역시 수영구 수영로 614,센터,SKT,서민·복지시설
263,부산광역시,수영구청,35.145421,부산광역시,129.113026,Public WiFi,051-888-4601,수영구,부산광역시 수영구 남천동 148-15,부산광역시 수영구 남천동로 100,민원실,KT,관공서
264,부산광역시,수영구청,35.145596,부산광역시,129.113186,Public WiFi,051-888-4601,수영구,부산광역시 수영구 남천2동 148-15,부산광역시 수영구 남천동로 100,민원실,KT,관공서
265,부산광역시,수영동 주민센터,35.170481,부산광역시,129.116051,Public WiFi,051-888-4601,수영구,부산광역시 수영구 수영동 191-2,부산광역시 수영구 수영성로36(수영동),민원실,LGU+,관공서
266,부산광역시,수영사적공원,35.170839,부산광역시,129.114391,Public WiFi,051-888-4601,수영구,부산광역시 수영구 수영동 229-1,부산광역시 수영구 수영성로 43,공원,SKT,관광
267,부산광역시,수영역,35.167758,부산광역시,129.114574,Public WiFi,051-888-4601,수영구,부산광역시 수영구 광안동 1091-1,부산광역시 수영구 수영로 677,역사,LGU+,교통시설
268,부산광역시,수영팔도상가시장,35.169865,부산광역시,129.116918,Public WiFi,051-888-4601,수영구,부산광역시 수영구 수영동 60-1,부산광역시 수영구 수영로705번길 43 (수영동),시장,LGU+,서민·복지시설
269,부산광역시,수화통역센터(수영구),35.156679,부산광역시,129.112696,Public WiFi,051-888-4601,수영구,부산광역시 수영구 광안4동 744-17,"부산광역시 수영구 수영로 569 (광안동, 4층)",센터,LGU+,서민·복지시설
270,부산광역시,이삭의집,35.156474,부산광역시,129.108655,Public WiFi,051-888-4601,수영구,부산광역시 수영구 광안4동 1237-5,부산광역시 수영구 호암로 35-11,이삭의집,KT,서민·복지시설
271,부산광역시,한진개발공사,35.142757,부산광역시,129.110376,Public WiFi,051-888-4601,수영구,부산광역시 수영구 남천동 27-7,부산광역시 수영구 광남로 31,민원실,LGU+,관공서
272,부산광역시,흰돌실버타운,35.171424,부산광역시,129.098681,Public WiFi,051-888-4601,수영구,부산광역시 수영구 망미동 774-283,부산광역시 수영구 연수로260번길 53,타운,KT,서민·복지시설
273,부산광역시,연일시장,35.185167,부산광역시 연제구청,129.084887,,051-665-4171,연제구,,부산광역시 연제구 쌍미천로141번길 41,시장 내,SKT,서민·복지시설
274,부산광역시,연제구청,35.176234,부산광역시 연제구청,129.079623,,051-665-4171,연제구,,부산광역시 연제구 연제로 2 (연산동),민원실,SKT,관공서
275,부산광역시,행복나눔지역아동센터(연산동),35.183257,부산광역시 연제구청,129.077103,,051-665-4171,연제구,,부산광역시 연제구 거제천로 118번길 47,1층,SKT,서민·복지시설
276,부산광역시,연동시장,35.188855,부산광역시 연제구청,129.092548,,051-665-4171,연제구,,부산광역시 연제구 쌍미천로141번길 41,시장 내,SKT,서민·복지시설
277,부산광역시,부산시청우체국,35.180133,부산광역시 연제구청,129.074655,,051-665-4171,연제구,,부산광역시 연제구 중앙대로 999,민원실,SKT,관공서
278,부산광역시,부산광역시청_3층,35.180133,부산광역시 연제구청,129.074655,,051-665-4171,연제구,,부산광역시 연제구 중앙대로 999,민원실,SKT,관공서
279,부산광역시,부산광역시청_2층,35.180133,부산광역시 연제구청,129.074655,,051-665-4171,연제구,,부산광역시 연제구 중앙대로 999,민원실,SKT,관공서
280,부산광역시,부산광역시청_1층,35.180133,부산광역시 연제구청,129.074655,,051-665-4171,연제구,,부산광역시 연제구 중앙대로 999,민원실,SKT,관공서
281,부산광역시,부산경상대학 우체국,35.184448,부산광역시 연제구청,129.09985,,051-665-4171,연제구,,부산광역시 연제구 고분로 170,민원실,SKT,관공서
282,부산광역시,연제구 국민체육센터,35.184396,부산광역시 연제구청,129.088178,,051-665-4171,연제구,,부산광역시 연제구 쌍미천로 132 (연산동),민원실,SKT,편의시설
283,부산광역시,거제4동주민센터,35.179199,부산광역시 연제구청,129.0677705,,051-665-4171,연제구,,부산광역시 연제구 해맞이로 53,민원실,SKT,관공서
284,부산광역시,거제3동주민센터,35.184067,부산광역시 연제구청,129.073127,,051-665-4171,연제구,,부산광역시 연제구 거제시장로22번길 70 (거제동),민원실,SKT,관공서
285,부산광역시,거제2동주민센터,35.187788,부산광역시 연제구청,129.0703505,,051-665-4171,연제구,,부산광역시 연제구 아시아드대로22번길 19,민원실,SKT,관공서
286,부산광역시,거제1동주민센터,35.194815,부산광역시 연제구청,129.080742,,051-665-4171,연제구,,부산광역시 연제구 명륜로2번길 9 (거제동),민원실,SKT,관공서
287,부산광역시,개인택시공제조합(연제구),35.186141,부산광역시 연제구청,129.055475,,051-665-4171,연제구,,부산광역시 연제구 월드컵대로 399,1층,SKT,관공서
288,부산광역시,종합운동장역,35.191422,부산광역시 연제구청,129.068041,,051-665-4171,연제구,,부산광역시 연제구 거제동 905,대합실,LGU+,교통시설
289,부산광역시,종덕원,35.18281,부산광역시 연제구청,129.111417,,051-665-4171,연제구,,부산광역시 연제구 연산동 130-1,1층,LGU+,서민·복지시설
290,부산광역시,부산의료원 종합검진센터,35.186817,부산광역시 연제구청,129.060132,,051-665-4171,연제구,,부산광역시 연제구 월드컵대로 359,대기실,LGU+,서민·복지시설
291,부산광역시,배산역,35.173459,부산광역시 연제구청,129.095467,,051-665-4171,연제구,,부산광역시 연제구 연산동 1802,대합실,LGU+,교통시설
292,부산광역시,연제구 보건소,35.176829,부산광역시 연제구청,129.079139,,051-665-4171,연제구,,부산광역시 연제구 연제로 2,민원실,KT,서민·복지시설
293,부산광역시,연산9동주민센터,35.188608,부산광역시 연제구청,129.10492,,051-665-4171,연제구,,부산광역시 연제구 안연로 8번길 71,민원실,KT,관공서
294,부산광역시,연산8동주민센터,35.187139,부산광역시 연제구청,129.101054,,051-665-4171,연제구,,부산광역시 연제구 과정로251번길 33,민원실,KT,관공서
295,부산광역시,연산6동주민센터,35.177468,부산광역시 연제구청,129.089712,,051-665-4171,연제구,,부산광역시 연제구 쌍미천로52번길 2,민원실,KT,관공서
296,부산광역시,연산5동주민센터,35.187117,부산광역시 연제구청,129.070555,,051-665-4171,연제구,,부산광역시 연제구 거제천로 124번길 15,민원실,KT,관공서
297,부산광역시,연산4동주민센터,35.186301,부산광역시 연제구청,129.084947,,051-665-4171,연제구,,부산광역시 연제구 쌍미천로 151번길 42,민원실,KT,관공서
298,부산광역시,연산3동주민센터,35.173358,부산광역시 연제구청,129.094259,,051-665-4171,연제구,,부산광역시 연제구 연수로 218번길 4,민원실,KT,관공서
299,부산광역시,연산2동주민센터,35.179947,부산광역시 연제구청,129.079327,,051-665-4171,연제구,,부산광역시 연제구 중앙대로 1038번길 39,민원실,KT,관공서
300,부산광역시,연산1동주민센터,35.189991,부산광역시 연제구청,129.090409,,051-665-4171,연제구,,부산광역시 연제구 연동로8번길 66,민원실,KT,관공서
301,부산광역시,성우원,35.181313,부산광역시 연제구청,129.102234,,051-665-4171,연제구,,부산광역시 연제구 톳고개로 48,1층,KT,서민·복지시설
302,부산광역시,부산지방우정청,35.1941185,부산광역시 연제구청,129.0706088,,051-665-4171,연제구,,부산광역시 연제구 중앙대로 1150번길 15,1층,KT,관공서
303,부산광역시,부산장애인종합복지관,35.190556,부산광역시 연제구청,129.081547,,051-665-4171,연제구,,부산광역시 연제구 중앙대로 1150번길 15,1층,KT,서민·복지시설
304,부산광역시,부산우정청사업지원국,35.1941185,부산광역시 연제구청,129.0706088,,051-665-4171,연제구,,부산광역시 연제구 법원북로 33,1층,KT,관공서
305,부산광역시,부산연제우체국,35.194131,부산광역시 연제구청,129.070548,,051-665-4171,연제구,,부산광역시 연제구 법원북로 33,민원실,KT,관공서
306,부산광역시,부산돌봉사사회서비스센터,35.182701,부산광역시 연제구청,129.073516,,051-665-4171,연제구,,부산광역시 연제구 거제시장로14번길 38,1층,KT,서민·복지시설
307,부산광역시,부산광역자활센터,35.1822687,부산광역시 연제구청,129.0730784,,051-665-4171,연제구,,부산광역시 연제구 거제천로 89,민원실,KT,관공서
308,부산광역시,누림터,35.185343,부산광역시 연제구청,129.078088,,051-665-4171,연제구,,부산광역시 연제구 중앙대로 1075번길 42,1층,KT,서민·복지시설
309,부산광역시,거제시장,35.181937,부산광역시 연제구청,129.072809,,051-665-4171,연제구,,부산광역시 연제구 거제시장로14번길 28,시장 내,KT,서민·복지시설
310,부산광역시,자갈치시장,35.096733,부산광역시중구청,129.031149,Public WiFi,051-600-4171,중구,부산광역시 중구 남포동4가 37-1,부산광역시 중구 자갈치해안로 52(남포동4가),자갈치시장 내,KT,서민·복지시설
311,부산광역시,신동아시장,35.096841,부산광역시중구청,129.0291,Public WiFi,051-600-4171,중구,부산광역시 중구 남포동5가 91-2,부산광역시 중구 자갈치로 42(남포동5가),신동아시장 내,KT,서민·복지시설
312,부산광역시,부산우체국,35.103408,부산광역시중구청,129.035939,Public WiFi,051-600-4171,중구,부산광역시 중구 중앙동3가 1,부산광역시 중구 중앙대로 63(중앙동3가),민원실,KT,관공서
313,부산광역시,국제시장,35.102082,부산광역시중구청,129.027904,Public WiFi,051-600-4171,중구,부산광역시 중구 신창동4가 35-3,부산광역시 중구 중구로 36(신창동4가),국제시장 내,KT,서민·복지시설
314,부산광역시,대청동 주민센터,35.105483,부산광역시중구청,129.030415,Public WiFi,051-600-4171,중구,부산광역시 중구 대청동2가 2-2,부산광역시 중구 대청로99번길 14-1(대청동2가),민원실,LGU+,관공서
315,부산광역시,영주2동 주민센터,35.11241,부산광역시중구청,129.031896,Public WiFi,051-600-4171,중구,부산광역시 중구 영주2동 278-9,부산광역시 중구 동영로 71-2(영주동),민원실,LGU+,관공서
316,부산광역시,보수동 주민센터,35.106034,부산광역시중구청,129.024948,Public WiFi,051-600-4171,중구,부산광역시 중구 보수동1가 48-2,부산광역시 중구 보수대로140번길 61(보수동1가),민원실,LGU+,관공서
317,부산광역시,영주2동 원로의집,35.113879,부산광역시중구청,129.032057,Public WiFi,051-600-4171,중구,부산광역시 중구 영주동 73-5번지,부산광역시 중구 동영로73번길 57-3(영주동),영주2동 원로의집 내,SKT,서민·복지시설
318,부산광역시,대청(중앙)공원,35.113987,부산광역시중구청,129.03525,Public WiFi,051-600-4171,중구,부산광역시 중구 영주동 10-16,부산광역시 중구 영주동 10-16,대청(중앙)공원 내,SKT,편의시설
319,부산광역시,부산항만공사,35.109198,부산광역시중구청,129.038722,Public WiFi,051-600-4171,중구,부산광역시 중구 중앙동4가 79-9,부산광역시 중구 충장대로9번길 46(중앙동4가),민원실,SKT,관공서
320,부산광역시,연안여객터미널,35.104035,부산광역시중구청,129.036397,Public WiFi,051-600-4171,중구,부산광역시 중구 중앙동5가 15-1,부산광역시 중구 대교로 122(중앙동6가),연안여객터미널 내,SKT,교통시설
321,부산광역시,남포 헌혈의집,35.098526,부산광역시중구청,129.030251,Public WiFi,051-600-4171,중구,부산광역시 중구 남포동5가 3-7,부산광역시 중구 구덕로 50-1(남포동5가),남포 헌혈의집 내,SKT,서민·복지시설
322,부산광역시,중구사회복지관(부산),35.105826,부산광역시중구청,129.028258,Public WiFi,051-600-4171,중구,부산광역시 중구 대청동4가 75-7,부산광역시 중구 망양로 309(대청동4가),중구사회복지관(부산) 내,SKT,서민·복지시설
323,부산광역시,영주1동주민센터,35.111114,부산광역시중구청,129.035016,Public WiFi,051-600-4171,중구,부산광역시 중구 영주동 671-3,부산광역시 중구 대영로224번길 10(영주동),민원실,SKT,관공서
324,부산광역시,중구보건소,35.10625,부산광역시중구청,129.032399,Public WiFi,051-600-4171,중구,부산광역시 중구 대청동1가 1,부산광역시 중구 중구로 120(대청동1가),민원실,SKT,관공서
325,부산광역시,남포동주민센터,35.097386,부산광역시중구청,129.031706,Public WiFi,051-600-4171,중구,부산광역시 중구 남포동4가 32-2,부산광역시 중구 자갈치로 68-1(남포동4가),민원실,SKT,관공서
326,부산광역시,월드밸리상가,35.103226,부산광역시중구청,129.02974,Public WiFi,051-600-4171,중구,부산광역시 중구 대청동3가 2,부산광역시 중구 대청로 91-7(대청동3가),월드밸리상가 내,SKT,서민·복지시설
327,부산광역시,동광동주민센터,35.105024,부산광역시중구청,129.034599,Public WiFi,051-600-4171,중구,부산광역시 중구 동광동5가 44-3,부산광역시 중구 동광길 49(동광동5가),민원실,SKT,관공서
328,부산광역시,보수종합시장,35.104167,부산광역시중구청,129.021843,Public WiFi,051-600-4171,중구,부산광역시 중구 보수동3가 46-1,부산광역시 중구 보수대로 94(보수동3가),보수종합시장 내,SKT,서민·복지시설
329,부산광역시,부평동주민센터,35.100378,부산광역시중구청,129.026556,Public WiFi,051-600-4171,중구,부산광역시 중구 부평동1가 30-27,부산광역시 중구 중구로29번길 23(부평동1가),민원실,SKT,관공서
330,부산광역시,광복동주민센터,35.10002,부산광역시중구청,129.030423,Public WiFi,051-600-4171,중구,부산광역시 중구 신창동1가 9,부산광역시 중구 광복로55번길 10(신창동1가),민원실,SKT,관공서
331,부산광역시,중구 노인복지회관 분관,35.110188,부산광역시중구청,129.032526,Public WiFi,051-600-4171,중구,부산광역시 중구 영주동 287-9,부산광역시 중구 영주로 8-1(영주동),중구 노인복지회관 분관 내,SKT,서민·복지시설
332,부산광역시,중앙동주민센터,35.101312,부산광역시중구청,129.035364,Public WiFi,051-600-4171,중구,부산광역시 중구 중앙동2가 19,부산광역시 중구 중앙대로41번길 10(중앙동2가),민원실,SKT,관공서
333,부산광역시,영주1동경로당,35.113202,부산광역시중구청,129.034126,Public WiFi,051-600-4171,중구,부산광역시 중구 영주동 62-71번지,부산광역시 중구 초량상로7번길 11,영주1동경로당 내,LGU+,서민·복지시설
334,부산광역시,보수새마을,35.107637,부산광역시중구청,129.026728,Public WiFi,051-600-4171,중구,부산광역시 중구 보수동1가 산 3-148,부산광역시 중구 망양로319번길 26,보수새마을 내,LGU+,서민·복지시설
335,부산광역시,중구청 민원실,35.106313,부산광역시중구청,129.032397,Public WiFi,051-600-4171,중구,부산광역시 중구 대청동1가 1-4,부산광역시 중구 중구로 120,중구청 민원실,KT,관공서
336,부산광역시,중구노인복지관,35.104157,부산광역시중구청,129.026185,Public WiFi,051-600-4171,중구,부산광역시 중구 보수동1가 113,부산광역시 중구 책방골목길 3-1,중구노인복지관 내,KT,서민·복지시설
337,부산광역시,부산근대역사관,35.102641,부산광역시중구청,129.031267,Public WiFi,051-600-4171,중구,부산광역시 중구 대청동2가 24-2,부산광역시 중구 대청로 104,부산근대역사관 내,KT,지역문화시설
338,부산광역시,부산시설공단,35.100248,부산광역시중구청,129.035949,Public WiFi,051-600-4171,중구,부산광역시 중구 중앙동1가 26번지,부산광역시 중구 중앙대로 2,민원실,LGU+,관공서
339,부산광역시,생선회박물관,35.096721,부산광역시중구청,129.03112,Public WiFi,051-600-4171,중구,부산광역시 중구 남포동4가 37-1,부산광역시 중구 자갈치해안로 52,박물관,KT,지역문화시설
340,부산광역시,낙원대실버타운,35.324461,부산광역시 기장군,129.1614602,,051-709-4174,기장군,,부산광역시 기장군 정관면 용수공단2길 64-20,민원실,SKT,서민·복지시설
341,부산광역시,성우해피홈,35.3748583,부산광역시 기장군,129.2635523,,051-709-4174,기장군,,부산광역시 기장군 장안읍 대룡2길 45-1,민원실,LGU+,서민·복지시설
342,부산광역시,장안읍사무소,35.3137103,부산광역시 기장군,129.2440241,,051-709-4174,기장군,,부산광역시 기장군 장안읍 좌방길 5,민원실,KT,관공서
343,부산광역시,철마면사무소,35.275027,부산광역시 기장군,129.1497494,,051-709-4174,기장군,,부산광역시 기장군 철마면 철마로 485,민원실,KT,관공서
344,부산광역시,기장도서관,35.2496835,부산광역시 기장군,129.2173884,,051-709-4174,기장군,,부산광역시 기장군 기장읍 동부리 444-2,민원실,LGU+,관공서
345,부산광역시,교리장애인주간보호센터,35.2574093,부산광역시 기장군,129.2141259,,051-709-4174,기장군,,부산광역시 기장군 기장읍 차성로451번길 46-13,민원실,KT,서민·복지시설
346,부산광역시,농업기술센터,35.3251622,부산광역시 기장군,129.276756,,051-709-4174,기장군,,부산광역시 기장군 장안읍 월내해안길 66,민원실,KT,관공서
347,부산광역시,기장군청,35.2435223,부산광역시 기장군,129.2229656,,051-709-4174,기장군,,부산광역시 기장군 기장읍 기장대로560,민원실,KT,관공서
348,부산광역시,기장군청 의회,35.2435223,부산광역시 기장군,129.2229656,,051-709-4174,기장군,,부산광역시 기장군 기장읍 기장대로560,민원실,KT,관공서
349,부산광역시,기장읍사무소(2층),35.2385217,부산광역시 기장군,129.2161992,,051-709-4174,기장군,,부산광역시 기장군 기장읍 차성동로5번길 10,민원실,KT,관공서
350,부산광역시,청소년수련관,35.2445494,부산광역시 기장군,129.2221542,,051-709-4174,기장군,,부산광역시 기장군 정관읍 달음산길 106,민원실,KT,교육시설
351,부산광역시,기장장애인복지관,35.2445494,부산광역시 기장군,129.2221542,,051-709-4174,기장군,,부산광역시 기장군 정관읍 병산로 42-15,민원실,KT,서민·복지시설
352,부산광역시,송암노인요양원,35.249562,부산광역시 기장군,129.2102653,,051-709-4174,기장군,,부산광역시 기장군 배산로56번길 26-16,민원실,SKT,서민·복지시설
353,부산광역시,기장시장,35.2435205,부산광역시 기장군,129.2150933,,051-709-4174,기장군,,부산광역시 기장군 기장읍 읍내로104번길 16,시장,KT,편의시설
354,부산광역시,정관면사무소,35.3255581,부산광역시 기장군,129.1801399,,051-709-4174,기장군,,부산광역시 기장군 정관면 용수로 4,민원실,KT,관공서
355,부산광역시,일광면사무소,35.263653,부산광역시 기장군,129.2320456,,051-709-4174,기장군,,부산광역시 기장군 일광면 일광로 77-7,민원실,KT,관공서
356,부산광역시,기장군 보건소,35.2435223,부산광역시 기장군,129.2229656,,051-709-4174,기장군,,부산광역시 기장군 기장읍 기장대로 560,민원실,KT,관공서
357,부산광역시,정관보건지소,35.3255581,부산광역시 기장군,129.1801399,,051-709-4174,기장군,,부산광역시 기장군 정관면 용수로 4,민원실,KT,관공서
358,부산광역시,장안보건지소,35.3133187,부산광역시 기장군,129.2442369,,051-709-4174,기장군,,부산광역시 기장군 장안읍 좌방길 6,민원실,KT,관공서
359,부산광역시,장안오리진료소,35.3718181,부산광역시 기장군,129.2618246,,051-709-4174,기장군,,부산광역시 기장군 장안읍 오리길 3-6,민원실,KT,관공서
360,부산광역시,삼동보건진료소,35.3129395,부산광역시 기장군,129.1151505,,051-709-4174,기장군,,부산광역시 기장군 철마면 철마삼동로 94,민원실,KT,관공서
361,부산광역시,기장제1공영주차장,35.2440534,부산광역시 기장군,129.2169537,,051-709-4174,기장군,,부산광역시 기장군 기장읍 차성동로 70,주차장,KT,기타
362,부산광역시,기장군노인복지관,35.2350962,부산광역시 기장군,129.2125958,,051-709-4174,기장군,,부산광역시 기장군 기장읍 대청로 22번길 61,민원실,KT,서민·복지시설
363,부산광역시,기장종합사회복지관,35.2359763,부산광역시 기장군,129.2136438,,051-709-4174,기장군,,부산광역시 기장군 기장읍 차성로 206,민원실,KT,서민·복지시설
364,부산광역시,반석노인건강센터,35.3795114,부산광역시 기장군,129.2602275,,051-709-4174,기장군,,부산광역시 기장군 장안읍 못안길 47,민원실,LGU+,서민·복지시설
365,부산광역시,동행과 나눔,35.3424505,부산광역시 기장군,129.1768775,,051-709-4174,기장군,,부산광역시 기장군 정관면 병산로 127-25,민원실,KT,서민·복지시설
366,부산광역시,부산시립박물관,35.137204,부산광역시 남구청,129.092961,Public Wifi,1899-4876,남구,부산광역시 남구 대연동 948-1,부산광역시 남구 유엔평화로 63,관리사무실,LGU,관공서
367,부산광역시,용호1동 주민센터,35.120801,부산광역시 남구청,129.109047,Public Wifi,1899-4876,남구,부산광역시 남구 용호동 414-47,부산광역시 남구 용호로42번길 140,민원실,LGU,관공서
368,부산광역시,대연3동 주민센터,35.140006,부산광역시 남구청,129.103862,Public Wifi,1899-4876,남구,부산광역시 남구 대연동 1862,"부산광역시 남구 수영로 345, 118호 (대연동, 대연힐스테이트푸르지오 상가)",민원실,LGU,관공서
369,부산광역시,문현3동 주민센터,35.138157,부산광역시 남구청,129.071703,Public Wifi,1899-4876,남구,부산광역시 남구 문현동 205-44,부산광역시 남구 고동골로4번길 7-18,민원실,LGU,관공서
370,부산광역시,용호3동 주민센터,35.121002,부산광역시 남구청,129.112831,Public Wifi,1899-4876,남구,부산광역시 남구 용호동 371-2,부산광역시 남구 동명로145번길 33,민원실,LGU,관공서
371,부산광역시,대연5동 주민센터,35.138457,부산광역시 남구청,129.090172,Public Wifi,1899-4876,남구,부산광역시 남구 대연동 1463-1,부산광역시 남구 진남로46번길 7,민원실,LGU,관공서
372,부산광역시,감만1동 주민센터,35.116895,부산광역시 남구청,129.080672,Public Wifi,1899-4876,남구,부산광역시 남구 감만동 141-3,부산광역시 남구 우암로 71-7,민원실,LGU,관공서
373,부산광역시,대연1동 주민센터,35.134534,부산광역시 남구청,129.093477,Public Wifi,1899-4876,남구,부산광역시 남구 대연동 984-20,부산광역시 남구 유엔평화로 24,민원실,LGU,관공서
374,부산광역시,용호4동 주민센터,35.113212,부산광역시 남구청,129.110405,Public Wifi,1899-4876,남구,부산광역시 남구 용호동 533-23,부산광역시 남구 용호로216번길 10,민원실,LGU,관공서
375,부산광역시,우암동 주민센터,35.124992,부산광역시 남구청,129.075871,Public Wifi,1899-4876,남구,부산광역시 남구 우암동 162-18,부산광역시 남구 우암로 190-15,민원실,LGU,관공서
376,부산광역시,대연4동 주민센터,35.129812,부산광역시 남구청,129.091415,Public Wifi,1899-4876,남구,부산광역시 남구 대연동 1090-14,부산광역시 남구 석포로91번길 96,민원실,LGU,관공서
377,부산광역시,대연6동 주민센터,35.134931,부산광역시 남구청,129.083567,Public Wifi,1899-4876,남구,부산광역시 남구 대연동 1768-3,부산광역시 남구 수영로 155,민원실,LGU,관공서
378,부산광역시,문현1동 주민센터,35.142523,부산광역시 남구청,129.071322,Public Wifi,1899-4876,남구,부산광역시 남구 문현동 127-10,부산광역시 남구 고동골로60번길 1,민원실,LGU,관공서
379,부산광역시,㈜용호시장,35.115316,부산광역시 남구청,129.112862,Public Wifi,1899-4876,남구,부산광역시 남구 용호2동 516-10번지,부산광역시 남구 동명로152번길 93,상인회실,LGU+,기타
380,부산광역시,남구노인복지관,35.136361,부산광역시 남구청,129.093298,Public Wifi,1899-4876,남구,부산광역시 남구 대연동 1346,부산광역시 남구 못골로 97-10,관리사무실,KT,서민·복지시설
381,부산광역시,대동골 문화센터,35.154542,부산광역시 남구청,129.089261,Public Wifi,1899-4876,남구,부산광역시 남구 대연동 245-170,부산광역시 남구 황령대로319번가길 147,민원실,KT,관공서
382,부산광역시,"남구청(2층, 3층 민원실)",35.136649,부산광역시 남구청,129.084298,Public Wifi,1899-4876,남구,부산광역시 남구 대연동 1268-1,부산광역시 남구 못골로 19(대연동),민원실,SKT,관공서
383,부산광역시,남구 보건소(1층 민원실),35.136071,부산광역시 남구청,129.084985,Public Wifi,1899-4876,남구,부산광역시 남구 대연동 1268-3,부산광역시 남구 못골로 23(대연동),민원실,SKT,관공서
384,부산광역시,남구 드림스타트(구 대연2동사),35.134507,부산광역시 남구청,129.084119,Public Wifi,1899-4876,남구,부산광역시 남구 대연동 1241-2,부산광역시 남구 수영로 160 (대연동),민원실,SKT,관공서
385,부산광역시,감만2동 주민센터,35.122753,부산광역시 남구청,129.084548,Public Wifi,1899-4876,남구,부산광역시 남구 감만동 20-58,부산광역시 남구 석포로 32-1,민원실,SKT,관공서
386,부산광역시,용호2동 주민센터,35.115141,부산광역시 남구청,129.113456,Public Wifi,1899-4876,남구,부산광역시 남구 용호동 517-19,부산광역시 남구 용호로197번길 41,민원실,SKT,관공서
387,부산광역시,용당동 주민센터,35.117883,부산광역시 남구청,129.095041,Public Wifi,1899-4876,남구,부산광역시 남구 용당동 401-1,부산광역시 남구 신선로 349-4,민원실,SKT,관공서
388,부산광역시,용호1동 현장민원실,35.130356,부산광역시 남구청,129.107195,Public Wifi,1899-4876,남구,부산광역시 남구 용호동 176-64,부산광역시 남구 신선로 566-2,민원실,SKT,관공서
389,부산광역시,남구장애인복지관,35.129536,부산광역시 남구청,129.099231,Public Wifi,1899-4876,남구,부산광역시 남구 대연동 567-16,부산광역시 남구 조각공원로11번길 38 (대연동),관리사무실,SKT,서민·복지시설
390,부산광역시,문현4동 주민센터,35.136487,부산광역시 남구청,129.069039,Public Wifi,1899-4876,남구,부산광역시 남구 문현4동 366-18,"부산광역시 남구 수영로 12, 3층 3호(문현동, 세종그랑시아상가)",민원실,SKT,관공서
391,부산광역시,남구도서관,35.137953,부산광역시 남구청,129.094551,Public Wifi,1899-4876,남구,부산광역시 남구 대연동 317-56,부산광역시 남구 수영로 267번길,민원실,SKT,관공서
392,부산광역시,새빛기독보육원,35.116798,부산광역시 남구청,129.113528,Public Wifi,1899-4876,남구,부산광역시 남구 용호동 517-19,부산광역시 남구 용호로 197번길 41,관리사무실,SKT,서민·복지시설
393,부산광역시,나사함발달장애인복지관,35.143585,부산광역시 남구청,129.089241,Public Wifi,1899-4876,남구,부산광역시 남구 대연동 1483-9,부산광역시 남구 못골번영로 70,관리사무실,SKT,서민·복지시설
394,부산광역시,우암동 주민센터,35.125016,부산광역시,129.075892,Public WiFi,051-888-4604,남구,부산광역시 남구 우암동 162-18,부산광역시 남구 우암로 190-15,민원실,LGU+,관공서
395,부산광역시,원자력스포츠문화센터,35.335499,부산광역시,129.283327,Public WiFi,051-888-4604,기장군,부산광역시 기장군 장안읍 길천리 411-2,부산광역시 기장군 장안읍 천산로 28,센터,KT,지역문화시설
396,부산광역시,남구청 민원실,35.1364086,부산광역시,129.0843714,Public WiFi,051-888-4604,남구,부산광역시 남구 대연동 1268-1,부산광역시 남구 못골로 19,"2층, 3층",SKT,관공서
397,부산광역시,남구청 구민공원,35.1364086,부산광역시,129.0843714,Public WiFi,051-888-4604,남구,부산광역시 남구 대연6동 1268-1,부산광역시 남구 못골로 19,공원,SKT,편의시설
398,부산광역시,남구 종합사회복지관,35.1273813,부산광역시,129.0747377,Public WiFi,051-888-4604,남구,부산광역시 남구 우암동 129-339,부산광역시 남구 우암양달로89번길 29,복지관,KT,서민·복지시설
399,부산광역시,남구 장애인복지관,35.1292022,부산광역시,129.0992329,Public WiFi,051-888-4604,남구,부산광역시 남구 대연동 567-16,부산광역시 남구 조각공원로11번길 38,복지관,SKT,서민·복지시설
400,부산광역시,남구 보건소,35.1359912,부산광역시,129.0849575,Public WiFi,051-888-4604,남구,부산광역시 남구 대연동 1268-3,부산광역시 남구 못골로 23,민원실,SKT,관공서
401,부산광역시,남구 도서관,35.1379698,부산광역시,129.0947979,Public WiFi,051-888-4604,남구,부산광역시 남구 대연동 317-56,부산광역시 남구 수영로267번길 61,도서관,SKT,지역문화시설
402,부산광역시,남구 노인복지관,35.1361874,부산광역시,129.0932252,Public WiFi,051-888-4604,남구,부산광역시 남구 대연동 1346,부산광역시 남구 못골로 97-10,복지관,KT,서민·복지시설
403,부산광역시,나사함발달장애복지관,35.1413421,부산광역시,129.0890435,Public WiFi,051-888-4604,남구,부산광역시 남구 대연동 1483-9,부산광역시 남구 못골번영로 70,복지관,SKT,서민·복지시설
404,부산광역시,국도예술관,35.1277212,부산광역시,129.0927542,Public WiFi,051-888-4604,남구,부산광역시 남구 대연동 965-2,부산광역시 남구 유엔평화로76번길 26,예술관,SKT,지역문화시설
405,부산광역시,교통관리공단,35.1310208,부산광역시,129.1019171,Public WiFi,051-888-4604,남구,부산광역시 남구 대연3동 580-8,부산광역시 남구 용소로 68,민원실,SKT,관공서
406,부산광역시,감만사회복지관,35.118507,부산광역시,129.081354,Public WiFi,051-888-4604,남구,부산광역시 남구 감만동 78,부산광역시 남구 우암로 84-1,복지관,SKT,서민·복지시설
407,부산광역시,감만2동 주민센터,35.1225025,부산광역시,129.0845434,Public WiFi,051-888-4604,남구,부산광역시 남구 감만동 20-58,부산광역시 남구 석포로 32-1,민원실,SKT,관공서
408,부산광역시,감만1동 주민센터,35.116835,부산광역시,129.080674,Public WiFi,051-888-4604,남구,부산광역시 남구 감만동 141-3,부산광역시 남구 우암로 71-1,민원실,LGU+,관공서
409,부산광역시,부산문화회관,35.127129,부산광역시,129.094532,Dynamic Busan,051-888-4604,남구,부산광역시 남구 대연동 848-4,부산광역시 남구 유엔평화로76번길 1,중극장,부산광역시,지역문화시설
410,부산광역시,부산문화회관,35.126843,부산광역시,129.093962,Dynamic Busan,051-888-4604,남구,부산광역시 남구 대연동 848-4,부산광역시 남구 유엔평화로76번길 1,관리동,부산광역시,지역문화시설
411,부산광역시,한빛아파트 2단지 문화센터,35.335499,부산광역시,129.283327,Public WiFi,051-888-4604,기장군,부산광역시 기장군 장안읍 길천리 310-3,부산광역시 기장군 장안읍 천산로 28,센터,SKT,지역문화시설
412,부산광역시,농협 기장점,35.243254,부산광역시,129.215045,Public WiFi,051-888-4604,기장군,부산광역시 기장군 기장읍 대라리 73-7,부산광역시 기장군 기장읍 차성로288번길 27,민원실,SKT,기타
413,부산광역시,청소년수련관,35.3112199,부산광역시,129.1999357,Public WiFi,051-888-4604,기장군,부산광역시 기장군 정관읍 달산리 417-22,부산광역시 기장군 정관읍 달음산길106,수련관,KT,지역문화시설
414,부산광역시,철마면사무소,35.2749851,부산광역시,129.149785,Public WiFi,051-888-4604,기장군,부산광역시 기장군 철마면 와여리 546,부산광역시 기장군 철마면 철마로 485,민원실,KT,관공서
415,부산광역시,철마면복지회관,35.2735973,부산광역시,129.1501499,Public WiFi,051-888-4604,기장군,부산광역시 기장군 철마면 장전리 279-1,부산광역시 기장군 철마면 개좌로 822,회관,KT,서민·복지시설
416,부산광역시,정관주민자치회관,35.3259235,부산광역시,129.1707135,Public WiFi,051-888-4604,기장군,부산광역시 기장군 정관면 용수리 1328-3,부산광역시 기장군 정관면 정관로 495,회관,KT,서민·복지시설
417,부산광역시,정관보건지소,35.326016,부산광역시,129.179734,Public WiFi,051-888-4604,기장군,부산광역시 기장군 정관읍 용수리 141,부산광역시 기장군 정관면 용수로 4,민원실,KT,서민·복지시설
418,부산광역시,정관면사무소,35.325548,부산광역시,129.180289,Public WiFi,051-888-4604,기장군,부산광역시 기장군 정관읍 용수리 141,부산광역시 기장군 정관면 용수로 4,민원실,KT,관공서
419,부산광역시,추리문학관,35.1616978,부산광역시,129.1832955,Public WiFi,051-888-4604,해운대구,부산광역시 해운대구 중2동 1483-6,부산광역시 해운대구 달맞이길117번나길 111,추리문학관,SKT,지역문화시설
420,부산광역시,좌1동주민센터,35.1709067,부산광역시,129.174256,Public WiFi,051-888-4604,해운대구,부산광역시 해운대구 좌동 1458-2,부산광역시 해운대구 양운로 91,민원실,SKT,관공서
421,부산광역시,재송어린이도서관,35.1896156,부산광역시,129.1184815,Public WiFi,051-888-4604,해운대구,부산광역시 해운대구 재송동 948-23,부산광역시 해운대구 해운대로 76번길 35-1,도서관,SKT,지역문화시설
422,부산광역시,중동거리,35.168963,부산광역시,129.138526,Public WiFi,051-888-4604,해운대구,부산광역시 해운대구 우2동 1090-2,부산광역시 해운대구 우2동 1090-2,중동거리,LGU+,기타
423,부산광역시,중2동 주민센터,35.1624026,부산광역시,129.1799244,Public WiFi,051-888-4604,해운대구,부산광역시 해운대구 중동 1519-3,부산광역시 해운대구 좌동순환로433번길 34,민원실,SKT,관공서
424,부산광역시,중1동주민센터,35.1625222,부산광역시,129.1642093,Public WiFi,051-888-4604,해운대구,부산광역시 해운대구 중동 1394-68,부산광역시 해운대구 중동1로 37번길 20,민원실,SKT,관공서
425,부산광역시,좌동재래시장,35.1730816,부산광역시,129.1744706,Public WiFi,051-888-4604,해운대구,부산광역시 해운대구 좌동 892,부산광역시 해운대구 좌동로 91번길 20,시장,SKT,서민·복지시설
426,부산광역시,좌4동주민센터,35.1778997,부산광역시,129.176251,Public WiFi,051-888-4604,해운대구,부산광역시 해운대구 좌동 1407-6,부산광역시 해운대구 좌동순환로 183,민원실,KT,관공서
427,부산광역시,좌3동주민센터,35.1722617,부산광역시,129.1666317,Public WiFi,051-888-4604,해운대구,부산광역시 해운대구 좌동 1341-3,부산광역시 해운대구 좌동순환로 65,민원실,KT,관공서
428,부산광역시,좌2동주민센터,35.1691557,부산광역시,129.1826244,Public WiFi,051-888-4604,해운대구,부산광역시 해운대구 좌동 1327-2,부산광역시 해운대구 좌동순환로302,민원실,KT,관공서
429,부산광역시,재송2동주민센터,35.1896039,부산광역시,129.1253134,Public WiFi,051-888-4604,해운대구,부산광역시 해운대구 재송동 1046,부산광역시 해운대구 재반로125번길 26,민원실,SKT,관공서
430,부산광역시,재송1동주민센터,35.1846153,부산광역시,129.1251852,Public WiFi,051-888-4604,해운대구,부산광역시 해운대구 재송1동 274-2번지,부산광역시 해운대구 재반로63번길 23 (재송동),민원실,SKT,관공서
431,부산광역시,재반보건지소,35.1924165,부산광역시,129.1228472,Public WiFi,051-888-4604,해운대구,부산광역시 해운대구 재송동 179-41번지,부산광역시 해운대구 해운대로61번길 28 (재송동),민원실,SKT,서민·복지시설
432,부산광역시,장산노인복지관,35.173874,부산광역시,129.178664,Public WiFi,051-888-4604,해운대구,부산광역시 해운대구 좌동 1305-1,부산광역시 해운대구 좌동로 126,복지관,KT,서민·복지시설
433,부산광역시,인덕원,35.235168,부산광역시,129.149861,Public WiFi,051-888-4604,해운대구,부산광역시 해운대구 반송2동 424-5,부산광역시 해운대구 반송로877번길 122 (반송동),인덕원,KT,서민·복지시설
434,부산광역시,우일시장,35.1649926,부산광역시,129.1599029,Public WiFi,051-888-4604,해운대구,부산광역시 해운대구 우동 552-2,부산광역시 해운대구 우동1로20번길 56,시장,SKT,편의시설
435,부산광역시,우동종합상가시장,35.1703643,부산광역시,129.1389344,Public WiFi,051-888-4604,해운대구,부산광역시 해운대구 우동 1092-16,부산광역시 해운대구 해운대로383번길 21,시장,SKT,편의시설
436,부산광역시,우2동주민센터,35.1712048,부산광역시,129.1399222,Public WiFi,051-888-4604,해운대구,부산광역시 해운대구 우동 1185-120,부산광역시 해운대구 해운대로 383번가길 7,민원실,SKT,관공서
437,부산광역시,우1동주민센터,35.1628875,부산광역시,129.1580827,Public WiFi,051-888-4604,해운대구,부산광역시 해운대구 우동 539-4,부산광역시 해운대구 해운대로 612,민원실,SKT,관공서
438,부산광역시,영진종합사회복지관,35.205783,부산광역시,129.126315,Public WiFi,051-888-4604,해운대구,부산광역시 해운대구 반여1동 1247,부산광역시 해운대구 반여로 165,복지관,SKT,서민·복지시설
439,부산광역시,영광재활원,35.205771,부산광역시,129.1179387,Public WiFi,051-888-4604,해운대구,부산광역시 해운대구 반여1동 1062-1,부산광역시 해운대구 삼의로 91번지,재활원,SKT,서민·복지시설
440,부산광역시,어진샘노인종합복지관,35.1799103,부산광역시,129.1278193,Public WiFi,051-888-4604,해운대구,부산광역시 해운대구 재송1동 100-9,부산광역시 해운대구 재반로 12번길 16,복지관,LGU+,서민·복지시설
441,부산광역시,시립미술관역,35.1689035,부산광역시,129.1385252,Public WiFi,051-888-4604,해운대구,부산광역시 해운대구 우2동 1090-2,부산광역시 해운대구 우2동 1090-2,역사,LGU+,교통시설
442,부산광역시,부산지방검찰청 동부지청 민원실,35.1892224,부산광역시,129.1292197,Public WiFi,051-888-4604,해운대구,부산광역시 해운대구 재송2동 1133,부산광역시 해운대구 재반로112번길 19,민원실,SKT,관공서
443,부산광역시,부산시립해운대도서관,35.168802,부산광역시,129.155751,Public WiFi,051-888-4604,해운대구,부산광역시 해운대구 우1동 379,부산광역시 해운대구 우동1로 89,도서관,KT,지역문화시설
444,부산광역시,부산시립미술관,35.1660415,부산광역시,129.1369819,Public WiFi,051-888-4604,해운대구,부산광역시 해운대구 우동 1413,부산광역시 해운대구 APEC로 58,지하1층,SKT,지역문화시설
445,부산광역시,부산시립미술관,35.1660415,부산광역시,129.1369819,Public WiFi,051-888-4604,해운대구,부산광역시 해운대구 우동 1413,부산광역시 해운대구 APEC로 58,3층,SKT,지역문화시설
446,부산광역시,부산시립미술관,35.1660415,부산광역시,129.1369819,Public WiFi,051-888-4604,해운대구,부산광역시 해운대구 우동 1413,부산광역시 해운대구 APEC로 58,2층,SKT,지역문화시설
447,부산광역시,부산시립미술관,35.1660415,부산광역시,129.1369819,Public WiFi,051-888-4604,해운대구,부산광역시 해운대구 우동 1413,부산광역시 해운대구 APEC로 58,1층,SKT,지역문화시설
448,부산광역시,부산동부지원,35.1892224,부산광역시,129.1292197,Public WiFi,051-888-4604,해운대구,부산광역시 해운대구 재송동 1133,부산광역시 해운대구 재반로112번길 19,민원실,KT,관공서
449,부산광역시,반여시장,35.195617,부산광역시,129.1287678,Public WiFi,051-888-4604,해운대구,부산광역시 해운대구 반여동 1291-918,부산광역시 해운대구 해운대로61번길 95-47,시장,SKT,편의시설
450,부산광역시,반여복지관,35.1982412,부산광역시,129.1318837,Public WiFi,051-888-4604,해운대구,부산광역시 해운대구 반여2동 1291-1360,부산광역시 해운대구 재반로226번길 13-73,복지관,LGU+,서민·복지시설
451,부산광역시,반여도서관,35.2018799,부산광역시,129.1337839,Public WiFi,051-888-4604,해운대구,부산광역시 해운대구 반여동 1575-78,부산광역시 해운대구 재반로 282번길 38,도서관,SKT,지역문화시설
452,부산광역시,반여도서관,35.2018799,부산광역시,129.1337839,Public WiFi,051-888-4604,해운대구,부산광역시 해운대구 반여동 1575-78,부산광역시 해운대구 재반로282번길 38,도서관,KT,지역문화시설
453,부산광역시,반여농산물 도매시장,35.2148598,부산광역시,129.1225336,Public WiFi,051-888-4604,해운대구,부산광역시 해운대구 반여동 559,부산광역시 해운대구 수영강변대로 626,시장,SKT,서민·복지시설
454,부산광역시,반여4동주민센터,35.2091987,부산광역시,129.1172135,Public WiFi,051-888-4604,해운대구,부산광역시 해운대구 반여동 1122번지,부산광역시 해운대구 삼어로133번길 50 (반여동),민원실,SKT,관공서
455,부산광역시,반여3동주민센터,35.2009859,부산광역시,129.1335166,Public WiFi,051-888-4604,해운대구,부산광역시 해운대구 반여동 1591-4번지,부산광역시 해운대구 재반로256번길 29-70 (반여동),민원실,SKT,관공서
456,부산광역시,반여3동 골목시장,35.199931,부산광역시,129.132061,Public WiFi,051-888-4604,해운대구,부산광역시 해운대구 반여3동 1607-2,부산광역시 해운대구 재반로256번길 8,시장,SKT,서민·복지시설
457,부산광역시,반여2동주민센터,35.1959634,부산광역시,129.1301538,Public WiFi,051-888-4604,해운대구,부산광역시 해운대구 반여동 1291-836번지,부산광역시 해운대구 재반로211번길 9 (반여동),민원실,SKT,관공서
458,부산광역시,반여2동 상가시장,35.1956196,부산광역시,129.1286673,Public WiFi,051-888-4604,해운대구,부산광역시 해운대구 반여2동 1291-918번지,부산광역시 해운대구 해운대로61번길 95-47,시장,SKT,서민·복지시설
459,부산광역시,반여1동주민센터,35.2012552,부산광역시,129.1189954,Public WiFi,051-888-4604,해운대구,부산광역시 해운대구 반여1동 1441-34번지,부산광역시 해운대구 선수촌로 85 (반여동),민원실,SKT,관공서
460,부산광역시,반송복지관(해운대),35.2263444,부산광역시,129.1468777,Public WiFi,051-888-4604,해운대구,부산광역시 해운대구 반송1동 697-2,부산광역시 해운대구 아랫반송로1번길 15,복지관,SKT,서민·복지시설
461,부산광역시,반송보건지소,35.2298342,부산광역시,129.1475114,Public WiFi,051-888-4604,해운대구,부산광역시 해운대구 반송동 683-48번지,부산광역시 해운대구 반송로 853 (반송동),민원실,SKT,서민·복지시설
462,부산광역시,반송골목시장,35.224018,부산광역시,129.150362,Public WiFi,051-888-4604,해운대구,부산광역시 해운대구 반송동 250-410,부산광역시 해운대구 아랫반송로39번길 18-12,시장,SKT,서민·복지시설
463,부산광역시,반송3동주민센터,35.2245734,부산광역시,129.1522136,Public WiFi,051-888-4604,해운대구,부산광역시 해운대구 반송동 259-113번지,부산광역시 해운대구 반송순환로 158 (반송동),민원실,SKT,관공서
464,부산광역시,반송2동주민센터,35.2287988,부산광역시,129.1603701,Public WiFi,051-888-4604,해운대구,부산광역시 해운대구 반송동 890번지,부산광역시 해운대구 신반송로 173 (반송동),민원실,SKT,관공서
465,부산광역시,반송2동 시장,35.2311218,부산광역시,129.1562102,Public WiFi,051-888-4604,해운대구,부산광역시 해운대구 반송2동 40-762,부산광역시 해운대구 윗반송로51번길 86,시장,LGU+,서민·복지시설
466,부산광역시,반송1동주민센터,35.2251983,부산광역시,129.1478078,Public WiFi,051-888-4604,해운대구,부산광역시 해운대구 반송동 717-5번지,부산광역시 해운대구 아랫반송로 16 (반송동),민원실,SKT,관공서
467,부산광역시,로뎀요양병원,35.2267783,부산광역시,129.1469633,Public WiFi,051-888-4604,해운대구,부산광역시 해운대구 반송1동 696-1,부산광역시 해운대구 아랫반송로1번길 27-3,병원,LGU+,서민·복지시설
468,부산광역시,대한적십자 해운대점,35.1625885,부산광역시,129.1623498,Public WiFi,051-888-4604,해운대구,부산광역시 해운대구 중1동 1394-385,부산광역시 해운대구 구남로29번길 38,민원실,KT,관공서
469,부산광역시,해운대해수욕장,35.157112,부산광역시,129.155395,Dynamic Busan,051-888-4604,해운대구,부산광역시 해운대구 우동 706,부산광역시 해운대구 우동 706,송림공원앞해변가,부산광역시,관광
470,부산광역시,해운대해수욕장,35.158309,부산광역시,129.157057,Dynamic Busan,051-888-4604,해운대구,부산광역시 해운대구 우동 699-8,부산광역시 해운대구 우동 699-8,포장마차촌앞해변가,부산광역시,관광
471,부산광역시,해운대해수욕장,35.160846,부산광역시,129.163499,Dynamic Busan,051-888-4604,해운대구,부산광역시 해운대구 중동 1411-14,부산광역시 해운대구 중동 1411-14,노보텔앞해변가,부산광역시,관광
472,부산광역시,해운대해수욕장,35.152417,부산광역시,129.152543,Dynamic Busan,051-888-4604,해운대구,부산광역시 해운대구 우동 710-1,부산광역시 해운대구 우동 710-1,동백섬등대광장,부산광역시,관광
473,부산광역시,해운대해수욕장,35.162449,부산광역시,129.163234,Dynamic Busan,051-888-4604,해운대구,부산광역시 해운대구 중동 1378-7,부산광역시 해운대구 중동1로 33-1,해운대시장입구(구청쪽),부산광역시,관광
474,부산광역시,해운대해수욕장,35.159546,부산광역시,129.168097,Dynamic Busan,051-888-4604,해운대구,부산광역시 해운대구 중동 1405-10,부산광역시 해운대구 해운대해변로 302,대림맨션앞도로변,부산광역시,관광
475,부산광역시,해운대해수욕장,35.158019,부산광역시,129.152419,Dynamic Busan,051-888-4604,해운대구,부산광역시 해운대구 중동 1439-32,부산광역시 해운대구 중동 1439-32,노보텔앞삼거리신호등,부산광역시,관광
476,부산광역시,해운대해수욕장,35.158573,부산광역시,129.154577,Dynamic Busan,051-888-4604,해운대구,부산광역시 해운대구 우동 1151-14,부산광역시 해운대구 우동 1151-14,동백사거리신호등,부산광역시,관광
477,부산광역시,해운대해수욕장,35.158386,부산광역시,129.157304,Dynamic Busan,051-888-4604,해운대구,부산광역시 해운대구 우동 760-3,부산광역시 해운대구 해운대해변로 203,오션스카이앞,부산광역시,관광
478,부산광역시,해운대해수욕장,35.159985,부산광역시,129.161167,Dynamic Busan,051-888-4604,해운대구,부산광역시 해운대구 우동 622-4,부산광역시 해운대구 해운대해변로 236,포장마차촌,부산광역시,관광
479,부산광역시,해운대해수욕장,35.159354,부산광역시,129.160371,Dynamic Busan,051-888-4604,해운대구,부산광역시 해운대구 우동 628-5,부산광역시 해운대구 해운대해변로 243,글로리콘도앞,부산광역시,관광
480,부산광역시,해운대해수욕장,35.159544,부산광역시,129.157988,Dynamic Busan,051-888-4604,해운대구,부산광역시 해운대구 중동 1412-1,부산광역시 해운대구 해운대해변로 277,삼거리길건너편,부산광역시,관광
481,부산광역시,해운대해수욕장,35.159959,부산광역시,129.162114,Dynamic Busan,051-888-4604,해운대구,부산광역시 해운대구 중동 1391-72,부산광역시 해운대구 해운대해변로265번길 6,해운대우체국주변,부산광역시,관광
482,부산광역시,해운대해수욕장,35.159959,부산광역시,129.162114,Dynamic Busan,051-888-4604,해운대구,부산광역시 해운대구 우동 620-3,부산광역시 해운대구 해운대해변로 264,관광사업소앞도로변,부산광역시,관광
483,부산광역시,해운대해수욕장,35.158638,부산광역시,129.158378,Dynamic Busan,051-888-4604,해운대구,부산광역시 해운대구 우동 622-31,부산광역시 해운대구 우동 622-31,공영주차장앞해변가,부산광역시,관광
484,부산광역시,해운대해수욕장,35.159039,부산광역시,129.160315,Dynamic Busan,051-888-4604,해운대구,부산광역시 해운대구 우동 620-3,부산광역시 해운대구 해운대해변로 264,관광사업소앞해변가,부산광역시,관광
485,부산광역시,해운대해수욕장,35.159668,부산광역시,129.166629,Dynamic Busan,051-888-4604,해운대구,부산광역시 해운대구 중동 1039-9,부산광역시 해운대구 중동 1039-9,엘시티앞해변가,부산광역시,관광
486,부산광역시,해운대해수욕장,35.159626,부산광역시,129.164829,Dynamic Busan,051-888-4604,해운대구,부산광역시 해운대구 중동 1055-5,부산광역시 해운대구 중동 1055-5,팔레드시즈앞해변가,부산광역시,관광
487,부산광역시,해운대해수욕장,35.159544,부산광역시,129.163032,Dynamic Busan,051-888-4604,해운대구,부산광역시 해운대구 중동 1408-17,부산광역시 해운대구 중동 1408-17,파라다이스호텔앞해변가,부산광역시,관광
488,부산광역시,해운대해수욕장,35.161028,부산광역시,129.163979,Dynamic Busan,051-888-4604,해운대구,부산광역시 해운대구 중동 1412-1,부산광역시 해운대구 해운대해변로 277,뉴비치호텔앞,부산광역시,관광
489,부산광역시,해운대해수욕장,35.159959,부산광역시,129.162114,Dynamic Busan,051-888-4604,해운대구,부산광역시 해운대구 중동 1383-9,부산광역시 해운대구 구남로 23,농협 맞은 편,부산광역시,관광
490,부산광역시,해운대해수욕장,35.159959,부산광역시,129.162114,Dynamic Busan,051-888-4604,해운대구,부산광역시 해운대구 중동 1393-5,부산광역시 해운대구 구남로 29,다비치안경점 앞,부산광역시,관광
491,부산광역시,시립미술관,35.165074,부산광역시,129.134747,Dynamic Busan,051-888-4604,해운대구,부산광역시 해운대구 우동 1413,부산광역시 해운대구 APEC로 58,시립미술관,부산광역시,지역문화시설
492,부산광역시,송정해수욕장,35.176043,부산광역시,129.197121,Dynamic Busan,051-888-4604,해운대구,부산광역시 해운대구 송정동 913-4,부산광역시 해운대구 송정동 913-4,송정해수욕장입구굴다리앞,부산광역시,관광
493,부산광역시,송정해수욕장,35.179815,부산광역시,129.205194,Dynamic Busan,051-888-4604,해운대구,부산광역시 해운대구 송정동 288-60,부산광역시 해운대구 송정동 288-60,죽도공원앞화장실,부산광역시,관광
494,부산광역시,송정해수욕장,35.179475,부산광역시,129.199578,Dynamic Busan,051-888-4604,해운대구,부산광역시 해운대구 송정동 712-1,부산광역시 해운대구 송정해변로 62,임해봉사실,부산광역시,관광
495,부산광역시,부산쇼핑관광센터,35.099516,부산광역시,129.031165,Public WiFi,051-888-4604,중구,부산광역시 중구 광복동 2가 1-2,부산광역시 중구 용두산길 37-55,센터,SKT,관광
496,부산광역시,중앙동주민센터,35.1013114,부산광역시,129.0353388,Public WiFi,051-888-4604,중구,부산광역시 중구 중앙동2가 19,부산광역시 중구 중앙대로 41번길 10,민원실,SKT,관공서
497,부산광역시,부평동주민센터,35.1003759,부산광역시,129.026537,Public WiFi,051-888-4604,중구,부산광역시 중구 부평동1가 30-27,부산광역시 중구 중구로29번길 23,민원실,SKT,관공서
498,부산광역시,부산항만공사,35.1091879,부산광역시,129.0387043,Public WiFi,051-888-4604,중구,부산광역시 중구 중앙동4가 79-9,부산광역시 중구 충장대로9번길 46,민원실,SKT,관공서
499,부산광역시,부산우체국,35.1034095,부산광역시,129.0359149,Public WiFi,051-888-4604,중구,부산광역시 중구 중앙동3가 1,부산광역시 중구 중앙대로 63,민원실,KT,관공서
500,부산광역시,부산시설공단,35.1002481,부산광역시,129.0359485,Public WiFi,051-888-4604,중구,부산광역시 중구 중앙동1가 26번지,부산광역시 중구 중앙대로 2,민원실,LGU+,관공서
501,부산광역시,부산근대역사관,35.1026408,부산광역시,129.0312665,Public WiFi,051-888-4604,중구,부산광역시 중구 대청동2가 24-2,부산광역시 중구 대청로104,역사관,KT,지역문화시설
502,부산광역시,보수종합시장,35.1042486,부산광역시,129.0218218,Public WiFi,051-888-4604,중구,부산광역시 중구 보수동3가 46-1,부산광역시 중구 보수대로 94,시장,SKT,서민·복지시설
503,부산광역시,보수새마을,35.1076372,부산광역시,129.0267276,Public WiFi,051-888-4604,중구,부산광역시 중구 보수동1가 산 3-148,부산광역시 중구 망양로319번길 26(보수동1가),보수새마을,LGU+,서민·복지시설
504,부산광역시,보수동 주민센터,35.106034,부산광역시,129.024948,Public WiFi,051-888-4604,중구,부산광역시 중구 보수동1가 48-2,부산광역시 중구 보수대로140번길61,민원실,LGU+,관공서
505,부산광역시,동광동주민센터,35.1050215,부산광역시,129.0345762,Public WiFi,051-888-4604,중구,부산광역시 중구 동광동5가 44-3,부산광역시 중구 동광길 49,민원실,SKT,관공서
506,부산광역시,대청동 주민센터,35.1042614,부산광역시,129.0309856,Public WiFi,051-888-4604,중구,부산광역시 중구 대청동2가 2,부산광역시 중구 대청로99번길 14-1,민원실,LGU+,관공서
507,부산광역시,대청(중앙)공원,35.109949,부산광역시,129.028003,Public WiFi,051-888-4604,중구,부산광역시 중구 영주동 10-16,부산광역시 중구 영주동 10-16,공원,SKT,관광
508,부산광역시,남포동주민센터,35.0973837,부산광역시,129.0316814,Public WiFi,051-888-4604,중구,부산광역시 중구 남포동4가 32-2,부산광역시 중구 자갈치로 68-1,민원실,SKT,관공서
509,부산광역시,남포 헌혈의집,35.0985173,부산광역시,129.0302287,Public WiFi,051-888-4604,중구,부산광역시 중구 남포동5가 3-7,부산광역시 중구 구덕로 50-1,헌혈의집,SKT,기타
510,부산광역시,국제시장,35.101124,부산광역시,129.0281055,Public WiFi,051-888-4604,중구,부산광역시 중구 신창동4가 40-1,부산광역시 중구 국제시장2길 29,"1~6공구(A,B동)",KT,서민·복지시설
511,부산광역시,중구청,35.1063131,부산광역시,129.0323972,Public WiFi,051-888-4604,중구,부산광역시 중구 대청동1가 1-4,부산광역시 중구 중구로 120,민원실,KT,관공서
512,부산광역시,중구사회복지관,35.1058133,부산광역시,129.0282338,Public WiFi,051-888-4604,중구,부산광역시 중구 대청동4가 75-7,부산광역시 중구 망양로 309,복지관,SKT,서민·복지시설
513,부산광역시,중구보건소,35.106252,부산광역시,129.032399,Public WiFi,051-888-4604,중구,부산광역시 중구 대청동1가 1-4,부산광역시 중구 중구로 120,민원실,SKT,관공서
514,부산광역시,중구노인복지회관 분관,35.104157,부산광역시,129.0261852,Public WiFi,051-888-4604,중구,부산광역시 중구 보수동1가 113,부산광역시 중구 책방골목길 3-1,회관,SKT,서민·복지시설
515,부산광역시,중구노인복지관,35.110185,부산광역시,129.0325002,Public WiFi,051-888-4604,중구,부산광역시 중구 영주동 287-9,부산광역시 중구 영주로 8-1,회관,KT,서민·복지시설
516,부산광역시,자갈치시장,35.096759,부산광역시,129.030491,Public WiFi,051-888-4604,중구,부산광역시 중구 남포동5가 105-1,부산광역시 중구 자갈치해안로 52,시장,KT,서민·복지시설
517,부산광역시,월드밸리상가,35.103226,부산광역시,129.029741,Public WiFi,051-888-4604,중구,부산광역시 중구 대청동3가 2,부산광역시 중구 대청로 60,상가,SKT,서민·복지시설
518,부산광역시,영주2동 주민센터,35.111563,부산광역시,129.031845,Public WiFi,051-888-4604,중구,부산광역시 중구 영주동 278-9,부산광역시 중구 동영로 71-2,민원실,LGU+,관공서
519,부산광역시,영주2동 원로의집,35.1138682,부산광역시,129.0320374,Public WiFi,051-888-4604,중구,부산광역시 중구 영주동 73-5번지,부산광역시 중구 동영로73번길 57-3,원로의집,SKT,서민·복지시설
520,부산광역시,영주1동주민센터,35.1111269,부산광역시,129.0349924,Public WiFi,051-888-4604,중구,부산광역시 중구 영주동 671-3,부산광역시 중구 대영로224번길 10,민원실,SKT,관공서
521,부산광역시,영주1동경로당,35.1132015,부산광역시,129.0341256,Public WiFi,051-888-4604,중구,부산광역시 중구 영주동 62-71번지,부산광역시 중구 초량상로7번길 11,경로당,LGU+,서민·복지시설
522,부산광역시,연안여객터미널,35.101019,부산광역시,129.038509,Public WiFi,051-888-4604,중구,부산광역시 중구 중앙동6가 8,부산광역시 중구 대교로 116,터미널,SKT,교통시설
523,부산광역시,신동아시장,35.096841,부산광역시,129.029101,Public WiFi,051-888-4604,중구,부산광역시 중구 남포동5가 91-2,부산광역시 중구 자갈치로 42,시장,KT,서민·복지시설
524,부산광역시,생선회박물관,35.0967208,부산광역시,129.0311196,Public WiFi,051-888-4604,중구,부산광역시 중구 남포동4가 37-1,부산광역시 중구 자갈치해안로 52,박물관,KT,지역문화시설
525,부산광역시,영도구청,35.0910638,부산광역시,129.0679046,Public WiFi,051-888-4604,영도구,부산광역시 영도구 청학2동 48-3번지,부산광역시 영도구 태종로 423,민원실,LGU+,관공서
526,부산광역시,영도구장애인복지관,35.074921,부산광역시,129.065536,Public WiFi,051-888-4604,영도구,부산광역시 영도구 동삼1동 516-1,부산광역시 영도구 함지로79번길 6,복지관,KT,서민·복지시설
527,부산광역시,영도구드림스타트,35.0767285,부산광역시,129.0644443,Public WiFi,051-888-4604,영도구,부산광역시 영도구 동삼1동 510번지,부산광역시 영도구 함지로79번길 40,드림스타트,LGU+,서민·복지시설
528,부산광역시,영도구노인복지관,35.0913615,부산광역시,129.0401056,Public WiFi,051-888-4604,영도구,부산광역시 영도구 대교동2가 159-10,부산광역시 영도구 절영로29번길 14,복지관,KT,서민·복지시설
529,부산광역시,어린이영어도서관,35.088523,부산광역시,129.039104,Public WiFi,051-888-4604,영도구,부산광역시 영도구 남항동2가 236-4,부산광역시 영도구 절영로 71,도서관,LGU+,지역문화시설
530,부산광역시,신선동주민센터,35.083388,부산광역시,129.045175,Public WiFi,051-888-4604,영도구,부산광역시 영도구 신선동3가 84-3,부산광역시 영도구 하나길 317,민원실,KT,관공서
531,부산광역시,광복동주민센터,35.1000222,부산광역시,129.0304046,Public WiFi,051-888-4604,중구,부산광역시 중구 신창동1가 9,부산광역시 중구 광복로55번길 10,민원실,SKT,관공서
532,부산광역시,자갈치시장,35.096759,부산광역시,129.030491,Dynamic Busan,051-888-4604,중구,부산광역시 중구 남포동5가 105-1,부산광역시 중구 자갈치해안로 52,자갈치시장건물 도로방향,부산광역시,편의시설
533,부산광역시,자갈치시장,35.0967391,부산광역시,129.031118,Dynamic Busan,051-888-4604,중구,부산광역시 중구 남포동4가 37-1,부산광역시 중구 자갈치해안로 52,자갈치시장건물 친수공간,부산광역시,편의시설
534,부산광역시,용두산공원,35.100713,부산광역시,129.032311,Dynamic Busan,051-888-4604,중구,부산광역시 중구 동삼동 1125,부산광역시 중구 대청로116번길 13,타워앞광장카페,부산광역시,관광
535,부산광역시,광복로,35.099516,부산광역시,129.031165,Dynamic Busan,051-888-4604,중구,부산광역시 중구 창선동1가 44,부산광역시 중구 광복중앙로 1,창선치안센터,부산광역시,관공서
536,부산광역시,해양박물관,35.078547,부산광역시,129.080208,Public WiFi,051-888-4604,영도구,부산광역시 영도구 동삼동 1125-39,부산광역시 영도구 해양로301번길 45,박물관,LGU+,지역문화시설
537,부산광역시,해돋이 행복나눔터,35.0906894,부산광역시,129.0561741,Public WiFi,051-888-4604,영도구,부산광역시 영도구 청학1동 468-407번지,부산광역시 영도구 해돋이2길 92,행복나눔터,LGU+,서민·복지시설
538,부산광역시,함지골청소년수련원,35.0752044,부산광역시,129.0542201,Public WiFi,051-888-4604,영도구,부산광역시 영도구 동삼동 산149-4번지,부산광역시 영도구 절영로 319,수련원,LGU+,서민·복지시설
539,부산광역시,파랑새아이들집,35.086114,부산광역시,129.059382,Public WiFi,051-888-4604,영도구,부산광역시 영도구 청학2동 483-2,부산광역시 영도구 와치로 78,아이들집,KT,서민·복지시설
540,부산광역시,파랑새노인건강센터,35.086066,부산광역시,129.059346,Public WiFi,051-888-4604,영도구,부산광역시 영도구 청학2동 483-2,부산광역시 영도구 와치로 78,센터,KT,서민·복지시설
541,부산광역시,청학주민어울림마당,35.090814,부산광역시,129.0594533,Public WiFi,051-888-4604,영도구,부산광역시 영도구 청학2동 447-5번지,부산광역시 영도구 청학남로13번길 18,어울림마당,LGU+,서민·복지시설
542,부산광역시,청학2동주민센터,35.091917,부산광역시,129.065759,Public WiFi,051-888-4604,영도구,부산광역시 영도구 청학동 53-20,부산광역시 영도구 태종로 394,민원실,KT,관공서
543,부산광역시,청학1동주민센터,35.093019,부산광역시,129.060429,Public WiFi,051-888-4604,영도구,부산광역시 영도구 청학동 360-27,부산광역시 영도구 청학서로 78,민원실,KT,관공서
544,부산광역시,천성직업재활원,35.0904999,부산광역시,129.0651993,Public WiFi,051-888-4604,영도구,부산광역시 영도구 청학2동 57번지,부산광역시 영도구 일산봉로 95,재활원,LGU+,서민·복지시설
545,부산광역시,와치종합사회복지관,35.075972,부산광역시,129.065399,Public WiFi,051-888-4604,영도구,부산광역시 영도구 동삼1동 510-9,부산광역시 영도구 함지로 79번길 76,복지관,LGU+,서민·복지시설
546,부산광역시,영선2동주민센터,35.0870063,부산광역시,129.0413162,Public WiFi,051-888-4604,영도구,부산광역시 영도구 영선동3가 35-1,부산광역시 영도구 영선대로 65,민원실,SKT,관공서
547,부산광역시,영선1동주민센터,35.090252,부산광역시,129.044737,Public WiFi,051-888-4604,영도구,부산광역시 영도구 영선동1가 97-3,부산광역시 영도구 꿈나무길 25,민원실,KT,관공서
548,부산광역시,영도예술회관,35.0743929,부산광역시,129.0658636,Public WiFi,051-888-4604,영도구,부산광역시 영도구 동삼1동 516-1,부산광역시 영도구 함지로79번길 6,회관,LGU+,지역문화시설
549,부산광역시,영도보건소,35.0749612,부산광역시,129.0659827,Public WiFi,051-888-4604,영도구,부산광역시 영도구 동삼1동 516-1,부산광역시 영도구 함지로79번길 6,민원실,KT,서민·복지시설
550,부산광역시,영도도서관,35.092253,부산광역시,129.066648,Public WiFi,051-888-4604,영도구,부산광역시 영도구 청학동 48,부산광역시 영도구 광암길 6,도서관,LGU+,지역문화시설
551,부산광역시,영도국민체육센터,35.0749612,부산광역시,129.0659827,Public WiFi,051-888-4604,영도구,부산광역시 영도구 동삼동 516-1,부산광역시 영도구 함지로79번길 6,센터,SKT,지역문화시설
552,부산광역시,상리종합사회복지관,35.086043,부산광역시,129.068541,Public WiFi,051-888-4604,영도구,부산광역시 영도구 동삼3동 1123,부산광역시 영도구 상리로 63-16,복지관,KT,서민·복지시설
553,부산광역시,부산영도우체국,35.0920169,부산광역시,129.0410503,Public WiFi,051-888-4604,영도구,부산광역시 영도구 대교동2가 81,부산광역시 영도구 태종로 89,민원실,KT,관공서
554,부산광역시,봉래시장,35.094055,부산광역시,129.0390588,Public WiFi,051-888-4604,영도구,부산광역시 영도구 봉래동3가 13-3,부산광역시 영도구 태종로105번길 36,시장,SKT,서민·복지시설
555,부산광역시,봉래2동주민센터,35.094224,부산광역시,129.046131,Public WiFi,051-888-4604,영도구,부산광역시 영도구 봉래동4가 45-20,부산광역시 영도구 태종로165번길 1-8,민원실,KT,관공서
556,부산광역시,봉래1동주민센터,35.0934926,부산광역시,129.0443105,Public WiFi,051-888-4604,영도구,부산광역시 영도구 봉래동3가 115-1,부산광역시 영도구 대교로6번길 5,민원실,SKT,관공서
557,부산광역시,동삼희망마을,35.0748975,부산광역시,129.0688706,Public WiFi,051-888-4604,영도구,부산광역시 영도구 동삼1동 510-47번지,부산광역시 영도구 중리로 46-12,희망마을,LGU+,서민·복지시설
558,부산광역시,동삼3동주민센터,35.0846555,부산광역시,129.0686522,Public WiFi,051-888-4604,영도구,부산광역시 영도구 동삼동 1123-9번지,부산광역시 영도구 상리로 39,민원실,LGU+,관공서
559,부산광역시,동삼2동주민센터,35.0657128,부산광역시,129.0819853,Public WiFi,051-888-4604,영도구,부산광역시 영도구 동삼동 937-6,부산광역시 영도구 본산남길 5,민원실,KT,관공서
560,부산광역시,동삼1동주민센터,35.0749093,부산광역시,129.0684031,Public WiFi,051-888-4604,영도구,부산광역시 영도구 동삼동 510-23,부산광역시 영도구 중리로 44-1,민원실,SKT,관공서
561,부산광역시,농협 영도지점,35.0885316,부산광역시,129.0418852,Public WiFi,051-888-4604,영도구,부산광역시 영도구 영선동2가 60,부산광역시 영도구 남항로 49,지점,KT,기타
562,부산광역시,남항시장,35.0889114,부산광역시,129.0422604,Public WiFi,051-888-4604,영도구,부산광역시 영도구 영선동2가 64-6,부산광역시 영도구 절영로49번길 73-5,시장,SKT,서민·복지시설
563,부산광역시,남항동주민센터,35.089981,부산광역시,129.0376273,Public WiFi,051-888-4604,영도구,부산광역시 영도구 남항동1가 59-1,부산광역시 영도구 남항로9번길 1,민원실,SKT,관공서
564,부산광역시,남항 작은도서관,35.088523,부산광역시,129.039104,Public WiFi,051-888-4604,영도구,부산광역시 영도구 남항동2가 236-4번지,부산광역시 영도구 절영로 71,도서관,LGU+,지역문화시설
565,부산광역시,태종대유원지,35.050451,부산광역시,129.088362,Dynamic Busan,051-888-4604,영도구,부산광역시 영도구 동삼동 산29-1,부산광역시 영도구 전망로 209,전망대,부산광역시,관광
566,부산광역시,국제크루즈터미널,35.080712,부산광역시,129.079142,Dynamic Busan,051-888-4604,영도구,부산광역시 영도구 동삼동 1125,부산광역시 영도구 해양로301번길 17,터미널,부산광역시,교통시설
567,부산광역시,부산우정청사업지원국,35.194106,부산광역시,129.070641,Public WiFi,051-888-4604,연제구,부산광역시 연제구 거제동 1473,부산광역시 연제구 법원북로 33,민원실,KT,관공서
568,부산광역시,부산지방우정청,35.194106,부산광역시,129.070641,Public WiFi,051-888-4604,연제구,부산광역시 연제구 거제동 1473,부산광역시 연제구 법원북로 33,민원실,KT,관공서
569,부산광역시,부산광역자활센터,35.182274,부산광역시,129.073054,Public WiFi,051-888-4604,연제구,부산광역시 연제구 거제동 457-10,부산광역시 연제구 거제천로 89,센터,KT,서민·복지시설
570,부산광역시,행복나눔지역아동센터(연산동),35.1832572,부산광역시,129.0771035,Public WiFi,051-888-4604,연제구,부산광역시 연제구 연산동 1481-52,부산광역시 연제구 거제천로 118번길 47,센터,SKT,서민·복지시설
571,부산광역시,종합운동장역,35.1914262,부산광역시,129.0680418,Public WiFi,051-888-4604,연제구,부산광역시 연제구 거제동 905,부산광역시 연제구 거제동 905,역사,LGU+,교통시설
572,부산광역시,종덕원,35.182769,부산광역시,129.111397,Public WiFi,051-888-4604,연제구,부산광역시 연제구 연산9동 130-1,부산광역시 연제구 연산9동 130-1,종덕원,LGU+,서민·복지시설
573,부산광역시,연제구청,35.1762349,부산광역시,129.0796236,Public WiFi,051-888-4604,연제구,부산광역시 연제구 연산동 1555,부산광역시 연제구 연제로 2 (연산동),민원실,SKT,관공서
574,부산광역시,연제구 보건소,35.176829,부산광역시,129.079139,Public WiFi,051-888-4604,연제구,부산광역시 연제구 연산동 1555,부산광역시 연제구 연제로 2,보건소,KT,서민·복지시설
575,부산광역시,연제구 국민체육센터,35.1843963,부산광역시,129.0881781,Public WiFi,051-888-4604,연제구,부산광역시 연제구 연산동 799,부산광역시 연제구 쌍미천로 132 (연산동),센터,SKT,지역문화시설
576,부산광역시,연일시장,35.1851675,부산광역시,129.0848872,Public WiFi,051-888-4604,연제구,부산광역시 연제구 연산동 637-35번지,부산광역시 연제구 쌍미천로141번길 41,시장,SKT,서민·복지시설
577,부산광역시,연산9동주민센터,35.188608,부산광역시,129.104921,Public WiFi,051-888-4604,연제구,부산광역시 연제구 연산9동 396-8,부산광역시 연제구 안연로 8번길 71,민원실,KT,관공서
578,부산광역시,연산8동주민센터,35.187139,부산광역시,129.101054,Public WiFi,051-888-4604,연제구,부산광역시 연제구 연산8동 408-20,부산광역시 연제구 과정로251번길 33,민원실,KT,관공서
579,부산광역시,연산6동주민센터,35.177468,부산광역시,129.089712,Public WiFi,051-888-4604,연제구,부산광역시 연제구 연산동 2149-2,부산광역시 연제구 쌍미천로52번길 2,민원실,KT,관공서
580,부산광역시,금정희망의 집,35.221854,부산광역시,129.1131356,Public WiFi,051-888-4604,금정구,부산광역시 금정구 서3동 171-12,부산광역시 금정구 서부로 40,희망의집,LGU+,서민·복지시설
581,부산광역시,금정체육공원실내체육관 관중석,35.2912621,부산광역시,129.1060397,Public WiFi,051-888-4604,금정구,부산광역시 금정구 두구동 669,부산광역시 금정구 체육공원로399번길 324,문화센터,SKT,지역문화시설
582,부산광역시,금정체육공원실내체육관 관중석,35.2912621,부산광역시,129.1060397,Public WiFi,051-888-4604,금정구,부산광역시 금정구 두구동 669,부산광역시 금정구 체육공원로399번길 324,관중석,SKT,지역문화시설
583,부산광역시,금정체육공원경륜장,35.2912621,부산광역시,129.1060397,Public WiFi,051-888-4604,금정구,부산광역시 금정구 두구동 669,부산광역시 금정구 체육공원로399번길 324,실외휴게공간,SKT,지역문화시설
584,부산광역시,금정체육공원,35.2912621,부산광역시,129.1060397,Public WiFi,051-888-4604,금정구,부산광역시 금정구 두구동 669,부산광역시 금정구 체육공원로399번길 324,테니스장,SKT,지역문화시설
585,부산광역시,금정체육공원,35.2912621,부산광역시,129.1060397,Public WiFi,051-888-4604,금정구,부산광역시 금정구 두구동 669,부산광역시 금정구 체육공원로399번길 324,실내체육관,SKT,지역문화시설
586,부산광역시,금정체육공원,35.2912621,부산광역시,129.1060397,Public WiFi,051-888-4604,금정구,부산광역시 금정구 두구동 669,부산광역시 금정구 체육공원로399번길 324,광장분수대,SKT,지역문화시설
587,부산광역시,금정청소년수련관,35.2380043,부산광역시,129.0951305,Public WiFi,051-888-4604,금정구,부산광역시 금정구 부곡동3동 200-62,부산광역시 금정구 기찰로96번길 47,수련관,LGU+,지역문화시설
588,부산광역시,"금정구청 본관, 별관",35.2428552,부산광역시,129.0923741,Public WiFi,051-888-4604,금정구,부산광역시 금정구 부곡동 78,부산광역시 금정구 중앙대로 1777,민원실,KT,관공서
589,부산광역시,금정구 지역자활센터,35.2671986,부산광역시,129.0924858,Public WiFi,051-888-4604,금정구,부산광역시 금정구 남산동 91-12번지,부산광역시 금정구 중앙대로 2049,센터,LGU+,서민·복지시설
590,부산광역시,금정구 종합사회복지관,35.2278166,부산광역시,129.0942677,Public WiFi,051-888-4604,금정구,부산광역시 금정구 부곡동 282-32,부산광역시 금정구 동부곡로19번길 50,분관,KT,서민·복지시설
591,부산광역시,금정구 종합사회복지관,35.2141239,부산광역시,129.1184331,Public WiFi,051-888-4604,금정구,부산광역시 금정구 금사동 545-22,부산광역시 금정구 반송로490번길 47,복지관,KT,서민·복지시설
592,부산광역시,금정구 장애인복지관,35.2196379,부산광역시,129.0988366,Public WiFi,051-888-4604,금정구,부산광역시 금정구 서동 502-4,부산광역시 금정구 서부로 77,복지관,KT,서민·복지시설
593,부산광역시,금정구 장애인근로작업장,35.242777,부산광역시,129.0921041,Public WiFi,051-888-4604,금정구,부산광역시 금정구 죽곡리 500-1,부산광역시 금정구 서부로 79,작업장,KT,서민·복지시설
594,부산광역시,금정구 보건소,35.2427234,부산광역시,129.0922979,Public WiFi,051-888-4604,금정구,부산광역시 금정구 부곡동 78,부산광역시 금정구 중앙대로 1777,민원실,KT,서민·복지시설
595,부산광역시,금성동 주민센터,35.2502933,부산광역시,129.0560784,Public WiFi,051-888-4604,금정구,부산광역시 금정구 금성동 554-3,부산광역시 금정구 산성로 452,민원실,LGU+,관공서
596,부산광역시,금사역,35.216027,부산광역시,129.1154417,Public WiFi,051-888-4604,금정구,부산광역시 금정구 금사동 110-11,부산광역시 금정구 금사동 110-11,역사,LGU+,교통시설
597,부산광역시,금사동 주민센터,35.2203377,부산광역시,129.1110936,Public WiFi,051-888-4604,금정구,부산광역시 금정구 금사동 388-4,부산광역시 금정구 금사로85번길 12,민원실,KT,관공서
598,부산광역시,금사나너울지역아동센터,35.2201671,부산광역시,129.1119268,Public WiFi,051-888-4604,금정구,부산광역시 금정구 금사동 68-21,부산광역시 금정구 금사로 86,센터,KT,서민·복지시설
599,부산광역시,글누리지역아동센터,35.2367643,부산광역시,129.0875298,Public WiFi,051-888-4604,금정구,부산광역시 금정구 장전동 222-48,부산광역시 금정구 금정로 135-1,센터,KT,서민·복지시설
600,부산광역시,구서오시게시장,35.247338,부산광역시,129.0897387,Public WiFi,051-888-4604,금정구,부산광역시 금정구 구서동 87-9,부산광역시 금정구 구서로 12,시장,KT,편의시설
601,부산광역시,구서2동 주민센터,35.2551996,부산광역시,129.0905733,Public WiFi,051-888-4604,금정구,부산광역시 금정구 구서동 184-6,부산광역시 금정구 두실로7번길 115,민원실,KT,관공서
602,부산광역시,구서1동 주민센터,35.2451044,부산광역시,129.0869527,Public WiFi,051-888-4604,금정구,부산광역시 금정구 구서동 1063,부산광역시 금정구 수림로72번길 123,민원실,KT,관공서
603,부산광역시,BHS한서병원,35.2383052,부산광역시,129.0916839,Public WiFi,051-888-4604,금정구,부산광역시 금정구 부곡3동 223-83,부산광역시 금정구 중앙대로 1721,민원실,LGU+,서민·복지시설
604,부산광역시,금정산성,35.245117,부산광역시,129.056015,Dynamic Busan,051-888-4604,금정구,부산광역시 금정구 금성동 881-5,부산광역시 금정구 산성로 526,"산성집, 물레방아집 주변",부산광역시,관광
605,부산광역시,금정산성,35.251469,부산광역시,129.056086,Dynamic Busan,051-888-4604,금정구,부산광역시 금정구 금성동 554-3,부산광역시 금정구 산성로 452,금성동주민센터 주변,부산광역시,관광
606,부산광역시,부산경남경마공원,35.155074,부산광역시,128.876672,Public WiFi,051-888-4604,강서구,부산광역시 강서구 범방동 1833,부산광역시 강서구 녹산동 가락대로 929,공원,LGU+,지역문화시설
607,부산광역시,대저농협 산지유통센터,35.167876,부산광역시,128.934981,Public WiFi,051-888-4604,강서구,부산광역시 강서구 대저2동 665-1,부산광역시 강서구 울만로 228,민원실,KT,기타
608,부산광역시,가락농협,35.194441,부산광역시,128.902835,Public WiFi,051-888-4604,강서구,부산광역시 강서구 죽림동 730,부산광역시 강서구 가락대로 1459,민원실,KT,기타
609,부산광역시,신항만관리소,35.080309,부산광역시,128.8268032,Public WiFi,051-888-4604,강서구,부산광역시 강서구 성북동 1488,부산광역시 강서구 신항남로 372,운영동,SKT,관공서
610,부산광역시,천가보건지소,35.053401,부산광역시,128.8138534,Public WiFi,051-888-4604,강서구,부산광역시 강서구 성북동 412,부산광역시 강서구 천가길338번길 5,민원실,LGU+,서민·복지시설
611,부산광역시,천가동 주민센터,35.052683,부산광역시,128.830714,Public WiFi,051-888-4604,강서구,부산광역시 강서구 성북동 407-1,부산광역시 강서구 동선3길 1,민원실,LGU+,관공서
612,부산광역시,참사랑노인건강센터,35.1928063,부산광역시,128.9173432,Public WiFi,051-888-4604,강서구,부산광역시 강서구 강동동 2290번지,부산광역시 강서구 상덕로119번길 28-11,센터,LGU+,서민·복지시설
613,부산광역시,진애생활복지원,35.0560471,부산광역시,128.8289709,Public WiFi,051-888-4604,강서구,부산광역시 강서구 성북동 786-1,부산광역시 강서구 성북2길 52,복지원,KT,서민·복지시설
614,부산광역시,지사보건진료소,35.1516061,부산광역시,128.8311429,Public WiFi,051-888-4604,강서구,부산광역시 강서구 지사동 1180,부산광역시 강서구 과학산단2로20번길 5,민원실,LGU+,서민·복지시설
615,부산광역시,정다운어린신의 집,35.1135547,부산광역시,128.8685777,Public WiFi,051-888-4604,강서구,부산광역시 강서구 녹산동 1101번지,부산광역시 강서구 낙동남로483번가길 21,어르신의집,LGU+,서민·복지시설
616,부산광역시,을숙도노인요양원,35.1159478,부산광역시,128.9237079,Public WiFi,051-888-4604,강서구,부산광역시 강서구 명지동 3175-35번지,부산광역시 강서구 낙동남로991번길 54-1,요양원,KT,서민·복지시설
617,부산광역시,신항만관리소,35.080309,부산광역시,128.8268032,Public WiFi,051-888-4604,강서구,부산광역시 강서구 성북동 1488,부산광역시 강서구 신항남로 372,4층,SKT,관공서
618,부산광역시,신항만관리소,35.080309,부산광역시,128.8268032,Public WiFi,051-888-4604,강서구,부산광역시 강서구 성북동 1488,부산광역시 강서구 신항남로 372,3층,SKT,관공서
619,부산광역시,소망의집,35.1911275,부산광역시,128.9249901,Public WiFi,051-888-4604,강서구,부산광역시 강서구 강동동 2499,부산광역시 강서구 강동신덕2길 81,소망의집,KT,서민·복지시설
620,부산광역시,산업단지 행정지원센터,35.084262,부산광역시,128.840361,Public WiFi,051-888-4604,강서구,부산광역시 강서구 송정동 1759,부산광역시 강서구 녹산산단262로50번길,민원실,LGU+,관공서
621,부산광역시,부산우편집중국,35.2168431,부산광역시,128.9587211,Public WiFi,051-888-4604,강서구,부산광역시 강서구 대저1동 1549,부산광역시 강서구 대저로49번길 22,민원실,LGU+,관공서
622,부산광역시,베데스다원,35.2157992,부산광역시,128.9886874,Public WiFi,051-888-4604,강서구,부산광역시 강서구 대저1동 393-4,부산광역시 강서구 공항로1319번길,다원,LGU+,기타
623,부산광역시,명지오션시티 민원센터,35.0845223,부산광역시,128.8997298,Public WiFi,051-888-4604,강서구,부산광역시 강서구 명지동 3232-3,부산광역시 강서구 명지오션시티11로 33,민원실,KT,기타
624,부산광역시,명지동 주민센터,35.1080696,부산광역시,128.9263887,Public WiFi,051-888-4604,강서구,부산광역시 강서구 명지동 1443-2,부산광역시 강서구 영강길19번길 58,민원실,LGU+,관공서
625,부산광역시,대저2동 주민센터,35.1785166,부산광역시,128.9564592,Public WiFi,051-888-4604,강서구,부산광역시 강서구 대저2동 2011-3,부산광역시 강서구 공항로811번가길 30-1,민원실,LGU+,관공서
626,부산광역시,대저1동 주민센터,35.2144968,부산광역시,128.9806543,Public WiFi,051-888-4604,강서구,부산광역시 강서구 대저1동 684-2,부산광역시 강서구 대저로221번길 19,민원실,LGU+,관공서
627,부산광역시,녹산보건지소,35.1236008,부산광역시,128.8956572,Public WiFi,051-888-4604,강서구,부산광역시 강서구 녹산동 13-17,부산광역시 강서구 생곡로 19,민원실,LGU+,서민·복지시설
628,부산광역시,녹산동 주민센터,35.1534502,부산광역시,128.8837503,Public WiFi,051-888-4604,강서구,부산광역시 강서구 범방동 1843-2,부산광역시 강서구 가락대로900번가길 32,민원실,LGU+,관공서
629,부산광역시,김해공항,35.1730515,부산광역시,128.9457396,Public WiFi,051-888-4604,강서구,부산광역시 강서구 대저2동 2350,부산광역시 강서구 공항진입로 108,국제선 청사,LGU+,교통시설
630,부산광역시,김해공항,35.1730515,부산광역시,128.9457396,Public WiFi,051-888-4604,강서구,부산광역시 강서구 대저2동 2350,부산광역시 강서구 공항진입로 108,국내선 청사,LGU+,교통시설
631,부산광역시,기술보증기금(강서구),35.0902483,부산광역시,128.8551196,Public WiFi,051-888-4604,강서구,부산광역시 강서구 송정동 1631-8,부산광역시 강서구 녹산산단335로 12-9,민원실,LGU+,관공서
632,부산광역시,거가대로 가덕휴게소,35.0228551,부산광역시,128.8078704,Public WiFi,051-888-4604,강서구,부산광역시 강서구 천성동 488-6,부산광역시 강서구 거가대로 2571,휴게소,SKT,교통시설
633,부산광역시,강서우체국,35.2166418,부산광역시,128.9587115,Public WiFi,051-888-4604,강서구,부산광역시 강서구 대저1동 1549,부산광역시 강서구 대저로63번길 49,민원실,KT,관공서
634,부산광역시,강서구청역,35.2114921,부산광역시,128.9819613,Public WiFi,051-888-4604,강서구,부산광역시 강서구 대저1동 2328,부산광역시 강서구 대저로274번길 35,역사,LGU+,교통시설
635,부산광역시,강서구청,35.2123052,부산광역시,128.9807707,Public WiFi,051-888-4604,강서구,부산광역시 강서구 대저1동 2300,부산광역시 강서구 낙동북로 477,민원실,LGU+,관공서
636,부산광역시,강서구청,35.212755,부산광역시,128.980551,Public WiFi,051-888-4604,강서구,부산광역시 강서구 대저1동 2300,부산광역시 강서구 낙동북로 477,민원실,KT,관공서
637,부산광역시,강서구여성센터,35.2123052,부산광역시,128.9807707,Public WiFi,051-888-4604,강서구,부산광역시 강서구 대저1동 2300,부산광역시 강서구 낙동북로 477,민원실,SKT,서민·복지시설
638,부산광역시,강서구 보건소,35.180216,부산광역시,128.9571892,Public WiFi,051-888-4604,강서구,부산광역시 강서구 대저2동 1932-1,부산광역시 강서구 공항로811번길 10,민원실,LGU+,서민·복지시설
639,부산광역시,강동보건지소,35.2162027,부산광역시,128.9365416,Public WiFi,051-888-4604,강서구,부산광역시 강서구 강동동 60-3,부산광역시 강서구 낙동북로102번길 76,민원실,LGU+,서민·복지시설
640,부산광역시,강동동 주민센터,35.2144726,부산광역시,128.9353607,Public WiFi,051-888-4604,강서구,부산광역시 강서구 강동동 135-1,부산광역시 강서구 제도로 1171,민원실,LGU+,관공서
641,부산광역시,가락보건지소,35.196274,부산광역시,128.9017931,Public WiFi,051-888-4604,강서구,부산광역시 강서구 죽림동 716-3,부산광역시 강서구 가락대로 1476,민원실,LGU+,서민·복지시설
642,부산광역시,가락동 주민센터,35.196291,부산광역시,128.9017486,Public WiFi,051-888-4604,강서구,부산광역시 강서구 죽림동 716-3,부산광역시 강서구 가락대로 1476,민원실,LGU+,관공서
643,부산광역시,가덕해양파크휴게소,35.0228551,부산광역시,128.8078704,Public WiFi,051-888-4604,강서구,부산광역시 강서구 천성동 산255-1,부산광역시 강서구 거가대로 2571,휴게소,LGU+,교통시설
644,부산광역시,가나안사랑의공동체,35.1992816,부산광역시,128.9138347,Public WiFi,051-888-4604,강서구,부산광역시 강서구 강동동 1260,부산광역시 강서구 상덕로97번다길 8-1,공동체,LGU+,서민·복지시설
645,부산광역시,강서체육공원,35.210116,부산광역시,128.972235,Dynamic Busan,051-888-4604,강서구,부산광역시 강서구 대저1동 2155,부산광역시 강서구 체육공원로 43,하키경기장 주변,부산광역시,지역문화시설
646,부산광역시,강서체육공원,35.210116,부산광역시,128.972235,Dynamic Busan,051-888-4604,강서구,부산광역시 강서구 대저1동 2155,부산광역시 강서구 체육공원로 43,체육관,부산광역시,지역문화시설
647,부산광역시,용호종합사회복지관,35.1245627,부산광역시,129.1133388,Public WiFi,051-888-4604,남구,부산광역시 남구 용호3동 36-7,부산광역시 남구 이기대공원로 7,복지관,LGU+,서민·복지시설
648,부산광역시,용호4동 주민센터,35.113225,부산광역시,129.110414,Public WiFi,051-888-4604,남구,부산광역시 남구 용호동 533-23,부산광역시 남구 용호로216번길 10,민원실,LGU+,관공서
649,부산광역시,용호3동 주민센터,35.121021,부산광역시,129.112829,Public WiFi,051-888-4604,남구,부산광역시 남구 용호동 371-2,부산광역시 남구 용호로145번길 33,민원실,LGU+,관공서
650,부산광역시,용호2동 주민센터,35.1148291,부산광역시,129.1134152,Public WiFi,051-888-4604,남구,부산광역시 남구 용호동 517-19,부산광역시 남구 용호로197번길 41,민원실,SKT,관공서
651,부산광역시,용호1동 현장민원실,35.1304963,부산광역시,129.112087,Public WiFi,051-888-4604,남구,부산광역시 남구 용호동 176-64,부산광역시 남구 신선로 566-2,민원실,SKT,관공서
652,부산광역시,용호1동 주민센터,35.120825,부산광역시,129.109028,Public WiFi,051-888-4604,남구,부산광역시 남구 용호동 414-47,부산광역시 남구 용호로42번길 140,민원실,LGU+,관공서
653,부산광역시,용당동 주민센터,35.1176031,부산광역시,129.0950351,Public WiFi,051-888-4604,남구,부산광역시 남구 용당동 401-1,부산광역시 남구 신선로 349-4,민원실,SKT,관공서
654,부산광역시,소아영아재활원,35.122511,부산광역시,129.084114,Public WiFi,051-888-4604,남구,부산광역시 남구 감만동 무만사로 19번지,부산광역시 남구 감만동 무만사로 19,재활원,SKT,서민·복지시설
655,부산광역시,새빛 기독보육원,35.1148291,부산광역시,129.1134152,Public WiFi,051-888-4604,남구,부산광역시 남구 용호동 517-19,부산광역시 남구 용호로197번길 41 (용호동),보육원,SKT,서민·복지시설
656,부산광역시,부산시립박물관,35.129552,부산광역시,129.094288,Public WiFi,051-888-4604,남구,부산광역시 남구 대연동 948-1,부산광역시 남구 유엔로 152,박물관,KT,지역문화시설
657,부산광역시,문현4동 주민센터,35.1361868,부산광역시,129.0691305,Public WiFi,051-888-4604,남구,부산광역시 남구 문현동 366-18,"부산광역시 남구 수영로 12 (문현동, 세종그랑시아아파트)",민원실,SKT,관공서
658,부산광역시,문현3동 주민센터,35.138167,부산광역시,129.071696,Public WiFi,051-888-4604,남구,부산광역시 남구 문현동 205-44,부산광역시 남구 고동골로4번길 7-18,민원실,LGU+,관공서
659,부산광역시,문현2동 주민센터,35.1450747,부산광역시,129.0686822,Public WiFi,051-888-4604,남구,부산광역시 남구 문현2동 546-42,부산광역시 남구 전포대로92번길 31-7,민원실,SKT,관공서
660,부산광역시,문현1동 주민센터,35.142492,부산광역시,129.071344,Public WiFi,051-888-4604,남구,부산광역시 남구 문현동 127-10,부산광역시 남구 고동골로60번길 1,민원실,LGU+,관공서
661,부산광역시,못골역,35.135037,부산광역시,129.085487,Public WiFi,051-888-4604,남구,부산광역시 남구 대연6동 1767,부산광역시 남구 수영로 171-1,역사,LGU+,교통시설
662,부산광역시,정관면사무소,35.3256298,부산광역시,129.1801171,Public WiFi,051-888-4604,기장군,부산광역시 기장군 정관면 용수리 141,부산광역시 기장군 정관면 용수로 4,민원실,KT,관공서
663,부산광역시,장안읍사무소,35.313984,부산광역시,129.2438229,Public WiFi,051-888-4604,기장군,부산광역시 기장군 장안읍 좌천리 254,부산광역시 기장군 장안읍 좌방길 5,민원실,KT,관공서
664,부산광역시,장안오리진료소,35.371853,부산광역시,129.261799,Public WiFi,051-888-4604,기장군,부산광역시 기장군 장안읍 명례리 169-12,부산광역시 기장군 장안읍 오리길 3-6,민원실,KT,서민·복지시설
665,부산광역시,장안보건지소,35.313287,부산광역시,129.244244,Public WiFi,051-888-4604,기장군,부산광역시 기장군 장안읍 좌천리 249-7,부산광역시 기장군 장안읍 좌방길 6,민원실,KT,서민·복지시설
666,부산광역시,장안(울산)휴게소,35.3772639,부산광역시,129.2606973,Public WiFi,051-888-4604,기장군,부산광역시 기장군 장안읍 명례리 78-1,부산광역시 기장군 장안읍 동해고속도로 26,휴게소,SKT,교통시설
667,부산광역시,장안(부산)휴게소,35.377238,부산광역시,129.2467173,Public WiFi,051-888-4604,기장군,부산광역시 기장군 장안읍 장안리 31-1,부산광역시 기장군 장안읍 동해고속도로 25,휴게소,SKT,교통시설
668,부산광역시,일광면사무소,35.263894,부산광역시,129.232269,Public WiFi,051-888-4604,기장군,부산광역시 기장군 일광면 삼성리 62,부산광역시 기장군 일광면 일광로 77-7,민원실,KT,관공서
669,부산광역시,일광면사무소,35.263903,부산광역시,129.2325889,Public WiFi,051-888-4604,기장군,부산광역시 기장군 일광면 삼성리 62,부산광역시 기장군 일광면 일광로 77-7,민원실,KT,관공서
670,부산광역시,송암노인요양원,35.2495825,부산광역시,129.2102416,Public WiFi,051-888-4604,기장군,부산광역시 기장군 기장읍 서부리412,부산광역시 기장군 배산로56번길 26-16,요양원,SKT,서민·복지시설
671,부산광역시,성우해피홈,35.374928,부산광역시,129.263671,Public WiFi,051-888-4604,기장군,부산광역시 기장군 장안읍 명례리 133-4,부산광역시 기장군 장안읍 대룡2길 45-1,해피홈,LGU+,서민·복지시설
672,부산광역시,삼동보건진료소,35.312887,부산광역시,129.115126,Public WiFi,051-888-4604,기장군,부산광역시 기장군 철마면 송정리 331-7,부산광역시 기장군 철마면 삼동로 94,민원실,KT,서민·복지시설
673,부산광역시,반석노인건강센터,35.3795958,부산광역시,129.2600939,Public WiFi,051-888-4604,기장군,부산광역시 기장군 장안읍 명례리 574-3,부산광역시 기장군 장안읍 못안길 47,센터,LGU+,서민·복지시설
674,부산광역시,동행과 나눔,35.3424775,부산광역시,129.1767826,Public WiFi,051-888-4604,기장군,부산광역시 기장군 정관면 용수리 386-1,부산광역시 기장군 정관면 병산로 127-25,동행과나눔,KT,서민·복지시설
675,부산광역시,농협 동부산농협칠암지점,35.2977964,부산광역시,129.2585046,Public WiFi,051-888-4604,기장군,부산광역시 기장군 일광면 칠암리 64-4번지,부산광역시 기장군 일광면 일광로 623-1,민원실,KT,관공서
676,부산광역시,농업기술센터,35.3252429,부산광역시,129.2767149,Public WiFi,051-888-4604,기장군,부산광역시 기장군 장안읍 월내리 132-142,부산광역시 기장군 장안읍 월내해안길 66,민원실,KT,관공서
677,부산광역시,낙원대실버타운,35.324555,부산광역시,129.1612746,Public WiFi,051-888-4604,기장군,부산광역시 기장군 정관면 용수리 1047-2,부산광역시 기장군 정관면 용수공단2길 64-20,타운,SKT,서민·복지시설
678,부산광역시,기장종합사회복지관,35.2359582,부산광역시,129.2136367,Public WiFi,051-888-4604,기장군,부산광역시 기장군 기장읍 대라리 175-3,부산광역시 기장군 기장읍 차성로 206,복지관,KT,서민·복지시설
679,부산광역시,기장제1공영주차장,35.2440246,부산광역시,129.2169354,Public WiFi,051-888-4604,기장군,부산광역시 기장군 기장읍 대라리,부산광역시 기장군 기장읍 차성동로 70,주차장,KT,교통시설
680,부산광역시,기장장애인복지관,35.3365875,부산광역시,129.1734786,Public WiFi,051-888-4604,기장군,부산광역시 기장군 정관읍 용수리 431-2,부산광역시 기장군 정관읍 병산로 42-15,복지관,KT,서민·복지시설
681,부산광역시,기장읍사무소,35.2385829,부산광역시,129.2159099,Public WiFi,051-888-4604,기장군,부산광역시 기장군 기장읍 대라리 149-2,부산광역시 기장군 기장읍 차성동로5번길 10,2층,KT,관공서
682,부산광역시,기장읍사무소,35.2386069,부산광역시,129.2159137,Public WiFi,051-888-4604,기장군,부산광역시 기장군 기장읍 대라리 149-2,부산광역시 기장군 기장읍 차성동로5번길 16,민원실,KT,관공서
683,부산광역시,기장우체국,35.2358108,부산광역시,129.2184126,Public WiFi,051-888-4604,기장군,부산광역시 기장군 기장읍 청강리 280-1,부산광역시 기장군 기장읍 대변로 1,민원실,KT,관공서
684,부산광역시,기장시장,35.2435752,부산광역시,129.2151737,Public WiFi,051-888-4604,기장군,부산광역시 기장군 기장읍 대라리 72-1,부산광역시 기장군 기장읍 읍내로104번길 16,시장,KT,서민·복지시설
685,부산광역시,기장문화원,35.235274,부산광역시,129.221324,Public WiFi,051-888-4604,기장군,부산광역시 기장군 기장읍 청강리 151-12,부산광역시 기장군 기장읍 청강리 151-12,문화원,KT,지역문화시설
686,부산광역시,기장도서관,35.249711,부산광역시,129.217353,Public WiFi,051-888-4604,기장군,부산광역시 기장군 기장읍 동부리 444-2,부산광역시 기장군 기장읍 동부리 444-2,민원실,LGU+,지역문화시설
687,부산광역시,기장군청 의회,35.3252429,부산광역시,129.2767149,Public WiFi,051-888-4604,기장군,부산광역시 기장군 장안읍 월내리 132-142,부산광역시 기장군 장안읍 월내해안길 66,민원실,KT,관공서
688,부산광역시,기장군청,35.2443071,부산광역시,129.2225772,Public WiFi,051-888-4604,기장군,부산광역시 기장군 기장읍 신천리 1,부산광역시 기장군 기장읍 기장대로 560,민원실,KT,관공서
689,부산광역시,기장군청,35.2442864,부산광역시,129.2226465,Public WiFi,051-888-4604,기장군,부산광역시 기장군 기장읍 신천리 1,부산광역시 기장군 기장읍 기장대로 560,민원실,KT,관공서
690,부산광역시,기장군 보건소,35.2442864,부산광역시,129.2226465,Public WiFi,051-888-4604,기장군,부산광역시 기장군 기장읍 신천리 1,부산광역시 기장군 기장읍 기장대로 560,민원실,KT,서민·복지시설
691,부산광역시,기장군 노인복지관,35.2351351,부산광역시,129.2125688,Public WiFi,051-888-4604,기장군,부산광역시 기장군 기장읍 대라리 186-8,부산광역시 기장군 기장읍 대청로22번길 61,복지관,KT,서민·복지시설
692,부산광역시,교리장애인 주간보호센터,35.2574096,부산광역시,129.214111,Public WiFi,051-888-4604,기장군,부산광역시 기장군 기장읍 교리 99,부산광역시 기장군 기장읍 차성로451번길 46-13,센터,KT,서민·복지시설
693,부산광역시,일광해수욕장,35.258254,부산광역시,129.234914,Dynamic Busan,051-888-4604,기장군,부산광역시 기장군 일광면 삼성리 115-1,부산광역시 기장군 일광면 삼성리 115-1,공중화장실,부산광역시,관광
694,부산광역시,일광해수욕장,35.262051,부산광역시,129.233568,Dynamic Busan,051-888-4604,기장군,부산광역시 기장군 일광면 삼성리 115-1,부산광역시 기장군 일광면 삼성리 115-1,공용샤워장,부산광역시,관광
695,부산광역시,일광해수욕장,35.264562,부산광역시,129.233678,Dynamic Busan,051-888-4604,기장군,부산광역시 기장군 일광면 삼성리 115-1,부산광역시 기장군 일광면 삼성리 115-1,재난전광판,부산광역시,관광
696,부산광역시,일광해수욕장,35.262511,부산광역시,129.233727,Dynamic Busan,051-888-4604,기장군,부산광역시 기장군 일광면 삼성리 115-1,부산광역시 기장군 일광면 삼성리 115-1,임해행정봉사실,부산광역시,관광
697,부산광역시,스포원,35.291419,부산광역시,129.105297,Public WiFi,051-888-4604,금정구,부산광역시 금정구 두구동 669,부산광역시 금정구 체육공원로399번길 324,공원,LGU+,지역문화시설
698,부산광역시,삼성전자서비스(주) 금정,35.239195,부산광역시,129.092756,Public WiFi,051-888-4604,금정구,부산광역시 금정구 부곡동 216-3,부산광역시 금정구 중앙대로 1734,매장,LGU+,기타
699,부산광역시,부산종합버스터미널,35.284745,부산광역시,129.095384,Public WiFi,051-888-4604,금정구,부산광역시 금정구 노포동 133,부산광역시 금정구 중앙대로 2238,터미널,LGU+,교통시설
700,부산광역시,농협 구서동지점,35.256301,부산광역시,129.090694,Public WiFi,051-888-4604,금정구,부산광역시 금정구 구서동 184-8,부산광역시 금정구 중앙대로1929번길 9,민원실,SKT,기타
701,부산광역시,LG 서비스센터(금정),35.237466,부산광역시,129.091956,Public WiFi,051-888-4604,금정구,부산광역시 금정구 부곡동 225-8,부산광역시 금정구 중앙대로171번길 9,매장,LGU+,기타
702,부산광역시,해오름 지역아동센터,35.2139818,부산광역시,129.1021871,Public WiFi,051-888-4604,금정구,부산광역시 금정구 서동 299-3,부산광역시 금정구 서명로 9,센터,KT,서민·복지시설
703,부산광역시,초원의집,35.238678,부산광역시,129.0954058,Public WiFi,051-888-4604,금정구,부산광역시 금정구 부곡동 200-63,부산광역시 금정구 부곡동 200-63,초원의집,LGU+,서민·복지시설
704,부산광역시,청룡노포동 주민센터,35.275254,부산광역시,129.089878,Public WiFi,051-888-4604,금정구,부산광역시 금정구 청룡동 31-14,부산광역시 금정구 철룡로 25,민원실,KT,관공서
705,부산광역시,장전3동 주민센터,35.227492,부산광역시,129.085524,Public WiFi,051-888-4604,금정구,부산광역시 금정구 장전3동 343-4,부산광역시 금정구 금정로 29-6,민원실,KT,관공서
706,부산광역시,장전2동 주민센터,35.227775,부산광역시,129.080991,Public WiFi,051-888-4604,금정구,부산광역시 금정구 장전동 715,부산광역시 금정구 소정로 19,민원실,KT,관공서
707,부산광역시,오마이랜드부산,35.2493821,부산광역시,129.0541547,Public WiFi,051-888-4604,금정구,부산광역시 금정구 금성동 151,부산광역시 금정구 산성로 470,빅뱅관,KT,편의시설
708,부산광역시,영락공원,35.2736156,부산광역시,129.1046068,Public WiFi,051-888-4604,금정구,부산광역시 금정구 두구동 1494-1,부산광역시 금정구 금정도서관로 108,영락공원,LGU+,편의시설
709,부산광역시,애광노인치매전문요양원,35.2295157,부산광역시,129.0751089,Public WiFi,051-888-4604,금정구,부산광역시 금정구 장전2동 503-77,부산광역시 금정구 금샘로17번안길 45,요양원,SKT,서민·복지시설
710,부산광역시,아이쿱협동조합,35.2347955,부산광역시,129.0909042,Public WiFi,051-888-4604,금정구,부산광역시 금정구 부곡동 235-2,부산광역시 금정구 중앙대로1685번길 15,매장,KT,관공서
711,부산광역시,신망애치매전문요양원,35.2312898,부산광역시,129.0771617,Public WiFi,051-888-4604,금정구,부산광역시 금정구 장전2동 502-24,부산광역시 금정구 금샘로 66,요양원,SKT,서민·복지시설
712,부산광역시,신망애노인요양원,35.2318092,부산광역시,129.0772928,Public WiFi,051-888-4604,금정구,부산광역시 금정구 장전2동 502-13,부산광역시 금정구 금샘로 66,요양원,KT,서민·복지시설
713,부산광역시,성애원,35.229646,부산광역시,129.076109,Public WiFi,051-888-4604,금정구,부산광역시 금정구 장전동 502-36,부산광역시 금정구 금샘로 41,성애원,LGU+,서민·복지시설
714,부산광역시,성심어머니집,35.2300941,부산광역시,129.0773646,Public WiFi,051-888-4604,금정구,부산광역시 금정구 장전동 501,부산광역시 금정구 금샘로 46-13,어머니집,KT,서민·복지시설
715,부산광역시,선두구동 주민센터,35.298294,부산광역시,129.113272,Public WiFi,051-888-4604,금정구,부산광역시 금정구 두구동 174-1,부산광역시 금정구 두구죽전1길 13,민원실,KT,관공서
716,부산광역시,서동향토시장,35.2546942,부산광역시,129.0895988,Public WiFi,051-888-4604,금정구,부산광역시 금정구 서동 194-1번지,부산광역시 금정구 서부로 21-1,시장,SKT,서민·복지시설
717,부산광역시,서동전통골목시장,35.2155818,부산광역시,129.1023364,Public WiFi,051-888-4604,금정구,부산광역시 금정구 서동 339-1번지,부산광역시 금정구 서동로 145-12,시장,SKT,서민·복지시설
718,부산광역시,서동성가공부방,35.215724,부산광역시,129.099478,Public WiFi,051-888-4604,금정구,부산광역시 금정구 서2동 302-978,부산광역시 금정구 삼차로 69,공부방,LGU+,서민·복지시설
719,부산광역시,서동 지역아동센터,35.215883,부산광역시,129.105296,Public WiFi,051-888-4604,금정구,부산광역시 금정구 서3동 197-45,부산광역시 금정구 서부로10번길 22,센터,LGU+,서민·복지시설
720,부산광역시,서3동 주민센터,35.2172612,부산광역시,129.1039123,Public WiFi,051-888-4604,금정구,부산광역시 금정구 서3동 397-8,부산광역시 금정구 서곡로33번길 9,민원실,LGU+,관공서
721,부산광역시,서3동 주민센터,35.2172612,부산광역시,129.1039123,Public WiFi,051-888-4604,금정구,부산광역시 금정구 서3동 397-8,부산광역시 금정구 서곡로33번길 9,민원실,LGU+,관공서
722,부산광역시,서2동 주민센터,35.216275,부산광역시,129.101922,Public WiFi,051-888-4604,금정구,부산광역시 금정구 서동 297-446,부산광역시 금정구 서동중심로 33,민원실,KT,관공서
723,부산광역시,서1동 주민센터,35.218354,부산광역시,129.099131,Public WiFi,051-888-4604,금정구,부산광역시 금정구 서1동 161-14,부산광역시 금정구 서부로69번길 17,민원실,KT,관공서
724,부산광역시,샐리홈,35.238756,부산광역시,129.093834,Public WiFi,051-888-4604,금정구,부산광역시 금정구 부곡동 200-68,부산광역시 금정구 기찰로 90,샐리홈,LGU+,서민·복지시설
725,부산광역시,부산금정우체국,35.2442255,부산광역시,129.0920977,Public WiFi,051-888-4604,금정구,부산광역시 금정구 구서1동 420-16,부산광역시 금정구 중앙대로1793번길 20,민원실,KT,관공서
726,부산광역시,부곡상가시장,35.2256425,부산광역시,129.0913829,Public WiFi,051-888-4604,금정구,부산광역시 금정구 부곡동 304-1,부산광역시 금정구 부곡로 107,시장,SKT,편의시설
727,부산광역시,부곡4동 주민센터,35.219946,부산광역시,129.088569,Public WiFi,051-888-4604,금정구,부산광역시 금정구 부곡동 395-14,부산광역시 금정구 부곡로18번안길 37,민원실,KT,관공서
728,부산광역시,부곡3동 주민센터,35.240541,부산광역시,129.093829,Public WiFi,051-888-4604,금정구,부산광역시 금정구 부곡동 59-11,부산광역시 금정구 기찰로 107,민원실,LGU+,관공서
729,부산광역시,부곡2동 주민센터,35.229869,부산광역시,129.092712,Public WiFi,051-888-4604,금정구,부산광역시 금정구 부곡동 265-10,부산광역시 금정구 부곡로156번길 7,민원실,KT,관공서
730,부산광역시,부곡1동 주민센터,35.224431,부산광역시,129.092155,Public WiFi,051-888-4604,금정구,부산광역시 금정구 부곡1동 323-1,부산광역시 금정구 동부곡로6번길 29,민원실,KT,관공서
731,부산광역시,바오로아람터,35.2776546,부산광역시,129.0887812,Public WiFi,051-888-4604,금정구,부산광역시 금정구 청룡동 39-4,부산광역시 금정구 청룡예전로43번길 37,아람터,KT,서민·복지시설
732,부산광역시,드림스타트센터,35.1365297,부산광역시,129.0842428,Public WiFi,051-888-4604,금정구,부산광역시 금정구 서동 397-8,부산광역시 금정구 서곡로33번길 9,센터,SKT,서민·복지시설
733,부산광역시,두레지역아동센터,35.2711735,부산광역시,129.0918228,Public WiFi,051-888-4604,금정구,부산광역시 금정구 남산동 24-8,부산광역시 금정구 팔송로7번길 21,센터,LGU+,서민·복지시설
734,부산광역시,동성원,35.2575352,부산광역시,129.0905806,Public WiFi,051-888-4604,금정구,부산광역시 금정구 구서동 175-3,부산광역시 금정구 두실로7번길 63,동성원,KT,서민·복지시설
735,부산광역시,동래양로원,35.231703,부산광역시,129.076061,Public WiFi,051-888-4604,금정구,부산광역시 금정구 장전동 산 38-25,부산광역시 금정구 산성로 967,양로원,SKT,서민·복지시설
736,부산광역시,누리지역아동센터,35.2325248,부산광역시,129.091107,Public WiFi,051-888-4604,금정구,부산광역시 금정구 부곡동 244-10,부산광역시 금정구 중앙대로 1657,센터,KT,서민·복지시설
737,부산광역시,노포차량기지창 차량사업소,35.285199,부산광역시,129.098381,Public WiFi,051-888-4604,금정구,부산광역시 금정구 노포동 133,부산광역시 금정구 중앙대로 2238,홍보관,SKT,관공서
738,부산광역시,남산동 주민센터,35.271658,부산광역시,129.0922445,Public WiFi,051-888-4604,금정구,부산광역시 금정구 남산동 21-5,부산광역시 금정구 중앙대로2097번길 4,민원실,KT,관공서
739,부산광역시,남광종합사회복지관,35.2947533,부산광역시,129.0992624,Public WiFi,051-888-4604,금정구,부산광역시 금정구 노포동 산15-3,부산광역시 금정구 중앙대로2349번길 3,복지관,KT,서민·복지시설
740,부산광역시,기술보증기금(금정구),35.2561708,부산광역시,129.0909837,Public WiFi,051-888-4604,금정구,부산광역시 금정구 구서2동 184-3,부산광역시 금정구 중앙대로 1925,민원실,LGU+,관공서
741,부산광역시,대한상공회의소 부산인력개발원,35.125185,부산광역시,129.102798,Public WiFi,051-888-4604,남구,부산광역시 남구 용당동 546-6,부산광역시 남구 신선로 454-20,B동,LGU+,관공서
742,부산광역시,대한상공회의소 부산인력개발원,35.125238,부산광역시,129.102831,Public WiFi,051-888-4604,남구,부산광역시 남구 용당동 546-6,부산광역시 남구 신선로 454-20,A동,LGU+,관공서
743,부산광역시,대연6동 주민센터,35.134929,부산광역시,129.0835573,Public WiFi,051-888-4604,남구,부산광역시 남구 대연동 1768-3,부산광역시 남구 수영로 155,민원실,LGU+,관공서
744,부산광역시,대연5동 주민센터,35.138451,부산광역시,129.0901607,Public WiFi,051-888-4604,남구,부산광역시 남구 대연동 1463-1,부산광역시 남구 진남로46번길 7,민원실,LGU+,관공서
745,부산광역시,대연4동 주민센터,35.1298826,부산광역시,129.0913584,Public WiFi,051-888-4604,남구,부산광역시 남구 대연동 1090-14,부산광역시 남구 석포로91번길 96,민원실,LGU+,관공서
746,부산광역시,대연3동 주민센터,35.139991,부산광역시,129.103861,Public WiFi,051-888-4604,남구,부산광역시 남구 대연동 1858,부산광역시 남구 수영로 345,민원실,LGU+,관공서
747,부산광역시,대연1동 주민센터,35.1344914,부산광역시,129.0841338,Public WiFi,051-888-4604,남구,부산광역시 남구 대연동 1241-2,부산광역시 남구 수영로 160,민원실,SKT,관공서
748,부산광역시,대연1동 주민센터,35.1345342,부산광역시,129.0934793,Public WiFi,051-888-4604,남구,부산광역시 남구 대연동 984-20,부산광역시 남구 유엔평화로 24,민원실,LGU+,관공서
749,부산광역시,대동골 문화센터,35.1523275,부산광역시,129.0891356,Public WiFi,051-888-4604,남구,부산광역시 남구 대연동 245-170,부산광역시 남구 황령대로319번가길 147,센터,KT,지역문화시설
750,부산광역시,남부운전면허시험장,35.127929,부산광역시,129.106908,Public WiFi,051-888-4604,남구,부산광역시 남구 용호1동 산45-3,부산광역시 남구 용호로 16,민원실,LGU+,관공서
751,부산광역시,남구체육센터,35.1038405,부산광역시,129.108414,Public WiFi,051-888-4604,남구,부산광역시 남구 용호동 895-18,부산광역시 남구 백운포로 110,센터,LGU+,지역문화시설
752,부산광역시,남부운전면허시험장,35.127929,부산광역시,129.106908,Public WiFi,051-888-4604,남구,부산광역시 남구 용호1동 산45-3,부산광역시 남구 용호로 16,교육장,LGU+,관공서
753,부산광역시,연산4동주민센터,35.186301,부산광역시,129.084947,Public WiFi,051-888-4604,연제구,부산광역시 연제구 연산동 630-22,부산광역시 연제구 쌍미천로 151번길 42,민원실,KT,관공서
754,부산광역시,연산3동주민센터,35.173358,부산광역시,129.094259,Public WiFi,051-888-4604,연제구,부산광역시 연제구 연산3동 1799-73,부산광역시 연제구 연수로 218번길 4,민원실,KT,관공서
755,부산광역시,연산2동주민센터,35.179947,부산광역시,129.079327,Public WiFi,051-888-4604,연제구,부산광역시 연제구 연산동 1598-7,부산광역시 연제구 중앙대로 1038번길 39,민원실,KT,관공서
756,부산광역시,연산1동주민센터,35.189991,부산광역시,129.090409,Public WiFi,051-888-4604,연제구,부산광역시 연제구 연산동 313-10,부산광역시 연제구 연동로8번길 66,민원실,KT,관공서
757,부산광역시,연동시장,35.1888554,부산광역시,129.092548,Public WiFi,051-888-4604,연제구,부산광역시 연제구 연산동 312-18번지,부산광역시 연제구 쌍미천로141번길 41,시장,SKT,서민·복지시설
758,부산광역시,성우원,35.1813131,부산광역시,129.1022341,Public WiFi,051-888-4604,연제구,부산광역시 연제구 연산9동 10-50,부산광역시 연제구 톳고개로 48,성우원,KT,서민·복지시설
759,부산광역시,부산장애인종합복지관,35.190556,부산광역시,129.081547,Public WiFi,051-888-4604,연제구,부산광역시 연제구 연산동 578-5,부산광역시 연제구 중앙대로 1150번길 15,복지관,KT,서민·복지시설
760,부산광역시,부산의료원 종합검진센터,35.1868174,부산광역시,129.0601326,Public WiFi,051-888-4604,연제구,부산광역시 연제구 거제2동 1330,부산광역시 연제구 거제2동 1330,센터,LGU+,서민·복지시설
761,부산광역시,부산연제우체국,35.1941312,부산광역시,129.0705481,Public WiFi,051-888-4604,연제구,부산광역시 연제구 거제1동 1473,부산광역시 연제구 법원북로 33,우체국,KT,관공서
762,부산광역시,부산돌봉사사회서비스센터,35.182701,부산광역시,129.073516,Public WiFi,051-888-4604,연제구,부산광역시 연제구 거제3동 457-17,부산광역시 연제구 거제시장로14번길 38,센터,KT,서민·복지시설
763,부산광역시,부산광역시청,35.180133,부산광역시,129.0746555,Public WiFi,051-888-4604,연제구,부산광역시 연제구 연산5동 1000,부산광역시 연제구 중앙대로 1001,우체국,SKT,관공서
764,부산광역시,부산광역시청,35.180133,부산광역시,129.0746555,Public WiFi,051-888-4604,연제구,부산광역시 연제구 연산5동 1000,부산광역시 연제구 중앙대로 1001,3층 민원실,SKT,관공서
765,부산광역시,부산광역시청,35.180133,부산광역시,129.0746555,Public WiFi,051-888-4604,연제구,부산광역시 연제구 연산5동 1000,부산광역시 연제구 중앙대로 1001,2층 민원실,SKT,관공서
766,부산광역시,부산광역시청,35.180133,부산광역시,129.0746555,Public WiFi,051-888-4604,연제구,부산광역시 연제구 연산5동 1000,부산광역시 연제구 중앙대로 1001,1층 민원실,SKT,관공서
767,부산광역시,부산고등법원,35.1925799,부산광역시,129.0733152,Public WiFi,051-888-4604,연제구,부산광역시 연제구 거제동 1500,부산광역시 연제구 법원로 31,민원실,KT,관공서
768,부산광역시,부산경상대학 우체국,35.185462,부산광역시,129.100553,Public WiFi,051-888-4604,연제구,부산광역시 연제구 연산8동 277-4,부산광역시 연제구 고분로 170,민원실,SKT,관공서
769,부산광역시,배산역,35.1734594,부산광역시,129.0954674,Public WiFi,051-888-4604,연제구,부산광역시 연제구 연산동 1802,부산광역시 연제구 연산동 1802,역사,LGU+,교통시설
770,부산광역시,거제시장,35.181937,부산광역시,129.0728098,Public WiFi,051-888-4604,연제구,부산광역시 연제구 거제동 486-1,부산광역시 연제구 거제시장로 14번길 28,시장,KT,서민·복지시설
771,부산광역시,거제4동주민센터,35.1791991,부산광역시,129.0677705,Public WiFi,051-888-4604,연제구,부산광역시 연제구 거제동 676-316,부산광역시 연제구 해맞이로 53,민원실,SKT,관공서
772,부산광역시,거제3동주민센터,35.1840674,부산광역시,129.0731275,Public WiFi,051-888-4604,연제구,부산광역시 연제구 거제동 558-3,부산광역시 연제구 거제시장로22번길 70 (거제동),민원실,SKT,관공서
773,부산광역시,거제2동주민센터,35.1877881,부산광역시,129.0703505,Public WiFi,051-888-4604,연제구,부산광역시 연제구 거제동 1180-8,부산광역시 연제구 아시아드대로22번길 19,민원실,SKT,관공서
774,부산광역시,거제1동주민센터,35.1948155,부산광역시,129.0807427,Public WiFi,051-888-4604,연제구,부산광역시 연제구 거제동 1426-10,부산광역시 연제구 명륜로2번길 9 (거제동),민원실,SKT,관공서
775,부산광역시,개인택시공제조합(연제구),35.1861417,부산광역시,129.0554758,Public WiFi,051-888-4604,연제구,부산광역시 연제구 거제동 1368,부산광역시 연제구 월드컵대로 399,민원실,SKT,관공서
776,부산광역시,시청,35.180892,부산광역시,129.073346,Dynamic Busan,051-888-4604,연제구,부산광역시 연제구 연산동 1000,부산광역시 연제구 중앙대로 1001,녹음광장,부산광역시,관공서
777,부산광역시,시청,35.179461,부산광역시,129.075267,Dynamic Busan,051-888-4604,연제구,부산광역시 연제구 연산동 1000,부산광역시 연제구 중앙대로 1001,정문분수광장,부산광역시,관공서
778,부산광역시,흰돌실버타운,35.171424,부산광역시,129.098681,Public WiFi,051-888-4604,수영구,부산광역시 수영구 망미동 774-283,부산광역시 수영구 연수로260번길 53,타운,KT,서민·복지시설
779,부산광역시,한진개발공사,35.1427567,부산광역시,129.1103764,Public WiFi,051-888-4604,수영구,부산광역시 수영구 남천동 27-7,부산광역시 수영구 광남로 31,민원실,LGU+,관공서
780,부산광역시,민락골목시장,35.1571157,부산광역시,129.1242877,Public WiFi,051-888-4604,수영구,부산광역시 수영구 민락동 190-1,부산광역시 수영구 광안해변로277번길 28-8,시장,SKT,편의시설
781,부산광역시,망미도서관 분관,35.1734383,부산광역시,129.1049449,Public WiFi,051-888-4604,수영구,부산광역시 수영구 망미동 640-15,부산광역시 수영구 연수로315번길 23,6층,SKT,지역문화시설
782,부산광역시,망미도서관 분관,35.1734383,부산광역시,129.1049449,Public WiFi,051-888-4604,수영구,부산광역시 수영구 망미동 640-15,부산광역시 수영구 연수로315번길 23,5층,SKT,지역문화시설
783,부산광역시,망미도서관 분관,35.1734383,부산광역시,129.1049449,Public WiFi,051-888-4604,수영구,부산광역시 수영구 망미동 640-15,부산광역시 수영구 연수로315번길 23,4층,SKT,지역문화시설
784,부산광역시,망미도서관 분관,35.1734383,부산광역시,129.1049449,Public WiFi,051-888-4604,수영구,부산광역시 수영구 망미동 640-15,부산광역시 수영구 연수로315번길 23,3층,SKT,지역문화시설
785,부산광역시,망미도서관 분관,35.1734383,부산광역시,129.1049449,Public WiFi,051-888-4604,수영구,부산광역시 수영구 망미동 640-15,부산광역시 수영구 연수로315번길 23,2층,SKT,지역문화시설
786,부산광역시,망미도서관 분관,35.1734383,부산광역시,129.1049449,Public WiFi,051-888-4604,수영구,부산광역시 수영구 망미동 640-15,부산광역시 수영구 연수로315번길 23,1층,SKT,지역문화시설
787,부산광역시,망미2동주민센터,35.1752862,부산광역시,129.1152627,Public WiFi,051-888-4604,수영구,부산광역시 수영구 망미동 257-2,부산광역시 수영구 구락로81번길 40 (망미동),민원실,LGU+,관공서
788,부산광역시,이삭의집,35.1564736,부산광역시,129.1086546,Public WiFi,051-888-4604,수영구,부산광역시 수영구 광안4동 1237-5,부산광역시 수영구 호암로 35-11,이삭의집,KT,서민·복지시설
789,부산광역시,수화통역센터(수영구),35.156679,부산광역시,129.112696,Public WiFi,051-888-4604,수영구,부산광역시 수영구 광안4동 744-17,"부산광역시 수영구 수영로 569 (광안동, 4층)",센터,LGU+,서민·복지시설
790,부산광역시,수영팔도상가시장,35.169865,부산광역시,129.116918,Public WiFi,051-888-4604,수영구,부산광역시 수영구 수영동 60-1,부산광역시 수영구 수영로705번길 43 (수영동),시장,LGU+,서민·복지시설
791,부산광역시,수영역,35.167758,부산광역시,129.114574,Public WiFi,051-888-4604,수영구,부산광역시 수영구 광안동 1091-1,부산광역시 수영구 수영로 677,역사,LGU+,교통시설
792,부산광역시,수영사적공원,35.1708387,부산광역시,129.114391,Public WiFi,051-888-4604,수영구,부산광역시 수영구 수영동 229-1,부산광역시 수영구 수영성로 43,공원,SKT,관광
793,부산광역시,수영동 주민센터,35.170481,부산광역시,129.116051,Public WiFi,051-888-4604,수영구,부산광역시 수영구 수영동 191-2,부산광역시 수영구 수영성로36(수영동),민원실,LGU+,관공서
794,부산광역시,수영구청,35.145596,부산광역시,129.113186,Public WiFi,051-888-4604,수영구,부산광역시 수영구 남천2동 148-15,부산광역시 수영구 남천동로 100,민원실,KT,관공서
795,부산광역시,수영구청,35.1454212,부산광역시,129.1130256,Public WiFi,051-888-4604,수영구,부산광역시 수영구 남천동 148-15,부산광역시 수영구 남천동로 100,민원실,KT,관공서
796,부산광역시,누림터,35.1853437,부산광역시,129.0780885,Public WiFi,051-888-4604,연제구,부산광역시 연제구 연산동 1289-2,부산광역시 연제구 중앙대로 1075번길 42,누림터,KT,서민·복지시설
797,부산광역시,수영구자원봉사센터,35.1605402,부산광역시,129.1139829,Public WiFi,051-888-4604,수영구,부산광역시 수영구 광안동 118-3,부산광역시 수영구 수영로 614,센터,SKT,서민·복지시설
798,부산광역시,수영구보건소,35.162652,부산광역시,129.113443,Public WiFi,051-888-4604,수영구,부산광역시 수영구 광안동 661-1,부산광역시 수영구 수영로 637-5 (광안동),민원실,LGU+,서민·복지시설
799,부산광역시,수영구도서관,35.1444574,부산광역시,129.1052375,Public WiFi,051-888-4604,수영구,부산광역시 수영구 남천동 489-33번지,부산광역시 수영구 남천서로 33,도서관,SKT,지역문화시설
800,부산광역시,수영구노인복지관,35.140081,부산광역시,129.111188,Public WiFi,051-888-4604,수영구,부산광역시 수영구 남천동 552,부산광역시 수영구 황령대로489번길 83,복지관,LGU+,서민·복지시설
801,부산광역시,수영구 드림스타트센터,35.173467,부산광역시,129.116564,Public WiFi,051-888-4604,수영구,부산광역시 수영구 망미동 250-17,부산광역시 수영구 수미로 53,센터,LGU+,서민·복지시설
802,부산광역시,수영구 구민정보화교육장,35.1745166,부산광역시,129.1010649,Public WiFi,051-888-4604,수영구,부산광역시 수영구 망미동 826-54,부산광역시 수영구 연수로275번길 30,교육장,KT,지역문화시설
803,부산광역시,부산시민천문대,35.155155,부산광역시,129.100569,Public WiFi,051-888-4604,수영구,부산광역시 수영구 광안4동 산60-3,부산광역시 수영구 황령산로 156,천문대,SKT,관광
804,부산광역시,민락어패류시장,35.1556748,부산광역시,129.1244434,Public WiFi,051-888-4604,수영구,부산광역시 수영구 민락동 181-8번지,부산광역시 수영구 광안해변로 278,시장,SKT,편의시설
805,부산광역시,민락씨랜드회센터,35.1568496,부산광역시,129.1261023,Public WiFi,051-888-4604,수영구,부산광역시 수영구 민락동 181-228,부산광역시 수영구 광안해변로 299 (민락동),회센터,SKT,편의시설
806,부산광역시,민락동주민센터,35.1572836,부산광역시,129.1254025,Public WiFi,051-888-4604,수영구,부산광역시 수영구 민락동 34-10,부산광역시 수영구 광안해변로295번길 20,민원실,SKT,관공서
807,부산광역시,농협 해운대중동지점,35.162045,부산광역시,129.160509,Public WiFi,051-888-4604,해운대구,부산광역시 해운대구 중동 1383-9,부산광역시 해운대구 구남로 23,민원실,SKT,기타
808,부산광역시,부산재송동우체국,35.189303,부산광역시,129.126437,Public WiFi,051-888-4604,해운대구,부산광역시 해운대구 재송동 1058-18,부산광역시 해운대구 재반로 121-1,민원실,KT,기타
809,부산광역시,해운대우체국,35.170638,부산광역시,129.174451,Public WiFi,051-888-4604,해운대구,부산광역시 해운대구 좌동 1458-3,부산광역시 해운대구 양운로 87,민원실,KT,기타
810,부산광역시,부산우1동우체국,35.163961,부산광역시,129.161174,Public WiFi,051-888-4604,해운대구,부산광역시 해운대구 우동 601-6,부산광역시 해운대구 중동1로 11,민원실,KT,기타
811,부산광역시,부산반여3동우체국,35.201122,부산광역시,129.131511,Public WiFi,051-888-4604,해운대구,부산광역시 해운대구 반여동 1603-1,부산광역시 해운대구 재반로 267,민원실,KT,기타
812,부산광역시,누리마루Apec하우스,35.152385,부산광역시,129.151302,Public WiFi,051-888-4604,해운대구,부산광역시 해운대구 우동 714-1,부산광역시 해운대구 동백로 116 누리마루APEC하우스,누리마루,KT,관광
813,부산광역시,고은사진미술관(중1동),35.163275,부산광역시,129.141214,Public WiFi,051-888-4604,해운대구,부산광역시 해운대구 우동 1005-17,부산광역시 해운대구 해운대로452번길 16,미술관,SKT,지역문화시설
814,부산광역시,해운대청소년 수련원,35.1738065,부산광역시,129.1953348,Public WiFi,051-888-4604,해운대구,부산광역시 해운대구 송정동 775-2,부산광역시 해운대구 광어골로82번길 25,수련원,SKT,지역문화시설
815,부산광역시,해운대은혜의집,35.174262,부산광역시,129.1327413,Public WiFi,051-888-4604,해운대구,부산광역시 해운대구 우동 1201,부산광역시 해운대구 해운대로295번길 16,은혜의집,SKT,서민·복지시설
816,부산광역시,해운대역,35.163651,부산광역시,129.158897,Public WiFi,051-888-4604,해운대구,부산광역시 해운대구 우1동 539,부산광역시 해운대구 해운대로 612,역사,LGU+,교통시설
817,부산광역시,해운대복지관,35.1799103,부산광역시,129.1278193,Public WiFi,051-888-4604,해운대구,부산광역시 해운대구 재송1동 100-9,부산광역시 해운대구 재반로 12번길 16,복지관,LGU+,서민·복지시설
818,부산광역시,해운대구청소년문화의집,35.2287844,부산광역시,129.1603893,Public WiFi,051-888-4604,해운대구,부산광역시 해운대구 반송동 890,부산광역시 해운대구 신반송로 173,문화의집,SKT,지역문화시설
819,부산광역시,해운대구청,35.1629742,부산광역시,129.1637253,Public WiFi,051-888-4604,해운대구,부산광역시 해운대구 중동 1378-95,부산광역시 해운대구 중동2로 11,민원실,SKT,관공서
820,부산광역시,해운대구 문화복합센터,35.1820967,부산광역시,129.1215484,Public WiFi,051-888-4604,해운대구,부산광역시 해운대구 재송동 1192,부산광역시 해운대구 센텀중앙로 170,센터,SKT,서민·복지시설
821,부산광역시,해운대 임해행정봉사실,35.159181,부산광역시,129.160948,Public WiFi,051-888-4604,해운대구,부산광역시 해운대구 중1동 1415,부산광역시 해운대구 중1동 1415,봉사실,LGU+,관공서
822,부산광역시,해운대 보건소,35.164085,부산광역시,129.178649,Public WiFi,051-888-4604,해운대구,부산광역시 해운대구 좌동 1339,부산광역시 해운대구 양운로37번길 59　,민원실,KT,서민·복지시설
823,부산광역시,해운대동백섬,35.152417,부산광역시,129.152543,Public WiFi,051-888-4604,해운대구,부산광역시 해운대구 우동 710-1,부산광역시 해운대구 우동 710-1,동백섬등대광장,KT,관광
824,부산광역시,연산5동주민센터,35.187117,부산광역시,129.070555,Public WiFi,051-888-4604,연제구,부산광역시 연제구 연산동 1478-1,부산광역시 연제구 거제천로 124번길 15,민원실,KT,관공서
825,부산광역시,새생명지역아동센터,35.146343,부산광역시,129.055309,Public WiFi,051-888-4604,부산진구,부산광역시 부산진구 범천2동 1284-50,부산광역시 부산진구 신암로 51-5,센터,SKT,서민·복지시설
826,부산광역시,한울타리지역아동센터,35.1599808,부산광역시,129.0649268,Public WiFi,051-888-4604,부산진구,부산광역시 부산진구 전포2동 638-7번지,부산광역시 부산진구 서전로47번길 48,센터,LGU+,서민·복지시설
827,부산광역시,평강지역아동센터,35.1765337,부산광역시,129.0743937,Public WiFi,051-888-4604,부산진구,부산광역시 부산진구 양정2동 145-3번지,부산광역시 부산진구 중앙대로 978,센터,LGU+,서민·복지시설
828,부산광역시,축복지역아동센터,35.1687073,부산광역시,129.0366357,Public WiFi,051-888-4604,부산진구,부산광역시 부산진구 부암3동 506-1번지,부산광역시 부산진구 당감서로98번길 20-22,센터,LGU+,서민·복지시설
829,부산광역시,초읍동주민센터,35.1787168,부산광역시,129.0475759,Public WiFi,051-888-4604,부산진구,부산광역시 부산진구 초읍동 278-8,부산광역시 부산진구 새싹로 253,민원실,SKT,관공서
830,부산광역시,전포지역아동센터,35.1570828,부산광역시,129.0659728,Public WiFi,051-888-4604,부산진구,부산광역시 부산진구 전포1동 207-75번지,부산광역시 부산진구 서전로58번길 16,센터,LGU+,서민·복지시설
831,부산광역시,전포사회복지관,35.153656,부산광역시,129.067529,Public WiFi,051-888-4604,부산진구,부산광역시 부산진구 전포1동 343-5,부산광역시 부산진구 전포대로190번길 35,복지관,LGU+,서민·복지시설
832,부산광역시,전포2동주민센터,35.1616893,부산광역시,129.066199,Public WiFi,051-888-4604,부산진구,부산광역시 부산진구 전포동 175-26,부산광역시 부산진구 동성로118번길 34,민원실,KT,관공서
833,부산광역시,구포역,35.205444,부산광역시,128.997121,Public WiFi,051-888-4604,북구,부산광역시 북구 구포동 1060-470,부산광역시 북구 구포만세길 82,역사,SKT,교통시설
834,부산광역시,구포시장 상인회,35.2089473,부산광역시,129.003519,Public WiFi,051-888-4604,북구,부산광역시 북구 구포1동 599-18,부산광역시 북구 구포시장길 9,상인회,SKT,서민·복지시설
835,부산광역시,구포3동 주민센터,35.1949272,부산광역시,129.0087627,Public WiFi,051-888-4604,북구,부산광역시 북구 구포동 1252-1,부산광역시 북구 시랑로118번길 23 (구포동),민원실,KT,관공서
836,부산광역시,구포2동 주민센터,35.2027019,부산광역시,128.9979725,Public WiFi,051-888-4604,북구,부산광역시 북구 구포동 1030-68,부산광역시 북구 낙동북로663번길 23,민원실,LGU+,관공서
837,부산광역시,구포2동 주민센터,35.2026984,부산광역시,128.9979667,Public WiFi,051-888-4604,북구,부산광역시 북구 구포2동 1030-68,부산광역시 북구 낙동북로663번길 23,민원실,SKT,관공서
838,부산광역시,구포1동 주민센터,35.2064317,부산광역시,129.0011428,Public WiFi,051-888-4604,북구,부산광역시 북구 구포동 430-1,부산광역시 북구 낙동대로1762번길 75,민원실,KT,관공서
839,부산광역시,공창종합사회복지관,35.2678405,부산광역시,129.0194015,Public WiFi,051-888-4604,북구,부산광역시 북구 금곡동 53-1,부산광역시 북구 효열로 268,복지관,KT,서민·복지시설
840,부산광역시,1318 미래세대지역아동센터,35.2139907,부산광역시,129.0110967,Public WiFi,051-888-4604,북구,부산광역시 북구 덕천동 321-13,부산광역시 북구 만덕대로65번길 49,센터,LGU+,서민·복지시설
841,부산광역시,북구문화빙상센터,35.1971413,부산광역시,128.9901072,Dynamic Busan,051-888-4604,북구,부산광역시 북구 덕천동 434,부산광역시 북구 금곡대로46번길 50,센터,부산광역시,지역문화시설
842,부산광역시,부산어린이대공원,35.184631,부산광역시,129.043471,Public WiFi,051-888-4604,부산진구,부산광역시 부산진구 초읍동 43,부산광역시 부산진구 새싹로 295,공원,KT,지역문화시설
843,부산광역시,양정2동주민센터,35.172859,부산광역시,129.075748,Public WiFi,051-888-4604,부산진구,부산광역시 부산진구 양정동 52-2,부산광역시 부산진구 양정로15번길 26,민원실,SKT,관공서
844,부산광역시,삼성전자서비스(주) 서면,35.162164,부산광역시,129.051423,Public WiFi,051-888-4604,부산진구,부산광역시 부산진구 부암동 123-1,부산광역시 부산진구 신천대로 222,매장,LGU+,기타
845,부산광역시,부산시민공원 역사관,35.167101,부산광역시,129.054661,Public WiFi,051-888-4604,부산진구,부산광역시 부산진구 범전동 195,부산광역시 부산진구 시민공원로 73,역사관,LGU+,지역문화시설
846,부산광역시,부산광역시립 시민도서관,35.183522,부산광역시,129.050224,Public WiFi,051-888-4604,부산진구,부산광역시 부산진구 초읍동 산 51-6,부산광역시 부산진구 월드컵대로 462,도서관,KT,지역문화시설
847,부산광역시,부산백병원,35.146138,부산광역시,129.020875,Public WiFi,051-888-4604,부산진구,부산광역시 부산진구 개금동 633-165,부산광역시 부산진구 복지로 75,병원,LGU+,서민·복지시설
848,부산광역시,부산 CBS,35.152992,부산광역시,129.049312,Public WiFi,051-888-4604,부산진구,부산광역시 부산진구 범천동 1155-2,부산광역시 부산진구 신암로 141,CBS,LGU+,기타
849,부산광역시,동의의료원,35.169764,부산광역시,129.076783,Public WiFi,051-888-4604,부산진구,부산광역시 부산진구 양정동 산 45-1,부산광역시 부산진구 양정로 62,의료원,LGU+,서민·복지시설
850,부산광역시,서면역1호선,35.156922,부산광역시,129.059125,Public WiFi,051-888-4604,부산진구,부산광역시 부산진구 부전동 573-1,부산광역시 부산진구 중앙대로 730,역사,LGU+,교통시설
851,부산광역시,희연요양병원,35.1519863,부산광역시,129.0177297,Public WiFi,051-888-4604,부산진구,부산광역시 부산진구 개금1동 496-18,부산광역시 부산진구 개금1동 496-18,병원,LGU+,서민·복지시설
852,부산광역시,육아종합지원센터,35.1549123,부산광역시,129.0359933,Public WiFi,051-888-4604,부산진구,부산광역시 부산진구 가야동 258-2,부산광역시 부산진구 가야대로587번길 21-21,센터,KT,서민·복지시설
853,부산광역시,연지동주민센터 작은도서관,35.172799,부산광역시,129.052836,Public WiFi,051-888-4604,부산진구,부산광역시 부산진구 연지동 238-9,부산광역시 부산진구 국악로 30,도서관,SKT,지역문화시설
854,부산광역시,연지동주민센터,35.1727868,부산광역시,129.0528236,Public WiFi,051-888-4604,부산진구,부산광역시 부산진구 연지동 238-9번지,부산광역시 부산진구 국악로 30,민원실,SKT,관공서
855,부산광역시,에이스지역아동센터,35.1578334,부산광역시,129.0472454,Public WiFi,051-888-4604,부산진구,부산광역시 부산진구 당감2동 93-15번지,부산광역시 부산진구 가야대로703번나길 23,센터,LGU+,서민·복지시설
856,부산광역시,양정청소년수련관,35.177257,부산광역시,129.0717253,Public WiFi,051-888-4604,부산진구,부산광역시 부산진구 양정2동 260-5번지,부산광역시 부산진구 동평로405번길 81,청소년 문화의집,LGU+,서민·복지시설
857,부산광역시,양정청소년수련관,35.1772767,부산광역시,129.0717285,Public WiFi,051-888-4604,부산진구,부산광역시 부산진구 양정동 260-5,부산광역시 부산진구 동평로405번길 85,수련관,LGU+,서민·복지시설
858,부산광역시,양정1동 주민센터,35.172662,부산광역시,129.073175,Public WiFi,051-888-4604,부산진구,부산광역시 부산진구 양정동 507-7,부산광역시 부산진구 범양로125번길 26,민원실,SKT,관공서
859,부산광역시,부산진우체국,35.1549967,부산광역시,129.0353856,Public WiFi,051-888-4604,부산진구,부산광역시 부산진구 가야3동 256-7,부산광역시 부산진구 가야대로 579,민원실,KT,관공서
860,부산광역시,아순타의 집,35.1586973,부산광역시,129.0241575,Public WiFi,051-888-4604,부산진구,부산광역시 부산진구 개금3동 24-36번지,부산광역시 부산진구 개금본동로17번길 12,아순타의집,LGU+,서민·복지시설
861,부산광역시,신애지역아동센터,35.168558,부산광역시,129.0410086,Public WiFi,051-888-4604,부산진구,부산광역시 부산진구 부암3동 410-5번지,부산광역시 부산진구 백양순환로 137,센터,LGU+,서민·복지시설
862,부산광역시,신애재활원,35.177394,부산광역시,129.0559943,Public WiFi,051-888-4604,부산진구,부산광역시 부산진구 초읍동 525-1,부산광역시 부산진구 성지로62번길 40,재활원,KT,서민·복지시설
863,부산광역시,성지지역아동센터,35.1643241,부산광역시,129.0401921,Public WiFi,051-888-4604,부산진구,부산광역시 부산진구 당감동 275-26,부산광역시 부산진구 동평로94번길 28,센터,KT,서민·복지시설
864,부산광역시,새생명지역아동센터,35.146346,부산광역시,129.0552959,Public WiFi,051-888-4604,부산진구,부산광역시 부산진구 범천2동 1284-50번지,부산광역시 부산진구 신암로 51-5,센터,LGU+,서민·복지시설
865,부산광역시,사랑빛지역아동센터,35.1623986,부산광역시,129.025711,Public WiFi,051-888-4604,부산진구,부산광역시 부산진구 개금동 1-8,부산광역시 부산진구 백양관문로77번길 99,센터,LGU+,서민·복지시설
866,부산광역시,부전전자종합시장,35.1635842,부산광역시,129.063306,Public WiFi,051-888-4604,부산진구,부산광역시 부산진구 부전동 20-1,부산광역시 부산진구 중앙대로 803,시장,SKT,편의시설
867,부산광역시,부전마켓타운,35.1633578,부산광역시,129.0610234,Public WiFi,051-888-4604,부산진구,부산광역시 부산진구 부전동 573-3 일대,부산광역시 부산진구 중앙대로 755번길 21,타운,SKT,서민·복지시설
868,부산광역시,부전2동 주민센터,35.1526035,부산광역시,129.056792,Public WiFi,051-888-4604,부산진구,부산광역시 부산진구 부전동 523-6,부산광역시 부산진구 부전로20번길 13,민원실,SKT,관공서
869,부산광역시,부암역,35.1579105,부산광역시,129.0514241,Public WiFi,051-888-4604,부산진구,부산광역시 부산진구 부암1동 707,부산광역시 부산진구 가야대로 729,역사,LGU+,교통시설
870,부산광역시,부암1동주민센터,35.1633084,부산광역시,129.0485503,Public WiFi,051-888-4604,부산진구,부산광역시 부산진구 부암동 226,부산광역시 부산진구 신천대로241번길 41,민원실,KT,관공서
871,부산광역시,송남시장,35.0785144,부산광역시,129.0168094,Public WiFi,051-888-4604,서구,부산광역시 서구 암남동 346-2,부산광역시 서구 암남동 346-2,시장,LGU+,서민·복지시설
872,부산광역시,부산진구청,35.1628868,부산광역시,129.0531778,Public WiFi,051-888-4604,부산진구,부산광역시 부산진구 부암동 666-16,부산광역시 부산진구 시민공원로 30,민원실,KT,관공서
873,부산광역시,부산진구종합사회복지관,35.1426631,부산광역시,129.0196571,Public WiFi,051-888-4604,부산진구,부산광역시 부산진구 개금동 산57-9,부산광역시 부산진구 복지로 117-12,복지관,KT,서민·복지시설
874,부산광역시,부산진구장애인복지관,35.1640492,부산광역시,129.0658461,Public WiFi,051-888-4604,부산진구,부산광역시 부산진구 전포2동 581번지,부산광역시 부산진구 전포대로300번길 6,복지관,LGU+,서민·복지시설
875,부산광역시,부산진구다문화가족지원센터,35.1595497,부산광역시,129.0326632,Public WiFi,051-888-4604,부산진구,부산광역시 부산진구 당감동 516-8,부산광역시 부산진구 백양대로 160,센터,KT,서민·복지시설
876,부산광역시,부산진구 청소년문화의집,35.1552996,부산광역시,129.0747629,Public WiFi,051-888-4604,부산진구,부산광역시 부산진구 전포동 326-10,부산광역시 부산진구 진남로328번길 62,문화의집,KT,서민·복지시설
877,부산광역시,전포1동주민센터,35.1513072,부산광역시,129.0664499,Public WiFi,051-888-4604,부산진구,부산광역시 부산진구 전포동 363-63,부산광역시 부산진구 서전로58번길 143,민원실,SKT,관공서
878,부산광역시,이신호뷰티건물,35.1552707,부산광역시,129.0580386,Public WiFi,051-888-4604,부산진구,부산광역시 부산진구 부전2동 242-20,부산광역시 부산진구 서면로 52,건물,LGU+,기타
879,부산광역시,부산진구 보건소,35.1461958,부산광역시,129.0598958,Public WiFi,051-888-4604,부산진구,부산광역시 부산진구 범천동 849-10,부산광역시 부산진구 황령대로8번길 36,민원실,KT,서민·복지시설
880,부산광역시,범전동주민센터,35.1658378,부산광역시,129.0612029,Public WiFi,051-888-4604,부산진구,부산광역시 부산진구 범전동 329-15번지,부산광역시 부산진구 범양로 6,민원실,SKT,관공서
881,부산광역시,대한적십자 부전점,35.1552338,부산광역시,129.0618677,Public WiFi,051-888-4604,부산진구,부산광역시 부산진구 부전2동 169-2,부산광역시 부산진구 중앙대로702번길 50,민원실,KT,관공서
882,부산광역시,당평비전지역청소년센터,35.161891,부산광역시,129.033257,Public WiFi,051-888-4604,부산진구,부산광역시 부산진구 당감동 516-3,부산광역시 부산진구 백양대로136번길 37-9,센터,KT,서민·복지시설
883,부산광역시,당감종합사회복지관,35.1622517,부산광역시,129.0366152,Public WiFi,051-888-4604,부산진구,부산광역시 부산진구 당감동 818-220,부산광역시 부산진구 당감서로 16,복지관,KT,서민·복지시설
884,부산광역시,당감4동주민센터,35.1679325,부산광역시,129.036497,Public WiFi,051-888-4604,부산진구,부산광역시 부산진구 당감동 751-3번지,부산광역시 부산진구 당감서로 85,민원실,SKT,관공서
885,부산광역시,당감2동주민센터,35.1578483,부산광역시,129.0479515,Public WiFi,051-888-4604,부산진구,부산광역시 부산진구 당감동 71-7번지,부산광역시 부산진구 가야대로703번길 13,민원실,SKT,관공서
886,부산광역시,당감1동주민센터,35.1644603,부산광역시,129.0356527,Public WiFi,051-888-4604,부산진구,부산광역시 부산진구 당감동 375-1번지,부산광역시 부산진구 당감로10번길 3,민원실,SKT,관공서
887,부산광역시,당감1동 행복마을센터,35.1627354,부산광역시,129.0400027,Public WiFi,051-888-4604,부산진구,부산광역시 부산진구 당감동 252-104,부산광역시 부산진구 당감로10번길 3,센터,SKT,지역문화시설
888,부산광역시,당감1동 작은도서관,35.1644597,부산광역시,129.0356431,Public WiFi,051-888-4604,부산진구,부산광역시 부산진구 당감동 375-1,부산광역시 부산진구 동평로44번길 49-6,도서관,SKT,지역문화시설
889,부산광역시,다사랑복합문화예술회관,35.1503499,부산광역시,129.0346375,Public WiFi,051-888-4604,부산진구,부산광역시 부산진구 가야1동 433-1번지,부산광역시 부산진구 대학로 60,회관,LGU+,지역문화시설
890,부산광역시,근로복지공단(부전),35.1602314,부산광역시,129.0617925,Public WiFi,051-888-4604,부산진구,부산광역시 부산진구 부전1동 91-5,부산광역시 부산진구 중앙대로 766,공단,LGU+,관공서
891,부산광역시,개금시장,35.1536815,부산광역시,129.0267564,Public WiFi,051-888-4604,부산진구,부산광역시 부산진구 개금동 549-13,부산광역시 부산진구 냉정로 227-1,시장,KT,서민·복지시설
892,부산광역시,개금사회복지관,35.1617713,부산광역시,129.0224823,Public WiFi,051-888-4604,부산진구,부산광역시 부산진구 개금동 1-1,부산광역시 부산진구 백양관문로77번길 140,복지관,KT,서민·복지시설
893,부산광역시,개금3동주민센터,35.1557519,부산광역시,129.0220242,Public WiFi,051-888-4604,부산진구,부산광역시 부산진구 개금동 428-8번지,부산광역시 부산진구 개금본동로 88,민원실,SKT,관공서
894,부산광역시,개금2동주민센터,35.1449231,부산광역시,129.0195062,Public WiFi,051-888-4604,부산진구,부산광역시 부산진구 개금동 633-5번지,부산광역시 부산진구 복지로 93,민원실,SKT,관공서
895,부산광역시,개금2동 행복마을센터,35.1442072,부산광역시,129.0171982,Public WiFi,051-888-4604,부산진구,부산광역시 부산진구 개금동 633-35,부산광역시 부산진구 진사로83번길 21,센터,SKT,지역문화시설
896,부산광역시,부산진구 노인복지관,35.1640492,부산광역시,129.0658461,Public WiFi,051-888-4604,부산진구,부산광역시 부산진구 전포2동 581번지,부산광역시 부산진구 전포대로300번길 6,복지관,LGU+,서민·복지시설
897,부산광역시,부산진구 건강증진센터,35.1628733,부산광역시,129.0531703,Public WiFi,051-888-4604,부산진구,부산광역시 부산진구 부암1동 666-16번지,부산광역시 부산진구 시민공원로 30,"2,3층",LGU+,서민·복지시설
898,부산광역시,부산데프주간보호센터,35.162382,부산광역시,129.0579073,Public WiFi,051-888-4604,부산진구,부산광역시 부산진구 부전1동 346-89번지,부산광역시 부산진구 새싹로52번길 39,센터,LGU+,서민·복지시설
899,부산광역시,부산교육청 궁리마루,35.1559524,부산광역시,129.0631424,Public WiFi,051-888-4604,부산진구,부산광역시 부산진구 전포1동 682,부산광역시 부산진구 전포대로209번길 26,옥외,SKT,관공서
900,부산광역시,부산 상공회의소,35.1477079,부산광역시,129.0621565,Public WiFi,051-888-4604,부산진구,부산광역시 부산진구 범천1동 853-1,부산광역시 부산진구 황령대로 24,민원실,LGU+,관공서
901,부산광역시,범천2동주민센터,35.1469657,부산광역시,129.0556587,Public WiFi,051-888-4604,부산진구,부산광역시 부산진구 범천2동 1258-82번지,부산광역시 부산진구 신암로 48,민원실,SKT,관공서
902,부산광역시,범천2동작은도서관,35.1465036,부산광역시,129.0562039,Public WiFi,051-888-4604,부산진구,부산광역시 부산진구 범천동 960-1,부산광역시 부산진구 신암로 48,도서관,SKT,지역문화시설
903,부산광역시,범천1동 주민센터,35.142288,부산광역시,129.060661,Public WiFi,051-888-4604,부산진구,부산광역시 부산진구 범천동 854-15,부산광역시 부산진구 범일로192번길 21,민원실,SKT,관공서
904,부산광역시,범전문화센터,35.1661431,부산광역시,129.0620582,Public WiFi,051-888-4604,부산진구,부산광역시 부산진구 범전동 43-4,부산광역시 부산진구 범양로 6,센터,SKT,서민·복지시설
905,부산광역시,가야2동주민센터,35.1497583,부산광역시,129.0290073,Public WiFi,051-888-4604,부산진구,부산광역시 부산진구 가야동 601-7번지,부산광역시 부산진구 가야공원로40번길 14,민원실,SKT,관공서
906,부산광역시,가야1동주민센터,35.1532736,부산광역시,129.0342963,Public WiFi,051-888-4604,부산진구,부산광역시 부산진구 가야동 296-1번지,부산광역시 부산진구 가야대로572번길 22,민원실,SKT,관공서
907,부산광역시,(사)부산평화시장,35.1414964,부산광역시,129.0606529,Public WiFi,051-888-4604,부산진구,부산광역시 부산진구 범천동 839-212번지,부산광역시 부산진구 자유평화로 7,시장,SKT,서민·복지시설
908,부산광역시,어린이대공원,35.183919,부산광역시,129.046302,Dynamic Busan,051-888-4604,부산진구,부산광역시 부산진구 초읍동 43-1,부산광역시 부산진구 성지곡로 15,학생교육문화회관,부산광역시,지역문화시설
909,부산광역시,서면,35.157742,부산광역시,129.055636,Dynamic Busan,051-888-4604,부산진구,부산광역시 부산진구 부전동 485-8,부산광역시 부산진구 부전동 485-8,롯데백화점건너편정류장,부산광역시,기타
910,부산광역시,서면,35.157569,부산광역시,129.058402,Dynamic Busan,051-888-4604,부산진구,부산광역시 부산진구 부전2동 257-65,부산광역시 부산진구 부전2동 257-65,지하철5번출구앞,부산광역시,기타
911,부산광역시,동래우체국,35.208968,부산광역시,129.081971,Public WiFi,051-888-4604,동래구,부산광역시 동래구 명륜동 638-13,부산광역시 동래구 명륜로 169,민원실,KT,관공서
912,부산광역시,삼성전자서비스(주) 동래,35.200353,부산광역시,129.077169,Public WiFi,051-888-4604,동래구,부산광역시 동래구 사직동 145-6,부산광역시 동래구 중앙대로 1267,매장,LGU+,기타
913,부산광역시,동래시외버스터미널,35.205781,부산광역시,129.076744,Public WiFi,051-888-4604,동래구,부산광역시 동래구 온천동 1437-40,부산광역시 동래구 중앙대로1325번길 24,터미널,SKT,교통시설
914,부산광역시,동래시외버스정류소,35.205724,부산광역시,129.076584,Public WiFi,051-888-4604,동래구,부산광역시 동래구 온천동 1437-39,부산광역시 동래구 중앙대로1325번길 24,정류소,KT,교통시설
915,부산광역시,대동병원,35.204244,부산광역시,129.080167,Public WiFi,051-888-4604,동래구,부산광역시 동래구 명륜동 530-1,부산광역시 동래구 충렬대로 187,병원,LGU+,서민·복지시설
916,부산광역시,NH농협은행 명장동지점,35.202531,부산광역시,129.100217,Public WiFi,051-888-4604,동래구,부산광역시 동래구 명장동 63-9,부산광역시 동래구 명장로20번길 90,민원실,KT,기타
917,부산광역시,금강공원,35.219244,부산광역시,129.075671,Public WiFi,051-888-4604,동래구,부산광역시 동래구 온천동 산 27-11,부산광역시 동래구 우장춘로 155,공원,KT,지역문화시설
918,부산광역시,(주)롯데자이언츠,35.191751,부산광역시,129.062339,Public WiFi,051-888-4604,동래구,부산광역시 동래구 사직동 930-1,부산광역시 동래구 사직로 45,사무실,LGU+,지역문화시설
919,부산광역시,황전요양원,35.211531,부산광역시,129.055246,Public WiFi,051-888-4604,동래구,부산광역시 동래구 온천2동 1737,부산광역시 동래구 구만덕로172,요양원,KT,서민·복지시설
920,부산광역시,개금1동주민센터,35.1526863,부산광역시,129.0219201,Public WiFi,051-888-4604,부산진구,부산광역시 부산진구 개금동 503-18번지,부산광역시 부산진구 가야대로454번길 9,민원실,SKT,관공서
921,부산광역시,황전양로원,35.211695,부산광역시,129.054966,Public WiFi,051-888-4604,동래구,부산광역시 동래구 온천2동 1737,부산광역시 동래구 구만덕로172,양로원,KT,서민·복지시설
922,부산광역시,충렬시장,35.198083,부산광역시,129.109981,Public WiFi,051-888-4604,동래구,부산광역시 동래구 안락동 464-21,부산광역시 동래구 충렬대로459번길 73-10,시장,KT,서민·복지시설
923,부산광역시,원광노인요양원,35.221502,부산광역시,129.079864,Public WiFi,051-888-4604,동래구,부산광역시 동래구 온천동 84-37,부산광역시 동래구 금강로145번길17,요양원,KT,서민·복지시설
924,부산광역시,우리집원,35.224178,부산광역시,129.078139,Public WiFi,051-888-4604,동래구,부산광역시 동래구 온천1동 13-2,부산광역시 동래구 우장춘로 208,우리집원,KT,서민·복지시설
925,부산광역시,온천인정시장,35.2222577,부산광역시,129.0830246,Public WiFi,051-888-4604,동래구,부산광역시 동래구 온천동 147-7,부산광역시 동래구 온천장로119번길 44-10,시장,KT,편의시설
926,부산광역시,온천3동사무소,35.204957,부산광역시,129.0663041,Public WiFi,051-888-4604,동래구,부산광역시 동래구 온천동 1246-6,부산광역시 동래구 아시아드대로231번길 21,민원실,KT,관공서
927,부산광역시,온천2동동사무소,35.2079755,부산광역시,129.0729515,Public WiFi,051-888-4604,동래구,부산광역시 동래구 온천동 707-3,부산광역시 동래구 충렬대로107번길 28,민원실,KT,관공서
928,부산광역시,온천1동동사무소,35.2200658,부산광역시,129.0801032,Public WiFi,051-888-4604,동래구,부산광역시 동래구 온천동 221-1,부산광역시 동래구 금강로 127,민원실,KT,관공서
929,부산광역시,온누리복지센터,35.2047763,부산광역시,129.0890594,Public WiFi,051-888-4604,동래구,부산광역시 동래구 복천동 95-3,부산광역시 동래구 동래로159번길 24,센터,KT,서민·복지시설
930,부산광역시,안락시장,35.195484,부산광역시,129.103312,Public WiFi,051-888-4604,동래구,부산광역시 동래구 안락동 603-1,부산광역시 동래구 충렬대로410번길 21,시장,KT,서민·복지시설
931,부산광역시,안락2동주민센터,35.197732,부산광역시,129.110081,Public WiFi,051-888-4604,동래구,부산광역시 동래구 안락2동 464-38,부산광역시 동래구 명안로18번길 103,민원실,SKT,관공서
932,부산광역시,암남공원 주차장,35.0634193,부산광역시,129.0202792,Public WiFi,051-888-4604,서구,부산광역시 서구 암남동 620-12,부산광역시 서구 암남동 620-12,주차장,SKT,관광
933,부산광역시,망미1동 복합청사,35.1734383,부산광역시,129.1049449,Public WiFi,051-888-4604,수영구,부산광역시 수영구 망미동 640-15,부산광역시 수영구 연수로315번길 23(망미동),민원실,LGU+,관공서
934,부산광역시,동산원,35.160614,부산광역시,129.109941,Public WiFi,051-888-4604,수영구,부산광역시 수영구 광안1동 536-44,부산광역시 수영구 광일로 29번길 42,동산원,LGU+,서민·복지시설
935,부산광역시,도영하우스,35.167853,부산광역시,129.110008,Public WiFi,051-888-4604,수영구,부산광역시 수영구 광안동 1041-15,부산광역시 수영구 망미 번영로16번 나길4 (광안동),도영하우스,LGU+,서민·복지시설
936,부산광역시,남천해변시장,35.160599,부산광역시,129.112509,Public WiFi,051-888-4604,수영구,부산광역시 수영구 남천동 556,부산광역시 수영구 광안해변로15번길 77 (남천동),시장,LGU+,서민·복지시설
937,부산광역시,남천역,35.142318,부산광역시,129.108617,Public WiFi,051-888-4604,수영구,부산광역시 수영구 남천동 19,부산광역시 수영구 수영로 408,역사,LGU+,교통시설
938,부산광역시,남천동 도서관,35.1445103,부산광역시,129.1051971,Public WiFi,051-888-4604,수영구,부산광역시 수영구 남천동 489-33,부산광역시 수영구 남천서로 33,도서관,SKT,지역문화시설
939,부산광역시,남천2동 주민센터,35.1438178,부산광역시,129.114759,Public WiFi,051-888-4604,수영구,부산광역시 수영구 남천동 148-75,부산광역시 수영구 광안해변로99(남천동),민원실,LGU+,관공서
940,부산광역시,남천1동 주민센터,35.1426974,부산광역시,129.1103175,Public WiFi,051-888-4604,수영구,부산광역시 수영구 남천동 14-28,부산광역시 수영구 남천동로 13(남천동),민원실,LGU+,관공서
941,부산광역시,남부산우체국,35.145511,부산광역시,129.110301,Public WiFi,051-888-4604,수영구,부산광역시 수영구 남천1동 27-4번지,부산광역시 수영구 수영로 448,민원실,KT,관공서
942,부산광역시,금련산청소년수련원,35.154551,부산광역시,129.101869,Public WiFi,051-888-4604,수영구,부산광역시 수영구 광안4동 산60-3,부산광역시 수영구 황령산로 156,수련원,SKT,서민·복지시설
943,부산광역시,광안어패류시장,35.155495,부산광역시,129.124623,Public WiFi,051-888-4604,수영구,부산광역시 수영구 민락동 181-72번지,부산광역시 수영구 민락동 181-72,시장,SKT,관광
944,부산광역시,광안4동주민센터,35.1550556,부산광역시,129.1114095,Public WiFi,051-888-4604,수영구,부산광역시 수영구 광안동 773-8,부산광역시 수영구 호암로9번길 34,민원실,SKT,관공서
945,부산광역시,광안3동주민센터,35.1679043,부산광역시,129.1135766,Public WiFi,051-888-4604,수영구,부산광역시 수영구 광안동 1070-3,부산광역시 수영구 망미번영로38번길 103,민원실,SKT,관공서
946,부산광역시,광안2동주민센터,35.1556707,부산광역시,129.1137603,Public WiFi,051-888-4604,수영구,부산광역시 수영구 광안동 509-19,부산광역시 수영구 광안로16번길 22,민원실,SKT,관공서
947,부산광역시,광안1동주민센터,35.1629056,부산광역시,129.1124947,Public WiFi,051-888-4604,수영구,부산광역시 수영구 광안동 494-1,부산광역시 수영구 광일로14번길 17 (광안동),민원실,SKT,관공서
948,부산광역시,광안리해수욕장,35.154949,부산광역시,129.133841,Dynamic Busan,051-888-4604,수영구,부산광역시 수영구 민락동 110-19,부산광역시 수영구 민락수변로 125,수변공원끝부분,부산광역시,관광
949,부산광역시,광안리해수욕장,35.153979,부산광역시,129.131236,Dynamic Busan,051-888-4604,수영구,부산광역시 수영구 민락동 113-53,부산광역시 수영구 민락동 113-53,부산시수협방파제,부산광역시,관광
950,부산광역시,광안리해수욕장,35.159491,부산광역시,129.124001,Dynamic Busan,051-888-4604,수영구,부산광역시 수영구 민락동 181-223,부산광역시 수영구 수변로 29,씨사이드웨딩홀 앞,부산광역시,관광
951,부산광역시,광안리해수욕장,35.156367,부산광역시,129.122167,Dynamic Busan,051-888-4604,수영구,부산광역시 수영구 민락동 177-8,부산광역시 수영구 광안해변로 259,엘모텔 GS25앞,부산광역시,관광
952,부산광역시,광안리해수욕장,35.146059,부산광역시,129.117613,Dynamic Busan,051-888-4604,수영구,부산광역시 수영구 남천동 148-6,부산광역시 수영구 남천동 148-6,삼익비치타운301동 앞,부산광역시,관광
953,부산광역시,광안리해수욕장,35.146116,부산광역시,129.114781,Dynamic Busan,051-888-4604,수영구,부산광역시 수영구 남천동 147-2,부산광역시 수영구 광안해변로54번길 222,광남초등학교 앞,부산광역시,관광
954,부산광역시,광안리해수욕장,35.153144,부산광역시,129.118661,Dynamic Busan,051-888-4604,수영구,부산광역시 수영구 광안동 200-1,부산광역시 수영구 광안해변로 183,게스후레스토랑 앞,부산광역시,관광
955,부산광역시,구덕문화공원,35.1264082,부산광역시,129.0052635,Public WiFi,051-888-4604,서구,부산광역시 서구 서대신동3가 산 18-15,부산광역시 서구 꽃마을로163번길 73,광장,SKT,관광
956,부산광역시,충무동 주민센터,35.098025,부산광역시,129.021635,Public WiFi,051-888-4604,서구,부산광역시 서구 토성동5가 22-11,부산광역시 서구 구덕로148번길 16,민원실,LGU+,관공서
957,부산광역시,초장동 주민센터,35.095977,부산광역시,129.020293,Public WiFi,051-888-4604,서구,부산광역시 서구 초장동 75-483,부산광역시 서구 초장로27번길 32,민원실,LGU+,관공서
958,부산광역시,안락2동동사무소,35.1977135,부산광역시,129.1100612,Public WiFi,051-888-4604,동래구,부산광역시 동래구 안락동 464-38,부산광역시 동래구 명안로18번길 103,민원실,KT,관공서
959,부산광역시,안락1동동사무소,35.1970549,부산광역시,129.0985668,Public WiFi,051-888-4604,동래구,부산광역시 동래구 안락동 433-24,부산광역시 동래구 안연로110번길 9,민원실,KT,관공서
960,부산광역시,신세계요양병원,35.2156767,부산광역시,129.0797061,Public WiFi,051-888-4604,동래구,부산광역시 동래구 온천동 449-6,부산광역시 동래구 온천장로 40,병원,LGU+,서민·복지시설
961,부산광역시,신라직업재활시설,35.2065326,부산광역시,129.0625082,Public WiFi,051-888-4604,동래구,부산광역시 동래구 온천동 1202-7,부산광역시 동래구 쇠미로 179,시설,SKT,서민·복지시설
962,부산광역시,수안역,35.201835,부산광역시,129.083804,Public WiFi,051-888-4604,동래구,부산광역시 동래구 수안동204-2,부산광역시 동래구 충렬대로 223,역사,LGU+,교통시설
963,부산광역시,수민동사무소,35.1960319,부산광역시,129.0910345,Public WiFi,051-888-4604,동래구,부산광역시 동래구 낙민동 135-10,부산광역시 동래구 온천천로339번길 48,민원실,KT,관공서
964,부산광역시,성지노인요양원,35.2017557,부산광역시,129.0633365,Public WiFi,051-888-4604,동래구,부산광역시 동래구 사직동 22-32번지,부산광역시 동래구 석사북로 40-1,요양원,KT,서민·복지시설
965,부산광역시,서원시장,35.2003971,부산광역시,129.0990175,Public WiFi,051-888-4604,동래구,부산광역시 동래구 안락동 425-51,부산광역시 동래구 충렬대로359번길 55,시장,KT,편의시설
966,부산광역시,새들원,35.213345,부산광역시,129.064374,Public WiFi,051-888-4604,동래구,부산광역시 동래구 온천동 산 75-3,부산광역시 동래구 금정마을로83,새들원,KT,서민·복지시설
967,부산광역시,상락정연화홈,35.213182,부산광역시,129.0844783,Public WiFi,051-888-4604,동래구,부산광역시 동래구 명륜동 72-4번지,부산광역시 동래구 명륜로 218번길 23,연화홈,KT,서민·복지시설
968,부산광역시,사직종합사회복지관,35.2004476,부산광역시,129.0561317,Public WiFi,051-888-4604,동래구,부산광역시 동래구 사직2동 594-8번지,부산광역시 동래구 사직북로 77,복지관,SKT,서민·복지시설
969,부산광역시,사직3동동사무소,35.1994595,부산광역시,129.0694541,Public WiFi,051-888-4604,동래구,부산광역시 동래구 사직동 123-23,부산광역시 동래구 아시아드대로154번길 79,민원실,KT,관공서
970,부산광역시,사직2동동사무소,35.2002328,부산광역시,129.0569242,Public WiFi,051-888-4604,동래구,부산광역시 동래구 사직동 29-2,부산광역시 동래구 사직북로 69,민원실,KT,관공서
971,부산광역시,사직1동동사무소,35.1989775,부산광역시,129.0619357,Public WiFi,051-888-4604,동래구,부산광역시 동래구 사직동 50-16,부산광역시 동래구 석사로 19,민원실,KT,관공서
972,부산광역시,부산해양자연사박물관,35.2219917,부산광역시,129.0758813,Public WiFi,051-888-4604,동래구,부산광역시 동래구 온천1동 산13-1,부산광역시 동래구 우장춘로 175,박물관,KT,지역문화시설
973,부산광역시,부산장애인직업재활시설,35.1961602,부산광역시,129.0645206,Public WiFi,051-888-4604,동래구,부산광역시 동래구 사직동 98-7,부산광역시 동래구 사직로 11,시설,KT,서민·복지시설
974,부산광역시,복산동동사무소,35.2058204,부산광역시,129.0860036,Public WiFi,051-888-4604,동래구,부산광역시 동래구 복천동 462-2,부산광역시 동래구 복천로 1,민원실,KT,관공서
975,부산광역시,보금자리,35.201582,부산광역시,129.059611,Public WiFi,051-888-4604,동래구,부산광역시 동래구 사직2동 634-3 2층,부산광역시 동래구 사직북로50번길49,보금자리,KT,서민·복지시설
976,부산광역시,명장2동동사무소,35.2076632,부산광역시,129.1018092,Public WiFi,051-888-4604,동래구,부산광역시 동래구 명장동 326-4,부산광역시 동래구 명서로 168,민원실,KT,관공서
977,부산광역시,명장1동동사무소,35.2047716,부산광역시,129.1042683,Public WiFi,051-888-4604,동래구,부산광역시 동래구 명장동 133-5,부산광역시 동래구 명장로 32,민원실,KT,관공서
978,부산광역시,명륜동동사무소,35.2145509,부산광역시,129.0821725,Public WiFi,051-888-4604,동래구,부산광역시 동래구 명륜동 700-20,부산광역시 동래구 동래로57번길 88,민원실,KT,관공서
979,부산광역시,동래종합사회복지관,35.2110107,부산광역시,129.0984318,Public WiFi,051-888-4604,동래구,부산광역시 동래구 명장동 508-72,부산광역시 동래구 시실로107번길 151,복지관,KT,서민·복지시설
980,부산광역시,동래종합사회복지관,35.2110107,부산광역시,129.0984318,Public WiFi,051-888-4604,동래구,부산광역시 동래구 명장2동 508-72번지,부산광역시 동래구 시실로107번길 151,복지관,LGU+,서민·복지시설
981,부산광역시,동래역,35.205641,부산광역시,129.078495,Public WiFi,051-888-4604,동래구,부산광역시 동래구 온천동 527,부산광역시 동래구 중앙대로 1324,역사,LGU+,교통시설
982,부산광역시,동래보훈회관,35.1958651,부산광역시,129.0875417,Public WiFi,051-888-4604,동래구,부산광역시 동래구 수안동 39-35,부산광역시 동래구 수안로 16,회관,KT,서민·복지시설
983,부산광역시,동래보건소,35.211408,부산광역시,129.079856,Public WiFi,051-888-4604,동래구,부산광역시 동래구 명륜동 702-54,부산광역시 동래구 명륜로187번길 56,민원실,SKT,서민·복지시설
984,부산광역시,동래보건소,35.2114415,부산광역시,129.0798777,Public WiFi,051-888-4604,동래구,부산광역시 동래구 명륜동 702-54,부산광역시 동래구 명륜로187번길 56,민원실,KT,서민·복지시설
985,부산광역시,동래문화회관,35.212071,부산광역시,129.090388,Public WiFi,051-888-4604,동래구,부산광역시 동래구 명륜2동 137,부산광역시 동래구 문화로 80,지하1층,SKT,지역문화시설
986,부산광역시,동래문화회관,35.212071,부산광역시,129.090388,Public WiFi,051-888-4604,동래구,부산광역시 동래구 명륜2동 137,부산광역시 동래구 문화로 80,2층,SKT,지역문화시설
987,부산광역시,구덕청소년수련관,35.1252393,부산광역시,129.0106974,Public WiFi,051-888-4604,서구,부산광역시 서구 서대신동3가 750번지,부산광역시 서구 꽃마을로156번길 109,수련관,LGU+,서민·복지시설
988,부산광역시,구덕운동장,35.1161447,부산광역시,129.015032,Public WiFi,051-888-4604,서구,부산광역시 서구 서대신동3가 210-1,부산광역시 서구 망양로 57,실내체육관,SKT,지역문화시설
989,부산광역시,구덕운동장,35.1162056,부산광역시,129.015218,Public WiFi,051-888-4604,서구,부산광역시 서구 서대신동3가 210,부산광역시 서구 망양로 57,주경기장,SKT,지역문화시설
990,부산광역시,구덕운동장,35.1162056,부산광역시,129.015218,Public WiFi,051-888-4604,서구,부산광역시 서구 서대신동3가 210,부산광역시 서구 망양로 57,야구장,SKT,지역문화시설
991,부산광역시,구덕도서관,35.1217054,부산광역시,129.0170745,Public WiFi,051-888-4604,서구,부산광역시 서구 서대신동3가 산2-3,부산광역시 서구 대신공원로 41,도서관,KT,지역문화시설
992,부산광역시,송도해수욕장,35.076154,부산광역시,129.022793,Dynamic Busan,051-888-4604,서구,부산광역시 서구 암남동 135-5,부산광역시 서구 송도해변로 50,송도해양레포츠센터,부산광역시,관광
993,부산광역시,송도해수욕장,35.077773,부산광역시,129.021608,Dynamic Busan,051-888-4604,서구,부산광역시 서구 암남동 135-2,부산광역시 서구 암남동 135-2,거북섬입구,부산광역시,관광
994,부산광역시,송도해수욕장,35.075448,부산광역시,129.016759,Dynamic Busan,051-888-4604,서구,부산광역시 서구 암남동 135-5,부산광역시 서구 송도해변로 100,임해봉사실,부산광역시,관광
995,부산광역시,송도해수욕장,35.077201,부산광역시,129.018067,Dynamic Busan,051-888-4604,서구,부산광역시 서구 암남동 135-1,부산광역시 서구 송도해변로 140,기린모텔앞가로등,부산광역시,관광
996,부산광역시,농협 승학지점(괴정동),35.098993,부산광역시,128.989447,Public WiFi,051-888-4604,사하구,부산광역시 사하구 괴정동 744-3,부산광역시 사하구 낙동대로 251,민원실,SKT,기타
997,부산광역시,부산은행 을숙도,35.115659,부산광역시,128.960509,Public WiFi,051-888-4604,사하구,부산광역시 사하구 하단동 1160-5,부산광역시 사하구 하신번영로 387,민원실,SKT,기타
998,부산광역시,서부산농협 구평지점,35.072736,부산광역시,128.983119,Public WiFi,051-888-4604,사하구,부산광역시 사하구 구평동 435-231,부산광역시 사하구 두송로 142,민원실,KT,기타
999,부산광역시,서부산농협 감천지점,35.090032,부산광역시,129.005741,Public WiFi,051-888-4604,사하구,부산광역시 사하구 감천동 547-7,부산광역시 사하구 옥천로 27,민원실,KT,기타
1000,부산광역시,낙동강하구에코센터,35.104501,부산광역시,128.945994,Public WiFi,051-888-4604,사하구,부산광역시 사하구 하단동 1207-2,부산광역시 사하구 낙동남로 1240,센터,SKT,지역문화시설
1001,부산광역시,감천문화마을 작은박물관앞,35.097971,부산광역시,129.010454,Public WiFi,051-888-4604,사하구,부산광역시 사하구 감천동 1-5,부산광역시 사하구 감내2로 191,박물관,SKT,지역문화시설
1002,부산광역시,형제복지지원재단,35.0738678,부산광역시,128.976877,Public WiFi,051-888-4604,사하구,부산광역시 사하구 장림2동 380-2,부산광역시 사하구 다대로 317,재단,LGU+,관공서
1003,부산광역시,헌혈의집 하단센터,35.1129401,부산광역시,128.9661993,Public WiFi,051-888-4604,사하구,부산광역시 사하구 하단2동 494-3,부산광역시 사하구 낙동대로516번길 48,센터,SKT,기타
1004,부산광역시,해양경찰정비창(부산),35.051404,부산광역시,128.979728,Public WiFi,051-888-4604,사하구,부산광역시 사하구 다대동 375,부산광역시 사하구 다대로605번길 93,민원실,KT,관공서
1005,부산광역시,하단2동주민센터,35.1146068,부산광역시,128.9605219,Public WiFi,051-888-4604,사하구,부산광역시 사하구 하단1동 1161-3,부산광역시 사하구 하신번영로 377,민원실,SKT,관공서
1006,부산광역시,하단1동주민센터,35.1023037,부산광역시,128.9610914,Public WiFi,051-888-4604,사하구,부산광역시 사하구 하단1동 571-2,부산광역시 사하구 하신중앙로 266,민원실,SKT,관공서
1007,부산광역시,장림시장,35.0807605,부산광역시,128.9678761,Public WiFi,051-888-4604,사하구,부산광역시 사하구 장림1동 792-7번지,부산광역시 사하구 장림번영로 22,시장,LGU+,서민·복지시설
1008,부산광역시,장림2동주민센터,35.0778649,부산광역시,128.9726159,Public WiFi,051-888-4604,사하구,부산광역시 사하구 장림2동 601,부산광역시 사하구 장평로 131,민원실,SKT,관공서
1009,부산광역시,장림1동주민센터,35.0830111,부산광역시,128.9668954,Public WiFi,051-888-4604,사하구,부산광역시 사하구 장림동 1140,부산광역시 사하구 장림로161번길 2,민원실,SKT,관공서
1010,부산광역시,장림1동주민센터,35.078372,부산광역시,128.969919,Public WiFi,051-888-4604,사하구,부산광역시 사하구 장림동 1140,부산광역시 사하구 장림로161번길 2,문화교실,LGU+,관공서
1011,부산광역시,자매정신요양원,35.1033357,부산광역시,128.9984146,Public WiFi,051-888-4604,사하구,부산광역시 사하구 괴정3동 245,부산광역시 사하구 사리로 37,요양원,KT,서민·복지시설
1012,부산광역시,을숙도전시관,35.1094769,부산광역시,128.9448753,Public WiFi,051-888-4604,사하구,부산광역시 사하구 하단2동 1151-14,부산광역시 사하구 낙동남로1233번길 25,소강당,LGU+,지역문화시설
1013,부산광역시,을숙도전시관,35.1094769,부산광역시,128.9448753,Public WiFi,051-888-4604,사하구,부산광역시 사하구 하단2동 1151-14,부산광역시 사하구 낙동남로1233번길 25,대강당,LGU+,지역문화시설
1014,부산광역시,을숙도전시관,35.1094769,부산광역시,128.9448753,Public WiFi,051-888-4604,사하구,부산광역시 사하구 하단2동 1151-14,부산광역시 사하구 낙동남로1233번길 25,관리동,LGU+,지역문화시설
1015,부산광역시,신평2동주민센터,35.0946795,부산광역시,128.9594496,Public WiFi,051-888-4604,사하구,부산광역시 사하구 신평2동 647-1,부산광역시 사하구 하신번영로 137,민원실,SKT,관공서
1016,부산광역시,신평1동주민센터,35.0900294,부산광역시,128.9744753,Public WiFi,051-888-4604,사하구,부산광역시 사하구 신평2동 544-1,부산광역시 사하구 신산로 173,민원실,SKT,관공서
1017,부산광역시,신평1동주민센터,35.090082,부산광역시,128.974371,Public WiFi,051-888-4604,사하구,부산광역시 사하구 신평동 544-1,부산광역시 사하구 신산로 173,동대(주민자치),LGU+,관공서
1018,부산광역시,사하사랑채노인복지관,35.103001,부산광역시,128.998749,Public WiFi,051-888-4604,사하구,부산광역시 사하구 괴정동 284-1,부산광역시 사하구 사리로 37,복지관,SKT,서민·복지시설
1019,부산광역시,사하두바퀴장애인자립생활센터,35.0945931,부산광역시,128.9598874,Public WiFi,051-888-4604,사하구,부산광역시 사하구 신평2동 647-3,부산광역시 사하구 하신번영로 135,센터,SKT,서민·복지시설
1020,부산광역시,사하도서관,35.1030899,부산광역시,128.9913128,Public WiFi,051-888-4604,사하구,부산광역시 사하구 괴정동 1040-31,부산광역시 사하구 승학로 247,도서관,KT,지역문화시설
1021,부산광역시,사하구청,35.105151,부산광역시,128.974591,Public WiFi,051-888-4604,사하구,부산광역시 사하구 당리동 317,부산광역시 사하구 승학로 58,민원실,KT,관공서
1022,부산광역시,사하구종합사회복지관,35.094477,부산광역시,129.007815,Public WiFi,051-888-4604,사하구,부산광역시 사하구 감천2동 12-278,부산광역시 사하구 감내2로 21,복지관,SKT,서민·복지시설
1023,부산광역시,사하구장애인복지관,35.0855069,부산광역시,128.9931039,Public WiFi,051-888-4604,사하구,부산광역시 사하구 구평동 43,부산광역시 사하구 사하로68번길 65,복지관,SKT,서민·복지시설
1024,부산광역시,사하구보건소,35.0943432,부산광역시,128.9594263,Public WiFi,051-888-4604,사하구,부산광역시 사하구 신평2동 647-5번지,부산광역시 사하구 하신번영로127번길 2,민원실,LGU+,서민·복지시설
1025,부산광역시,빅월드 사업부,35.0738678,부산광역시,128.976877,Public WiFi,051-888-4604,사하구,부산광역시 사하구 장림2동 380-2,부산광역시 사하구 다대로 317,빅월드사업부,LGU+,기타
1026,부산광역시,부산사하우체국,35.101123,부산광역시,128.9797481,Public WiFi,051-888-4604,사하구,부산광역시 사하구 당리동 481-1,부산광역시 사하구 낙동대로 346,민원실,KT,관공서
1027,부산광역시,몰운대종합사회복지관,35.0510926,부산광역시,128.9635696,Public WiFi,051-888-4604,사하구,부산광역시 사하구 다대동 1548-12,부산광역시 사하구 다대낙조 2길 15,복지관,KT,서민·복지시설
1028,부산광역시,마리아마을,35.0841264,부산광역시,128.9805812,Public WiFi,051-888-4604,사하구,부산광역시 사하구 장림2동 86-2번지,부산광역시 사하구 장림로 298,마리아마을,LGU+,서민·복지시설
1029,부산광역시,두송종합사회복지관(다대2동),35.062233,부산광역시,128.985434,Public WiFi,051-888-4604,사하구,부산광역시 사하구 다대2동 96-1,부산광역시 사하구 다송로 59 다대4지구도개공영구임대아파트,복지관,SKT,서민·복지시설
1030,부산광역시,동산요양병원,35.1007568,부산광역시,128.9932002,Public WiFi,051-888-4604,사하구,부산광역시 사하구 괴정3동 1003-0,부산광역시 사하구 낙동대로216번길 10,병원,LGU+,서민·복지시설
1031,부산광역시,다대1동 주민센터,35.058554,부산광역시,128.9743974,Public WiFi,051-888-4604,사하구,부산광역시 사하구 다대1동 235,부산광역시 사하구 다대동로 83-1,민원실,SKT,관공서
1032,부산광역시,기술보증기금(사하구),35.0895017,부산광역시,128.9733557,Public WiFi,051-888-4604,사하구,부산광역시 사하구 신평1동 545,부산광역시 사하구 장평로 262,민원실,LGU+,관공서
1033,부산광역시,구평동사무소,35.0818547,부산광역시,128.9874493,Public WiFi,051-888-4604,사하구,부산광역시 사하구 구평동 159,부산광역시 사하구 구평동 159,컴퓨터학습장,SKT,관공서
1034,부산광역시,구평동 주민센터,35.0938796,부산광역시,129.0087894,Public WiFi,051-888-4604,사하구,부산광역시 사하구 감천2동 13-13,부산광역시 사하구 옥천로5번길 17,민원실,SKT,관공서
1035,부산광역시,구평동 주민센터,35.0819117,부산광역시,128.9878133,Public WiFi,051-888-4604,사하구,부산광역시 사하구 구평동 159-1,부산광역시 사하구 서포로 48,민원실,LGU+,관공서
1036,부산광역시,괴정4동 주민센터,35.099145,부산광역시,128.983164,Public WiFi,051-888-4604,사하구,부산광역시 사하구 괴정4동 571-2,부산광역시 사하구 낙동대로30번길 9,민원실,SKT,관공서
1037,부산광역시,괴정3동주민센터,35.1003126,부산광역시,128.9980668,Public WiFi,051-888-4604,사하구,부산광역시 사하구 괴정동 404-2,부산광역시 사하구 낙동대로171번길 30-5 (괴정동),민원실,SKT,관공서
1038,부산광역시,괴정2동주민센터,35.103391,부산광역시,129.0040197,Public WiFi,051-888-4604,사하구,부산광역시 사하구 괴정2동 354-22번지,부산광역시 사하구 까치고개로 14-1,민원실,LGU+,관공서
1039,부산광역시,괴정1동주민센터,35.0996941,부산광역시,128.9893536,Public WiFi,051-888-4604,사하구,부산광역시 사하구 괴정1동 820-3,부산광역시 사하구 낙동대로 250,민원실,SKT,관공서
1040,부산광역시,감천횃불작은도서관,35.0909546,부산광역시,129.0074519,Public WiFi,051-888-4604,사하구,부산광역시 사하구 감천2동 16-1023번지,부산광역시 사하구 옥천로 48-5,도서관,LGU+,지역문화시설
1041,부산광역시,감천재래시장,35.0882595,부산광역시,129.0055555,Public WiFi,051-888-4604,사하구,부산광역시 사하구 감천1동 471,부산광역시 사하구 옥천로 8,시장,SKT,서민·복지시설
1042,부산광역시,감천2동시장,35.0938796,부산광역시,129.0087894,Public WiFi,051-888-4604,사하구,부산광역시 사하구 감천2동 13-13,부산광역시 사하구 옥천로5번길 17,시장,SKT,서민·복지시설
1043,부산광역시,감천2동 주민센터,35.0945947,부산광역시,129.0093312,Public WiFi,051-888-4604,사하구,부산광역시 사하구 감천동 12-9,부산광역시 사하구 옥천로93번길 14,민원실,LGU+,관공서
1044,부산광역시,주례자동차검사소,35.1451019,부산광역시,128.9945226,Public WiFi,051-888-4604,사상구,부산광역시 사상구 주례동 1287,부산광역시 사상구 학장로 256,검사소,LGU+,관공서
1045,부산광역시,감천1동주민센터,35.0882595,부산광역시,129.0055555,Public WiFi,051-888-4604,사하구,부산광역시 사하구 감천1동 471,부산광역시 사하구 옥천로 8,민원실,SKT,관공서
1046,부산광역시,감내꿈나무센터,35.097951,부산광역시,129.009569,Public WiFi,051-888-4604,사하구,부산광역시 사하구 감천동 7,부산광역시 사하구 감내1로 234,센터,SKT,서민·복지시설
1047,부산광역시,(주)청산장례식장,35.0802511,부산광역시,128.9619395,Public WiFi,051-888-4604,사하구,부산광역시 사하구 장림1동 990-2,부산광역시 사하구 하신중앙로17번길 25,장례식장,LGU+,서민·복지시설
1048,부산광역시,을숙도문화회관,35.109888,부산광역시,128.944802,Dynamic Busan,051-888-4604,사하구,부산광역시 사하구 하단동 1151-14,부산광역시 사하구 낙동남로1233번길 25,본관,부산광역시,지역문화시설
1049,부산광역시,다대포해수욕장,35.047162,부산광역시,128.968126,Dynamic Busan,051-888-4604,사하구,부산광역시 사하구 다대동,부산광역시 사하구 몰운대1길 11,해변공원관리센터,부산광역시,관광
1050,부산광역시,부산은행 학장동지점,35.138217,부산광역시,128.978539,Public WiFi,051-888-4604,사상구,부산광역시 사상구 학장동 573-1,부산광역시 사상구 대동로 98,민원실,SKT,기타
1051,부산광역시,부산은행 감전동지점,35.155249,부산광역시,128.983423,Public WiFi,051-888-4604,사상구,부산광역시 사상구 감전동 131-30,부산광역시 사상구 새벽로 160,민원실,SKT,기타
1052,부산광역시,부산서부버스터미널,35.163225,부산광역시,128.982473,Public WiFi,051-888-4604,사상구,부산광역시 사상구 괘법동 533-1,부산광역시 사상구 사상로 201,터미널,LGU+,교통시설
1053,부산광역시,희망 지역아동센터,35.1694408,부산광역시,128.9822282,Public WiFi,051-888-4604,사상구,부산광역시 사상구 덕포동 428-8,부산광역시 사상구 사상로 275 (덕포동),센터,SKT,관공서
1054,부산광역시,학장지구대,35.142628,부산광역시,128.9837412,Public WiFi,051-888-4604,사상구,부산광역시 사상구 학장동 237-10,부산광역시 사상구 대동로 169,민원실,KT,관공서
1055,부산광역시,학장종합사회복지관,35.1382244,부산광역시,128.9894899,Public WiFi,051-888-4604,사상구,부산광역시 사상구 학장동 168-7,부산광역시 사상구 학감대로49번길 28-70,복지관,LGU+,서민·복지시설
1056,부산광역시,학장동주민센터,35.1441201,부산광역시,128.987266,Public WiFi,051-888-4604,사상구,부산광역시 사상구 학장동 386-1,부산광역시 사상구 학감대로147번길 11,민원실,SKT,관공서
1057,부산광역시,학장 새밭마을 행복학습센터,35.1395812,부산광역시,128.978589,Public WiFi,051-888-4604,사상구,부산광역시 사상구 학장동 585-47,부산광역시 사상구 대동로159번길 105,센터,SKT,지역문화시설
1058,부산광역시,주례역,35.150309,부산광역시,129.003587,Public WiFi,051-888-4604,사상구,부산광역시 사상구 주례3동 1163,부산광역시 사상구 가야대로 284,역사,LGU+,교통시설
1059,부산광역시,주례보훈병원,35.149761,부산광역시,129.0043516,Public WiFi,051-888-4604,사상구,부산광역시 사상구 주례동 235,부산광역시 사상구 백양대로 420,병원,SKT,서민·복지시설
1060,부산광역시,주례3동주민센터,35.1473312,부산광역시,129.001419,Public WiFi,051-888-4604,사상구,부산광역시 사상구 주례동 595-3,부산광역시 사상구 냉정로 10,민원실,SKT,관공서
1061,부산광역시,주례2동주민센터,35.1500924,부산광역시,129.0105004,Public WiFi,051-888-4604,사상구,부산광역시 사상구 주례2동 154-1,부산광역시 사상구 주례로10번길 15,민원실,SKT,관공서
1062,부산광역시,주례1동주민센터,35.1516665,부산광역시,128.9979533,Public WiFi,051-888-4604,사상구,부산광역시 사상구 주례1동 720-12,부산광역시 사상구 사상로 22,민원실,SKT,관공서
1063,부산광역시,주례 지역아동센터,35.1489908,부산광역시,129.0078629,Public WiFi,051-888-4604,사상구,부산광역시 사상구 주례동 110,"부산광역시 사상구 냉정로 72 (주례동, 명신산업)",센터,SKT,관공서
1064,부산광역시,주례 온골마을 행복학습센터,35.1534268,부산광역시,128.9970476,Public WiFi,051-888-4604,사상구,부산광역시 사상구 주례동 870,부산광역시 사상구 백양대로445번길 124-5 (주례동),센터,SKT,지역문화시설
1065,부산광역시,영재의료재단큰솔병원,35.1406374,부산광역시,128.9825563,Public WiFi,051-888-4604,사상구,부산광역시 사상구 학장동 574-1번지,부산광역시 사상구 대동로 141,병원,LGU+,서민·복지시설
1066,부산광역시,엄궁복지센터,35.1274187,부산광역시,128.9720726,Public WiFi,051-888-4604,사상구,부산광역시 사상구 엄궁동 437-5,부산광역시 사상구 엄궁북로4번길 41(엄궁동),사랑채,SKT,서민·복지시설
1067,부산광역시,엄궁동주민센터,35.1287251,부산광역시,128.9722103,Public WiFi,051-888-4604,사상구,부산광역시 사상구 엄궁동 618-31,부산광역시 사상구 엄궁북로 15,민원실,SKT,관공서
1068,부산광역시,동래문화회관,35.212071,부산광역시,129.090388,Public WiFi,051-888-4604,동래구,부산광역시 동래구 명륜2동 137,부산광역시 동래구 문화로 80,1층,SKT,지역문화시설
1069,부산광역시,동래구청,35.2050439,부산광역시,129.0837097,Public WiFi,051-888-4604,동래구,부산광역시 동래구 복천동 381,부산광역시 동래구 명륜로94번길 55,민원실,SKT,관공서
1070,부산광역시,동래구청,35.2050439,부산광역시,129.0837097,Public WiFi,051-888-4604,동래구,부산광역시 동래구 복천동 381,부산광역시 동래구 명륜로94번길 55,민원실,KT,관공서
1071,부산광역시,동래구읍성도서관,35.2068301,부산광역시,129.0949275,Public WiFi,051-888-4604,동래구,부산광역시 동래구 칠산동 20-4,부산광역시 동래구 동래로159번길 154,도서관,LGU+,지역문화시설
1072,부산광역시,동래구노인복지관,35.2123855,부산광역시,129.0819483,Public WiFi,051-888-4604,동래구,부산광역시 동래구 명륜동 700-199,부산광역시 동래구 명륜로207번길18,복지관,KT,서민·복지시설
1073,부산광역시,금강시장,35.2016172,부산광역시,129.068554,Public WiFi,051-888-4604,동래구,부산광역시 동래구 온천동 1376-7,부산광역시 동래구 아시아드대로208번길 48,시장,KT,편의시설
1074,부산광역시,국민시장,35.1983903,부산광역시,129.0582402,Public WiFi,051-888-4604,동래구,부산광역시 동래구 사직동 44-1,부산광역시 동래구 사직북로33번길 31,시장,KT,편의시설
1075,부산광역시,부산종합운동장,35.194861,부산광역시,129.060993,Dynamic Busan,051-888-4604,동래구,부산광역시 동래구 사직동 930-2,부산광역시 동래구 사직로 45,사직운동장광장,부산광역시,지역문화시설
1076,부산광역시,부산종합운동장,35.191784,부산광역시,129.060861,Dynamic Busan,051-888-4604,동래구,부산광역시 동래구 사직동 930-2,부산광역시 동래구 사직로 45,실내체육관,부산광역시,지역문화시설
1077,부산광역시,한국감정원,35.124341,부산광역시,129.045131,Public WiFi,051-888-4604,동구,부산광역시 동구 초량동 1157-5,부산광역시 동구 중앙대로 314,감정원,LGU+,기타
1078,부산광역시,조선통신사역사관(범일동),35.135559,부산광역시,129.061782,Public WiFi,051-888-4604,동구,부산광역시 동구 범일동 380-4,부산광역시 동구 자성로 99,역사관,SKT,지역문화시설
1079,부산광역시,부산시민회관,35.138778,부산광역시,129.065255,Public WiFi,051-888-4604,동구,부산광역시 동구 범일동 830-31,부산광역시 동구 자성로133번길 16,시민회관,KT,지역문화시설
1080,부산광역시,부산광역시 동구도서관,35.138051,부산광역시,129.052475,Public WiFi,051-888-4604,동구,부산광역시 동구 범일동 산 81-28,부산광역시 동구 성북로36번길 54,도서관,SKT,지역문화시설
1081,부산광역시,부산YWCA(여자기독교청년회),35.123135,부산광역시,129.044377,Public WiFi,051-888-4604,동구,부산광역시 동구 초량동 1158-7,부산광역시 동구 중앙대로 298,YWCA,LGU+,기타
1082,부산광역시,한국교직원공제회관,35.1143454,부산광역시,129.0397411,Public WiFi,051-888-4604,동구,부산광역시 동구 초량1동 1205-1,부산광역시 동구 중앙대로 192,회관,SKT,관공서
1083,부산광역시,초량6동 주민센터,35.1199709,부산광역시,129.0345616,Public WiFi,051-888-4604,동구,부산광역시 동구 초량동 824-122,부산광역시 동구 초량로 75,민원실,KT,관공서
1084,부산광역시,초량3동 주민센터,35.1213921,부산광역시,129.039866,Public WiFi,051-888-4604,동구,부산광역시 동구 초량동 110-1,부산광역시 동구 초량상로 112,민원실,KT,관공서
1085,부산광역시,초량2동 주민센터,35.116545,부산광역시,129.038482,Public WiFi,051-888-4604,동구,부산광역시 동구 초량동 444-1,부산광역시 동구 중앙대로209번길 30,민원실,LGU+,관공서
1086,부산광역시,초량1동 주민센터,35.113894,부산광역시,129.036977,Public WiFi,051-888-4604,동구,부산광역시 동구 초량동 592-13,부산광역시 동구 중앙대로179번길 33,민원실,LGU+,관공서
1087,부산광역시,참일터직업재활원,35.1179733,부산광역시,129.042957,Public WiFi,051-888-4604,동구,부산광역시 동구 초량동 1195-7,부산광역시 동구 중앙대로236번길 13-5,재활원,KT,서민·복지시설
1088,부산광역시,좌천1동 주민센터,35.133304,부산광역시,129.050999,Public WiFi,051-888-4604,동구,부산광역시 동구 좌천동 684-5,부산광역시 동구 좌천남로 19,민원실,LGU+,관공서
1089,부산광역시,자유도매시장,35.141013,부산광역시,129.061123,Public WiFi,051-888-4604,동구,부산광역시 동구 범일동 830-24,부산광역시 동구 조방로 48,시장,LGU+,서민·복지시설
1090,부산광역시,자성대노인복지관,35.1355563,부산광역시,129.0648552,Public WiFi,051-888-4604,동구,부산광역시 동구 범일동 825-88,부산광역시 동구 자성로140번길32,복지관,SKT,서민·복지시설
1091,부산광역시,수정5동 주민센터,35.1277359,부산광역시,129.0467778,Public WiFi,051-888-4604,동구,부산광역시 동구 수정5동 29,부산광역시 동구 망양로795번길 2,민원실,SKT,관공서
1092,부산광역시,수정4동 주민센터,35.127115,부산광역시,129.040727,Public WiFi,051-888-4604,동구,부산광역시 동구 수정동 1172-2,부산광역시 동구 망양로685번길 2,민원실,LGU+,관공서
1093,부산광역시,수정2동 주민센터,35.130679,부산광역시,129.042857,Public WiFi,051-888-4604,동구,부산광역시 동구 수정동 795-35,부산광역시 동구 수정중로11번길 23,민원실,LGU+,관공서
1094,부산광역시,수정1동 주민센터,35.125396,부산광역시,129.042279,Public WiFi,051-888-4604,동구,부산광역시 동구 수정동 1011-126,부산광역시 동구 홍곡로 71,민원실,LGU+,관공서
1095,부산광역시,산복도로 종합체험센터,35.122985,부산광역시,129.0357882,Public WiFi,051-888-4604,동구,부산광역시 동구 초량동 793-24,부산광역시 동구 망양로596번길 18,센터,KT,기타
1096,부산광역시,부산항국제여객터미널,35.103111,부산광역시,129.041062,Public WiFi,051-888-4604,동구,부산광역시 동구 중앙동4가 15-4,부산광역시 동구 충장대로 24,터미널,LGU+,교통시설
1097,부산광역시,부산진시장,35.136464,부산광역시,129.058692,Public WiFi,051-888-4604,동구,부산광역시 동구 범일동 290-1,부산광역시 동구 진시장로 24,시장,LGU+,서민·복지시설
1098,부산광역시,부산진남문시장,35.138502,부산광역시,129.054456,Public WiFi,051-888-4604,동구,부산광역시 동구 범일동 291,부산광역시 동구 범일로65번길 8,시장,LGU+,서민·복지시설
1099,부산광역시,부산역,35.1162619,부산광역시,129.0429122,Public WiFi,051-888-4604,동구,부산광역시 동구 초량3동 1187-1,부산광역시 동구 중앙대로 206,4층,SKT,교통시설
1100,부산광역시,부산역,35.1162619,부산광역시,129.0429122,Public WiFi,051-888-4604,동구,부산광역시 동구 초량3동 1187-1,부산광역시 동구 중앙대로 206,3층,SKT,교통시설
1101,부산광역시,부산역,35.1162619,부산광역시,129.0429122,Public WiFi,051-888-4604,동구,부산광역시 동구 초량3동 1187-1,부산광역시 동구 중앙대로 206,1층,SKT,교통시설
1102,부산광역시,부산시립중앙도서관 수정분관,35.128933,부산광역시,129.047706,Public WiFi,051-888-4604,동구,부산광역시 동구 수정1동 1032-21,부산광역시 동구 홍곡로 53,4층,SKT,지역문화시설
1103,부산광역시,부산시립중앙도서관 수정분관,35.128933,부산광역시,129.047706,Public WiFi,051-888-4604,동구,부산광역시 동구 수정1동 1032-21,부산광역시 동구 홍곡로 53,3층,SKT,지역문화시설
1104,부산광역시,부산시립중앙도서관 수정분관,35.128933,부산광역시,129.047706,Public WiFi,051-888-4604,동구,부산광역시 동구 수정1동 1032-21,부산광역시 동구 홍곡로 53,2층,SKT,지역문화시설
1105,부산광역시,부산시립중앙도서관 수정분관,35.128933,부산광역시,129.047706,Public WiFi,051-888-4604,동구,부산광역시 동구 수정1동 1032-21,부산광역시 동구 홍곡로 53,1층,SKT,지역문화시설
1106,부산광역시,부산관광협회,35.1138458,부산광역시,129.0381865,Public WiFi,051-888-4604,동구,부산광역시 동구 초량1동 569-2,부산광역시 동구 대영로243번길 38,협회,SKT,관공서
1107,부산광역시,범일5동 주민센터,35.1305108,부산광역시,129.0538053,Public WiFi,051-888-4604,동구,부산광역시 동구 좌천동 68-54,부산광역시 동구 성남로47번길 13,민원실,KT,관공서
1108,부산광역시,범일4동 주민센터,35.141307,부산광역시,129.049115,Public WiFi,051-888-4604,동구,부산광역시 동구 범일동 1438-83,부산광역시 동구 범상로 12,민원실,LGU+,관공서
1109,부산광역시,범일2동주민센터,35.1351096,부산광역시,129.0597919,Public WiFi,051-888-4604,동구,부산광역시 동구 범일동 330-145,부산광역시 동구 범일로 58,민원실,KT,관공서
1110,부산광역시,범일1동 주민센터,35.139415,부산광역시,129.056051,Public WiFi,051-888-4604,동구,부산광역시 동구 범일동 79-1,부산광역시 동구 범곡로 14,민원실,LGU+,관공서
1111,부산광역시,동부산우체국,35.1382309,부산광역시,129.0622118,Public WiFi,051-888-4604,동구,부산광역시 동구 범일2동 830-63,부산광역시 동구 조방로 15,민원실,KT,관공서
1112,부산광역시,동구청,35.1292467,부산광역시,129.0454237,Public WiFi,051-888-4604,동구,부산광역시 동구 수정동 806-74,부산광역시 동구 구청로 1,민원실,KT,관공서
1113,부산광역시,동구청,35.1292467,부산광역시,129.0454237,Public WiFi,051-888-4604,동구,부산광역시 동구 수정동 806-74,부산광역시 동구 구청로 1,2층북카페,KT,관공서
1114,부산광역시,동구 장애인복지관,35.1309344,부산광역시,129.0404614,Public WiFi,051-888-4604,동구,부산광역시 동구 수정2동 767-7번지,부산광역시 동구 망양로 748,복지관,SKT,서민·복지시설
1115,부산광역시,동구 보건소,35.1257702,부산광역시,129.0404496,Public WiFi,051-888-4604,동구,부산광역시 동구 수정1동 1011-886번지,부산광역시 동구 홍곡중로5번길 24,민원실,LGU+,서민·복지시설
1116,부산광역시,동구 노인복지관,35.1292475,부산광역시,129.0453896,Public WiFi,051-888-4604,동구,부산광역시 동구 수정동 806-74,부산광역시 동구 구청로 1,복지관,LGU+,서민·복지시설
1117,부산광역시,부산역 대합실 입구 주변,35.115096,부산광역시,129.041528,Dynamic Busan,051-888-4604,동구,부산광역시 동구 초량동 1187-1,부산광역시 동구 중앙대로 206,광장,부산광역시,교통시설
1118,부산광역시,이기대도시자연공원,35.115275,부산광역시,129.123289,Public WiFi,051-888-4604,남구,부산광역시 남구 용호3동 산25,부산광역시 남구 이기대공원로 105-20,공원,KT,관광
1119,부산광역시,부산문화회관,35.127271,부산광역시,129.093622,Public WiFi,051-888-4604,남구,부산광역시 남구 대연동 848-4,부산광역시 남구 유엔평화로76번길 1,문화회관,KT,지역문화시설
1120,부산광역시,NH농협은행 문현동지점,35.139221,부산광역시,129.068009,Public WiFi,051-888-4604,남구,부산광역시 남구 문현동 383-1,부산광역시 남구 전포대로 26,민원실,KT,기타
1121,부산광역시,농협 석포지점,35.129164,부산광역시,129.091469,Public WiFi,051-888-4604,남구,부산광역시 남구 대연동 1087-5,부산광역시 남구 석포로 131,민원실,SKT,기타
1122,부산광역시,지게골복지관,35.1342724,부산광역시,129.0760035,Public WiFi,051-888-4604,남구,부산광역시 남구 문현4동 271-16,부산광역시 남구 지게골로 139-33,복지관,LGU+,서민·복지시설
1123,부산광역시,㈜용호시장,35.1150275,부산광역시,129.1127842,Public WiFi,051-888-4604,남구,부산광역시 남구 용호2동 516-10번지,부산광역시 남구 동명로152번길 93,시장,LGU+,서민·복지시설
1124,부산광역시,이기대해안공원,35.126121,부산광역시,129.114661,Public WiFi,051-888-4604,남구,부산광역시 남구 용호3동 29,부산광역시 남구 이기대공원로 11,공원,SKT,관광
1125,부산광역시,천마재활원,35.0802937,부산광역시,129.019172,Public WiFi,051-888-4604,서구,부산광역시 서구 암남동 81-90,부산광역시 서구 천해로 7번길 55-10,재활원,SKT,서민·복지시설
1126,부산광역시,천마산조각공원,35.091343,부산광역시,129.018327,Public WiFi,051-888-4604,서구,부산광역시 서구 남부민동 14-1,부산광역시 서구 남부민동 14-1,공원,SKT,관광
1127,부산광역시,은애모자원,35.0702691,부산광역시,129.016094,Public WiFi,051-888-4604,서구,부산광역시 서구 암남동 169-1,부산광역시 서구 장군산로 103번길 6,모자원,KT,서민·복지시설
1128,부산광역시,암남동 주민센터,35.0799388,부산광역시,129.0213237,Public WiFi,051-888-4604,서구,부산광역시 서구 암남동 676-1번지,부산광역시 서구 충무대로 85,민원실,LGU+,관공서
1129,부산광역시,안나모자원,35.1279547,부산광역시,129.0057797,Public WiFi,051-888-4604,서구,부산광역시 서구 서대신동3가 7-23,부산광역시 서구 꽃마을로 163번길 40,모자원,KT,서민·복지시설
1130,부산광역시,아미시장,35.0996486,부산광역시,129.0174768,Public WiFi,051-888-4604,서구,부산광역시 서구 아미동2가 96-11,부산광역시 서구 아미초장로 132,시장,LGU+,서민·복지시설
1131,부산광역시,아미동 주민센터,35.100182,부산광역시,129.015452,Public WiFi,051-888-4604,서구,부산광역시 서구 아미동2가 133-8,부산광역시 서구 해돋이로269번길 17,민원실,LGU+,관공서
1132,부산광역시,송도가정,35.0839451,부산광역시,129.0123595,Public WiFi,051-888-4604,서구,부산광역시 서구 암남동 5-7번지,부산광역시 서구 천해남로 7,송도가정,LGU+,서민·복지시설
1133,부산광역시,서대신4동 주민센터,35.119201,부산광역시,129.012579,Public WiFi,051-888-4604,서구,부산광역시 서구 서대신동3가 706-11,부산광역시 서구 보수대로 303,민원실,LGU+,관공서
1134,부산광역시,서대신3동 주민센터,35.113484,부산광역시,129.011935,Public WiFi,051-888-4604,서구,부산광역시 서구 서대신동3가 609,부산광역시 서구 대신로 27,민원실,LGU+,관공서
1135,부산광역시,서대신1동 주민센터,35.111091,부산광역시,129.014454,Public WiFi,051-888-4604,서구,부산광역시 서구 서대신동2가 179-1,부산광역시 서구 구덕로315번길 49,민원실,LGU+,관공서
1136,부산광역시,서대신1동 골목시장,35.110422,부산광역시,129.0173213,Public WiFi,051-888-4604,서구,부산광역시 서구 구덕로295번길 4,부산광역시 서구 서대신동2가 99-5,시장,LGU+,서민·복지시설
1137,부산광역시,서구청 평생학습관,35.0976972,부산광역시,129.0241259,Public WiFi,051-888-4604,서구,부산광역시 서구 토성동4가 2-3번지,부산광역시 서구 구덕로 120,민원실,LGU+,관공서
1138,부산광역시,서구노인복지관,35.0732005,부산광역시,129.0142802,Public WiFi,051-888-4604,서구,부산광역시 서구 암남동 553-1,부산광역시 서구 장군산로 46번길 21,복지관,LGU+,서민·복지시설
1139,부산광역시,부산서구청,35.0976972,부산광역시,129.0241259,Public WiFi,051-888-4604,서구,부산광역시 서구 토성동4가 2-3번지,부산광역시 서구 구덕로 120,민원실,LGU+,관공서
1140,부산광역시,부산서구청,35.097922,부산광역시,129.024201,Public WiFi,051-888-4604,서구,부산광역시 서구 토성동4가 2,부산광역시 서구 구덕로 120,민원실,KT,관공서
1141,부산광역시,부산기독교종합사회복지관,35.1014098,부산광역시,129.021133,Public WiFi,051-888-4604,서구,부산광역시 서구 토성동2가 4-1번지,부산광역시 서구 까치고개로229번길 40,복지관,LGU+,서민·복지시설
1142,부산광역시,부민동 주민센터,35.103831,부산광역시,129.018465,Public WiFi,051-888-4604,서구,부산광역시 서구 부민동3가 29-1,부산광역시 서구 임시수도기념로 22-11,민원실,LGU+,관공서
1143,부산광역시,부민노인복지관,35.1074863,부산광역시,129.0180367,Public WiFi,051-888-4604,서구,부산광역시 서구 부용동2가 86,부산광역시 서구 부용로 30,복지관,SKT,서민·복지시설
1144,부산광역시,동대신3동 주민센터,35.1144341,부산광역시,129.0172561,Public WiFi,051-888-4604,서구,부산광역시 서구 동대신동3가 329-1,부산광역시 서구 대영로73번길 92,민원실,LGU+,관공서
1145,부산광역시,동대신2동 주민센터,35.1129848,부산광역시,129.0232214,Public WiFi,051-888-4604,서구,부산광역시 서구 동대신동2가 933-1,부산광역시 서구 동대신동2가 933-1,민원실,SKT,관공서
1146,부산광역시,동대신1동 주민센터,35.1096039,부산광역시,129.0202049,Public WiFi,051-888-4604,서구,부산광역시 서구 동대신동1가 202,부산광역시 서구 구덕로280번길 32,민원실,LGU+,관공서
1147,부산광역시,동대신1동 골목시장,35.1098895,부산광역시,129.0196419,Public WiFi,051-888-4604,서구,부산광역시 서구 동대신동1가 164-7,부산광역시 서구 대영로74번길 15,시장,LGU+,서민·복지시설
1148,부산광역시,대신공원,35.1239131,부산광역시,129.018538,Public WiFi,051-888-4604,서구,부산광역시 서구 서대신동3가 2-3,부산광역시 서구 대신공원로 34-91,공원,SKT,관광
1149,부산광역시,남부민2동 주민센터,35.0843062,부산광역시,129.0230598,Public WiFi,051-888-4604,서구,부산광역시 서구 남부민동 456-6,부산광역시 서구 천마로 87,민원실,LGU+,관공서
1150,부산광역시,남부민1동 주민센터,35.092788,부산광역시,129.0233929,Public WiFi,051-888-4604,서구,부산광역시 서구 남부민동 643-16,부산광역시 서구 충무대로255번길 5-26,민원실,LGU+,관공서
1151,부산광역시,엄궁농산물시장,35.1279057,부산광역시,128.9671554,Public WiFi,051-888-4604,사상구,부산광역시 사상구 엄궁동 648,부산광역시 사상구 농산물시장로 9(엄궁동),시장,SKT,서민·복지시설
1152,부산광역시,삼신전문장례식장,35.1508721,부산광역시,128.9853634,Public WiFi,051-888-4604,사상구,부산광역시 사상구 감전동 161-5,부산광역시 사상구 대동로 261,장례식장,LGU+,서민·복지시설
1153,부산광역시,삼락동주민센터,35.1769645,부산광역시,128.9777337,Public WiFi,051-888-4604,사상구,부산광역시 사상구 삼락동 396-23,부산광역시 사상구 낙동대로1310번길 19(삼락동),민원실,SKT,관공서
1154,부산광역시,사상평생학습관,35.1556124,부산광역시,128.9866768,Public WiFi,051-888-4604,사상구,부산광역시 사상구 감전동 120-56,부산광역시 사상구 새벽로168번길 61 (감전동),학습관,SKT,지역문화시설
1155,부산광역시,사상구청소년수련관,35.1830009,부산광역시,128.9901885,Public WiFi,051-888-4604,사상구,부산광역시 사상구 모라동 1365-1,부산광역시 사상구 덕상로 129 (모라동),수련관,SKT,지역문화시설
1156,부산광역시,사상구청,35.1523423,부산광역시,128.9913242,Public WiFi,051-888-4604,사상구,부산광역시 사상구 감전동 138-8,부산광역시 사상구 학감대로 242,민원실,SKT,관공서
1157,부산광역시,사상구종합사회복지관,35.1554387,부산광역시,128.9947789,Public WiFi,051-888-4604,사상구,부산광역시 사상구 주례1동 1006-5,부산광역시 사상구 백양대로 527,복지관,LGU+,서민·복지시설
1158,부산광역시,사상구보건소 민원실,35.1523423,부산광역시,128.9913242,Public WiFi,051-888-4604,사상구,부산광역시 사상구 감전동 138-8,부산광역시 사상구 학감대로 242,민원실,SKT,관공서
1159,부산광역시,사상구 장애인직업재활시설,35.1854721,부산광역시,129.0003431,Public WiFi,051-888-4604,사상구,부산광역시 사상구 모라동 75-1,부산광역시 사상구 모라로192번길 2 (모라동),시설,SKT,서민·복지시설
1160,부산광역시,사상구 장애인복지관,35.1849042,부산광역시,129.000911,Public WiFi,051-888-4604,사상구,부산광역시 사상구 모라3동 75-9,부산광역시 사상구 모라로192번길 21,복지관,SKT,서민·복지시설
1161,부산광역시,사상 해오름 지역아동센터,35.1541009,부산광역시,128.9779365,Public WiFi,051-888-4604,사상구,부산광역시 사상구 감전동 150-6,부산광역시 사상구 새벽시장로56번가길 41 (감전동),센터,SKT,서민·복지시설
1162,부산광역시,사상 노인대학,35.1564374,부산광역시,128.9836244,Public WiFi,051-888-4604,사상구,부산광역시 사상구 감전동 121-25,부산광역시 사상구 새벽로 172 (감전동),노인대학,SKT,서민·복지시설
1163,부산광역시,부산새벽시장,35.1713005,부산광역시,128.9822514,Public WiFi,051-888-4604,사상구,부산광역시 사상구 덕포동 421-13,부산광역시 사상구 사상로293번길 12,시장,SKT,편의시설
1164,부산광역시,부산사상우체국,35.1605361,부산광역시,128.9859205,Public WiFi,051-888-4604,사상구,부산광역시 사상구 괘법동 554-12,부산광역시 사상구 사상로 165,민원실,KT,관공서
1165,부산광역시,부산사상도서관,35.1781589,부산광역시,128.9898827,Public WiFi,051-888-4604,사상구,부산광역시 사상구 덕포2동 24-65,부산광역시 사상구 덕상로72번길 9,도서관,KT,지역문화시설
1166,부산광역시,백양종합사회복지관,35.183407,부산광역시,129.000513,Public WiFi,051-888-4604,사상구,부산광역시 사상구 모라3동 75 모라주공3단지내,부산광역시 사상구 모라로192번길 20-33,복지관,KT,서민·복지시설
1167,부산광역시,모라종합사회복지관,35.1846329,부산광역시,128.9960819,Public WiFi,051-888-4604,사상구,부산광역시 사상구 모라3동 551,부산광역시 사상구 모라로110번길 129,복지관,SKT,서민·복지시설
1168,부산광역시,모라3동주민센터,35.1846329,부산광역시,128.9960819,Public WiFi,051-888-4604,사상구,부산광역시 사상구 모라3동 551-1,부산광역시 사상구 모라로110번길 99,민원실,SKT,관공서
1169,부산광역시,모라1동주민센터,35.1911136,부산광역시,128.9923337,Public WiFi,051-888-4604,사상구,부산광역시 사상구 모라1동 1343,부산광역시 사상구 백양대로 952,민원실,SKT,관공서
1170,부산광역시,모라 어깨동무 지역아동센터,35.1849128,부산광역시,128.9933876,Public WiFi,051-888-4604,사상구,부산광역시 사상구 모라동 422-4,부산광역시 사상구 모라로110번길 43 (모라동),센터,SKT,관공서
1171,부산광역시,덕포2동주민센터,35.1744875,부산광역시,128.9829918,Public WiFi,051-888-4604,사상구,부산광역시 사상구 덕포동 403-9,부산광역시 사상구 사상로337번길 17,민원실,SKT,관공서
1172,부산광역시,덕포1동주민센터,35.1703726,부산광역시,128.9832404,Public WiFi,051-888-4604,사상구,부산광역시 사상구 덕포동 426-5,부산광역시 사상구 사상로292번길 12,민원실,SKT,관공서
1173,부산광역시,대한노인회 사상구지회,35.1734434,부산광역시,128.9834668,Public WiFi,051-888-4604,사상구,부산광역시 사상구 덕포동 417-9,부산광역시 사상구 사상로319번길 6,지회,SKT,서민·복지시설
1174,부산광역시,다누림센터(사상구),35.1473837,부산광역시,128.9947389,Public WiFi,051-888-4604,사상구,부산광역시 사상구 학장동 288-12,부산광역시 사상구 가야대로196번길 51,지하1층,SKT,지역문화시설
1175,부산광역시,다누림센터(사상구),35.1473837,부산광역시,128.9947389,Public WiFi,051-888-4604,사상구,부산광역시 사상구 학장동 288-12,부산광역시 사상구 가야대로196번길 51,6층,SKT,지역문화시설
1176,부산광역시,다누림센터(사상구),35.1473837,부산광역시,128.9947389,Public WiFi,051-888-4604,사상구,부산광역시 사상구 학장동 288-12,부산광역시 사상구 가야대로196번길 51,5층,SKT,지역문화시설
1177,부산광역시,다누림센터(사상구),35.1473837,부산광역시,128.9947389,Public WiFi,051-888-4604,사상구,부산광역시 사상구 학장동 288-12,부산광역시 사상구 가야대로196번길 51,4층,SKT,지역문화시설
1178,부산광역시,다누림센터(사상구),35.1473837,부산광역시,128.9947389,Public WiFi,051-888-4604,사상구,부산광역시 사상구 학장동 288-12,부산광역시 사상구 가야대로196번길 51,3층,SKT,지역문화시설
1179,부산광역시,다누림센터(사상구),35.1473837,부산광역시,128.9947389,Public WiFi,051-888-4604,사상구,부산광역시 사상구 학장동 288-12,부산광역시 사상구 가야대로196번길 51,2층,SKT,지역문화시설
1180,부산광역시,다누림센터(사상구),35.1473837,부산광역시,128.9947389,Public WiFi,051-888-4604,사상구,부산광역시 사상구 학장동 288-12,부산광역시 사상구 가야대로196번길 51,1층,SKT,지역문화시설
1181,부산광역시,괘법동주민센터,35.1637509,부산광역시,128.9871583,Public WiFi,051-888-4604,사상구,부산광역시 사상구 괘법동 541-24,부산광역시 사상구 광장로97번길 6,민원실,SKT,관공서
1182,부산광역시,괘법동주민센터,35.1637509,부산광역시,128.9871583,Public WiFi,051-888-4604,사상구,부산광역시 사상구 괘법동 541-24,부산광역시 사상구 광장로97번길 6,민원실,KT,관공서
1183,부산광역시,괘내마을 지역아동센터,35.1635767,부산광역시,128.989219,Public WiFi,051-888-4604,사상구,부산광역시 사상구 괘법동 468,부산광역시 사상구 백양대로646번나길 22 (괘법동),센터,SKT,서민·복지시설
1184,부산광역시,감전동주민센터,35.1542931,부산광역시,128.979387,Public WiFi,051-888-4604,사상구,부산광역시 사상구 감전동 920-10,부산광역시 사상구 새벽시장로56번길 20,민원실,SKT,관공서
1185,부산광역시,(주)부산전문장례식장,35.1544248,부산광역시,128.9737703,Public WiFi,051-888-4604,사상구,부산광역시 사상구 감전동 148-15,부산광역시 사상구 낙동대로 1056,장례식장,LGU+,서민·복지시설
1186,부산광역시,삼락강변공원,35.189954,부산광역시,128.978116,Dynamic Busan,051-888-4604,사상구,부산광역시 사상구 삼락동 331,부산광역시 사상구 삼락동 331,축구장입구CCTV Pole,부산광역시,관광
1187,부산광역시,삼락강변공원,35.168637,부산광역시,128.969576,Dynamic Busan,051-888-4604,사상구,부산광역시 사상구 삼락동 29-21,부산광역시 사상구 삼락동 29-21,계류장앞 Pole,부산광역시,관광
1188,부산광역시,삼락강변공원,35.168751,부산광역시,128.975029,Dynamic Busan,051-888-4604,사상구,부산광역시 사상구 삼락동 685-3,부산광역시 사상구 삼락동 685-3,공원입구CCTV Pole,부산광역시,관광
1189,부산광역시,농협 화명점,35.239101,부산광역시,129.014504,Public WiFi,051-888-4604,북구,부산광역시 북구 화명동 1528-5,부산광역시 북구 금곡대로 344,민원실,SKT,기타
1190,부산광역시,농협 덕천동지점,35.211185,부산광역시,129.008581,Public WiFi,051-888-4604,북구,부산광역시 북구 덕천동 382-8,부산광역시 북구 만덕대로 33,민원실,SKT,기타
1191,부산광역시,화정종합사회복지관,35.2524923,부산광역시,129.0148386,Public WiFi,051-888-4604,북구,부산광역시 북구 금곡동 1108,부산광역시 북구 효열로 76,복지관,LGU+,서민·복지시설
1192,부산광역시,화명종합사회복지관,35.2268201,부산광역시,129.0098612,Public WiFi,051-888-4604,북구,부산광역시 북구 화명동 2310,부산광역시 북구 금곡대로199번길 21,복지관,LGU+,서민·복지시설
1193,부산광역시,화명역,35.236343,부산광역시,129.013841,Public WiFi,051-888-4604,북구,부산광역시 북구 화명동 1458,부산광역시 북구 금곡대로 지하 311,역사,LGU+,교통시설
1194,부산광역시,화명동 어촌박물관,35.2336482,부산광역시,129.0086681,Public WiFi,051-888-4604,북구,부산광역시 북구 화명동 2279,부산광역시 북구 학사로 118,박물관,SKT,지역문화시설
1195,부산광역시,화명3동 주민센터,35.231925,부산광역시,129.010035,Public WiFi,051-888-4604,북구,부산광역시 북구 화명3동 2285,부산광역시 북구 화명신도시로 85,민원실,KT,관공서
1196,부산광역시,화명2동 주민센터,35.243524,부산광역시,129.019857,Public WiFi,051-888-4604,북구,부산광역시 북구 화명2동 318-2,부산광역시 북구 양달로 58,민원실,KT,관공서
1197,부산광역시,화명1동 주민센터,35.2327403,부산광역시,129.0138044,Public WiFi,051-888-4604,북구,부산광역시 북구 화명동 1230-3,부산광역시 북구 금곡대로 274,민원실,LGU+,관공서
1198,부산광역시,한국산업인력공단 부산지부,35.2484788,부산광역시,129.0108314,Public WiFi,051-888-4604,북구,부산광역시 북구 금곡동 1877,부산광역시 북구 금곡대로441번길 26,민원실,LGU+,관공서
1199,부산광역시,청록소규모요양시설,35.2123112,부산광역시,129.040799,Public WiFi,051-888-4604,북구,부산광역시 북구 만덕동 376-35,부산광역시 북구 중리로 32,시설,LGU+,서민·복지시설
1200,부산광역시,정화양로원,35.2440596,부산광역시,129.0193878,Public WiFi,051-888-4604,북구,부산광역시 북구 화명동 298,부산광역시 북구 양달로 55,양로원,LGU+,서민·복지시설
1201,부산광역시,열린,35.207062,부산광역시,129.039105,Public WiFi,051-888-4604,북구,부산광역시 북구 만덕동 867-8,부산광역시 북구 은행나무로35번길 11,열린,KT,서민·복지시설
1202,부산광역시,아이쿱생활협동조합-화명동,35.2344185,부산광역시,129.0104323,Public WiFi,051-888-4604,북구,부산광역시 북구 화명동 2275-6,부산광역시 북구 화명신도시로 115,조합,KT,기타
1203,부산광역시,실버벨노인복지관,35.1942753,부산광역시,129.0085861,Public WiFi,051-888-4604,북구,부산광역시 북구 구포동 1255-2,부산광역시 북구 시랑로114번길 45,복지관,LGU+,서민·복지시설
1204,부산광역시,소상공인지원센터(부산),35.2110246,부산광역시,129.007938,Public WiFi,051-888-4604,북구,부산광역시 북구 덕천동 398-4,부산광역시 북구 만덕대로27번길 3,센터,SKT,관공서
1205,부산광역시,새구포종합상가시장,35.212152,부산광역시,129.0098127,Public WiFi,051-888-4604,북구,부산광역시 북구 덕천동 355-4,부산광역시 북구 의성로 96,시장,LGU+,서민·복지시설
1206,부산광역시,삼동재가노인지원서비스센터,35.2372743,부산광역시,129.0147118,Public WiFi,051-888-4604,북구,부산광역시 북구 화명동 1410-10,부산광역시 북구 금곡대로324번길 11,센터,LGU+,서민·복지시설
1207,부산광역시,북부산우체국,35.2322427,부산광역시,129.0098794,Public WiFi,051-888-4604,북구,부산광역시 북구 화명동 2282,부산광역시 북구 화명신도시로 89,민원실,KT,관공서
1208,부산광역시,북구청소년상담센터,35.2072516,부산광역시,129.0053527,Public WiFi,051-888-4604,북구,부산광역시 북구 구포동 610-1,부산광역시 북구 덕천로3,센터,LGU+,서민·복지시설
1209,부산광역시,북구청,35.1938847,부산광역시,128.9964466,Public WiFi,051-888-4604,북구,부산광역시 북구 구포2동 1124-1,부산광역시 북구 낙동대로1570번길 33,민원실,KT,관공서
1210,부산광역시,북구 시니어클럽,35.213582,부산광역시,129.005793,Public WiFi,051-888-4604,북구,부산광역시 북구 덕천동 241-66,부산광역시 북구 덕천로 83,클럽,LGU+,서민·복지시설
1211,부산광역시,북구 디지털도서관,35.2093871,부산광역시,129.0137281,Public WiFi,051-888-4604,북구,부산광역시 북구 만덕동 843,부산광역시 북구 은행나무로 26,도서관,KT,지역문화시설
1212,부산광역시,부산장애인자립센터,35.2067852,부산광역시,129.037045,Public WiFi,051-888-4604,북구,부산광역시 북구 화명3동 2275-3,부산광역시 북구 화명신도시로 117,센터,SKT,서민·복지시설
1213,부산광역시,부산광역시립 구포도서관,35.2346721,부산광역시,129.0104746,Public WiFi,051-888-4604,북구,부산광역시 북구 구포2동 1139-1,부산광역시 북구 백양대로1016번다길 43,도서관,SKT,지역문화시설
1214,부산광역시,보건소,35.239269,부산광역시,129.014782,Public WiFi,051-888-4604,북구,부산광역시 북구 화명동 1531-4,부산광역시 북구 금곡대로 348 (화명동),민원실,KT,서민·복지시설
1215,부산광역시,반딧불이,35.2072516,부산광역시,129.0053527,Public WiFi,051-888-4604,북구,부산광역시 북구 금곡동 98-1,부산광역시 북구 금곡대로616번길 10-23,반딧불이,LGU+,기타
1216,부산광역시,만덕종합사회복지관,35.2018588,부산광역시,129.0354677,Public WiFi,051-888-4604,북구,부산광역시 북구 만덕2동 949-1,부산광역시 북구 함박봉로140번길 102,복지관,LGU+,서민·복지시설
1217,부산광역시,만덕3동 주민센터,35.2113861,부산광역시,129.0292011,Public WiFi,051-888-4604,북구,부산광역시 북구 만덕3동 916-3,부산광역시 북구 만덕3로 52,민원실,SKT,관공서
1218,부산광역시,만덕2동 주민센터,35.2100998,부산광역시,129.0370743,Public WiFi,051-888-4604,북구,부산광역시 북구 만덕동 289-1,부산광역시 북구 만덕2로44번길 10 (만덕동),민원실,KT,관공서
1219,부산광역시,만덕2동 제일상가 시장,35.208466,부산광역시,129.0371058,Public WiFi,051-888-4604,북구,부산광역시 북구 만덕동 845-2,부산광역시 북구 덕천로304번길 23,시장,KT,편의시설
1220,부산광역시,만덕1동 주민센터,35.2134622,부산광역시,129.0363742,Public WiFi,051-888-4604,북구,부산광역시 북구 만덕1동 830-34,부산광역시 북구 만덕1로 1,민원실,SKT,관공서
1221,부산광역시,리틀스쿨,35.2412271,부산광역시,129.0210663,Public WiFi,051-888-4604,북구,부산광역시 북구 화명동 498-6,부산광역시 북구 산성로 76-8,리틀스쿨,LGU+,기타
1222,부산광역시,동원종합사회복지관,35.2595752,부산광역시,129.0150898,Public WiFi,051-888-4604,북구,부산광역시 북구 금곡동 98-1,부산광역시 북구 금곡대로616번길 10-9,복지관,KT,서민·복지시설
1223,부산광역시,덕천종합사회복지관,35.2088091,부산광역시,129.0155365,Public WiFi,051-888-4604,북구,부산광역시 북구 덕천동 808,부산광역시 북구 덕천로 74,복지관,LGU+,서민·복지시설
1224,부산광역시,덕천보건지소,35.2128598,부산광역시,129.0142563,Public WiFi,051-888-4604,북구,부산광역시 북구 덕천동 378-7,부산광역시 북구 만덕대로89번길 9 (덕천동),민원실,KT,서민·복지시설
1225,부산광역시,덕천3동 주민센터,35.2099448,부산광역시,129.0174783,Public WiFi,051-888-4604,북구,부산광역시 북구 덕천동 809-1,부산광역시 북구 덕천로 118 (덕천동),민원실,KT,관공서
1226,부산광역시,덕천2동 주민센터,35.2124135,부산광역시,129.0079612,Public WiFi,051-888-4604,북구,부산광역시 북구 덕천2동 346-2,부산광역시 북구 금곡대로20번길 60,민원실,SKT,관공서
1227,부산광역시,덕천1동 주민센터,35.2124402,부산광역시,129.0166836,Public WiFi,051-888-4604,북구,부산광역시 북구 덕천동 389-33,부산광역시 북구 만덕대로102번가길 11,민원실,KT,관공서
1228,부산광역시,남산정복지관,35.217416,부산광역시,129.0206306,Public WiFi,051-888-4604,북구,부산광역시 북구 덕천동 814-1,부산광역시 북구 만덕대로 155번길 86-9,복지관,KT,서민·복지시설
1229,부산광역시,낙동,35.204715,부산광역시,129.0015792,Public WiFi,051-888-4604,북구,부산광역시 북구 구포동 718-25,부산광역시 북구 백양대로 1127,낙동,LGU+,기타
1230,부산광역시,기후변화체험관,35.2329432,부산광역시,129.0081026,Public WiFi,051-888-4604,북구,부산광역시 북구 화명동 2292-1,부산광역시 북구 학사로 118,체험관,LGU+,관공서
1231,부산광역시,금곡청소년수련원,35.2595308,부산광역시,129.0166494,Public WiFi,051-888-4604,북구,부산광역시 북구 금곡동 100-1,부산광역시 북구 효열로 158,수련원,KT,서민·복지시설
1232,부산광역시,금곡청소년센터,35.2595308,부산광역시,129.0166494,Public WiFi,051-888-4604,북구,부산광역시 북구 금곡동 100-1,부산광역시 북구 효열로 158,센터,LGU+,서민·복지시설
1233,부산광역시,사상구보건소 민원실,35.1523423,부산광역시,128.9913242,Public WiFi,051-310-4791,사상구,부산광역시 사상구 감전동 138-8,부산광역시 사상구 학감대로 242,민원실,SKT,관공서
1234,부산광역시,사상구종합사회복지관,35.1554387,부산광역시,128.9947789,Public WiFi,051-314-8948,사상구,부산광역시 사상구 주례1동 1006-5,부산광역시 사상구 백양대로 527,복지관,LGU+,서민·복지시설
1235,부산광역시,사상구청,35.1523423,부산광역시,128.9913242,Public WiFi,051-310-4171,사상구,부산광역시 사상구 감전동 138-8,부산광역시 사상구 학감대로 242,민원실,SKT,관공서
1236,부산광역시,사상구청소년수련관,35.1830009,부산광역시,128.9901885,Public WiFi,051-316-2214,사상구,부산광역시 사상구 모라동 1365-1,부산광역시 사상구 덕상로 129 (모라동),수련관,SKT,지역문화시설
1237,부산광역시,사상평생학습관,35.1556124,부산광역시,128.9866768,Public WiFi,051-310-3242,사상구,부산광역시 사상구 감전동 120-56,부산광역시 사상구 새벽로168번길 61 (감전동),학습관,SKT,지역문화시설
1238,부산광역시,삼락동주민센터,35.1769645,부산광역시,128.9777337,Public WiFi,051-310-3001,사상구,부산광역시 사상구 삼락동 396-23,부산광역시 사상구 낙동대로1310번길 19(삼락동),민원실,SKT,관공서
1239,부산광역시,삼신전문장례식장,35.1508721,부산광역시,128.9853634,Public WiFi,051-323-0044,사상구,부산광역시 사상구 감전동 161-5,부산광역시 사상구 대동로 261,장례식장,LGU+,서민·복지시설
1240,부산광역시,엄궁농산물시장,35.1279057,부산광역시,128.9671554,Public WiFi,051-310-8245,사상구,부산광역시 사상구 엄궁동 648,부산광역시 사상구 농산물시장로 9(엄궁동),시장,SKT,서민·복지시설
1241,부산광역시,엄궁동주민센터,35.1287251,부산광역시,128.9722103,Public WiFi,051-310-3224,사상구,부산광역시 사상구 엄궁동 618-31,부산광역시 사상구 엄궁북로 15,민원실,SKT,관공서
1242,부산광역시,엄궁복지센터,35.1274187,부산광역시,128.9720726,Public WiFi,051-312-4017,사상구,부산광역시 사상구 엄궁동 437-5,부산광역시 사상구 엄궁북로4번길 41(엄궁동),사랑채,SKT,서민·복지시설
1243,부산광역시,영재의료재단큰솔병원,35.1406374,부산광역시,128.9825563,Public WiFi,051-325-9700,사상구,부산광역시 사상구 학장동 574-1번지,부산광역시 사상구 대동로 141,병원,LGU+,서민·복지시설
1244,부산광역시,주례 온골마을 행복학습센터,35.1534268,부산광역시,128.9970476,Public WiFi,051-310-3142,사상구,부산광역시 사상구 주례동 870,부산광역시 사상구 백양대로445번길 124-5 (주례동),센터,SKT,지역문화시설
1245,부산광역시,주례 지역아동센터,35.1489908,부산광역시,129.0078629,Public WiFi,051-311-1649,사상구,부산광역시 사상구 주례동 110,"부산광역시 사상구 냉정로 72 (주례동, 명신산업)",센터,SKT,관공서
1246,부산광역시,주례1동주민센터,35.1516665,부산광역시,128.9979533,Public WiFi,051-310-3141,사상구,부산광역시 사상구 주례1동 720-12,부산광역시 사상구 사상로 22,민원실,SKT,관공서
1247,부산광역시,주례2동주민센터,35.1500924,부산광역시,129.0105004,Public WiFi,051-310-3161,사상구,부산광역시 사상구 주례2동 154-1,부산광역시 사상구 주례로10번길 15,민원실,SKT,관공서
1248,부산광역시,주례3동주민센터,35.1473312,부산광역시,129.001419,Public WiFi,051-310-3181,사상구,부산광역시 사상구 주례동 595-3,부산광역시 사상구 냉정로 10,민원실,SKT,관공서
1249,부산광역시,주례보훈병원,35.149761,부산광역시,129.0043516,Public WiFi,051-601-6000,사상구,부산광역시 사상구 주례동 235,부산광역시 사상구 백양대로 420,병원,SKT,서민·복지시설
1250,부산광역시,주례역,35.150309,부산광역시,129.003587,Public WiFi,051-678-6225,사상구,부산광역시 사상구 주례3동 1163,부산광역시 사상구 가야대로 284,역사,LGU+,교통시설
1251,부산광역시,주례자동차검사소,35.1451019,부산광역시,128.9945226,Public WiFi,051-324-1431,사상구,부산광역시 사상구 주례동 1287,부산광역시 사상구 학장로 256,검사소,LGU+,관공서
1252,부산광역시,학장 새밭마을 행복학습센터,35.1395812,부산광역시,128.978589,Public WiFi,051-310-3206,사상구,부산광역시 사상구 학장동 585-47,부산광역시 사상구 대동로159번길 105,센터,SKT,지역문화시설
1253,부산광역시,학장동주민센터,35.1441201,부산광역시,128.987266,Public WiFi,051-310-3201,사상구,부산광역시 사상구 학장동 386-1,부산광역시 사상구 학감대로147번길 11,민원실,SKT,관공서
1254,부산광역시,학장종합사회복지관,35.1382244,부산광역시,128.9894899,Public WiFi,051-311-4015,사상구,부산광역시 사상구 학장동 168-7,부산광역시 사상구 학감대로49번길 28-70,복지관,LGU+,서민·복지시설
1255,부산광역시,희망 지역아동센터,35.1694408,부산광역시,128.9822282,Public WiFi,051-304-5098,사상구,부산광역시 사상구 덕포동 428-8,부산광역시 사상구 사상로 275 (덕포동),센터,SKT,관공서
1256,부산광역시,부산서부버스터미널,35.163225,부산광역시,128.982473,Public WiFi,1577-8301,사상구,부산광역시 사상구 괘법동 533-1,부산광역시 사상구 사상로 201,터미널,LGU+,교통시설
1257,부산광역시,부산은행 감전동지점,35.155249,부산광역시,128.983423,Public WiFi,051-312-5301,사상구,부산광역시 사상구 감전동 131-30,부산광역시 사상구 새벽로 160,민원실,SKT,기타
1258,부산광역시,부산은행 학장동지점,35.138217,부산광역시,128.978539,Public WiFi,051-328-3051,사상구,부산광역시 사상구 학장동 573-1,부산광역시 사상구 대동로 98,민원실,SKT,기타
1259,부산광역시,삼락강변공원,35.168751,부산광역시,128.975029,Dynamic Busan,051-303-0048,사상구,부산광역시 사상구 삼락동 685-3,부산광역시 사상구 삼락동 685-3,공원입구CCTV Pole,부산광역시,관광
1260,부산광역시,삼락강변공원,35.168637,부산광역시,128.969576,Dynamic Busan,051-303-0048,사상구,부산광역시 사상구 삼락동 29-21,부산광역시 사상구 삼락동 29-21,계류장앞 Pole,부산광역시,관광
1261,부산광역시,삼락강변공원,35.189954,부산광역시,128.978116,Dynamic Busan,051-303-0048,사상구,부산광역시 사상구 삼락동 331,부산광역시 사상구 삼락동 331,축구장입구CCTV Pole,부산광역시,관광
1262,부산광역시,(주)부산전문장례식장,35.1544248,부산광역시,128.9737703,Public WiFi,051-312-4444,사상구,부산광역시 사상구 감전동 148-15,부산광역시 사상구 낙동대로 1056,장례식장,LGU+,서민·복지시설
1263,부산광역시,감전동주민센터,35.1542931,부산광역시,128.979387,Public WiFi,051-310-3121,사상구,부산광역시 사상구 감전동 920-10,부산광역시 사상구 새벽시장로56번길 20,민원실,SKT,관공서
1264,부산광역시,괘내마을 지역아동센터,35.1635767,부산광역시,128.989219,Public WiFi,051-316-1511,사상구,부산광역시 사상구 괘법동 468,부산광역시 사상구 백양대로646번나길 22 (괘법동),센터,SKT,서민·복지시설
1265,부산광역시,괘법동주민센터,35.1637509,부산광역시,128.9871583,Public WiFi,051-310-3101,사상구,부산광역시 사상구 괘법동 541-24,부산광역시 사상구 광장로97번길 6,민원실,KT,관공서
1266,부산광역시,괘법동주민센터,35.1637509,부산광역시,128.9871583,Public WiFi,051-319-7330,사상구,부산광역시 사상구 괘법동 541-24,부산광역시 사상구 광장로97번길 6,민원실,SKT,관공서
1267,부산광역시,다누림센터(사상구),35.1473837,부산광역시,128.9947389,Public WiFi,051-319-7330,사상구,부산광역시 사상구 학장동 288-12,부산광역시 사상구 가야대로196번길 51,1층,SKT,지역문화시설
1268,부산광역시,다누림센터(사상구),35.1473837,부산광역시,128.9947389,Public WiFi,051-319-7330,사상구,부산광역시 사상구 학장동 288-12,부산광역시 사상구 가야대로196번길 51,2층,SKT,지역문화시설
1269,부산광역시,다누림센터(사상구),35.1473837,부산광역시,128.9947389,Public WiFi,051-319-7330,사상구,부산광역시 사상구 학장동 288-12,부산광역시 사상구 가야대로196번길 51,3층,SKT,지역문화시설
1270,부산광역시,다누림센터(사상구),35.1473837,부산광역시,128.9947389,Public WiFi,051-319-7330,사상구,부산광역시 사상구 학장동 288-12,부산광역시 사상구 가야대로196번길 51,4층,SKT,지역문화시설
1271,부산광역시,다누림센터(사상구),35.1473837,부산광역시,128.9947389,Public WiFi,051-319-7330,사상구,부산광역시 사상구 학장동 288-12,부산광역시 사상구 가야대로196번길 51,5층,SKT,지역문화시설
1272,부산광역시,다누림센터(사상구),35.1473837,부산광역시,128.9947389,Public WiFi,051-319-7330,사상구,부산광역시 사상구 학장동 288-12,부산광역시 사상구 가야대로196번길 51,6층,SKT,지역문화시설
1273,부산광역시,다누림센터(사상구),35.1473837,부산광역시,128.9947389,Public WiFi,051-319-7330,사상구,부산광역시 사상구 학장동 288-12,부산광역시 사상구 가야대로196번길 51,지하1층,SKT,지역문화시설
1274,부산광역시,대한노인회 사상구지회,35.1734434,부산광역시,128.9834668,Public WiFi,051-305-3679,사상구,부산광역시 사상구 덕포동 417-9,부산광역시 사상구 사상로319번길 6,지회,SKT,서민·복지시설
1275,부산광역시,덕포1동주민센터,35.1703726,부산광역시,128.9832404,Public WiFi,051-310-3061,사상구,부산광역시 사상구 덕포동 426-5,부산광역시 사상구 사상로292번길 12,민원실,SKT,관공서
1276,부산광역시,덕포2동주민센터,35.1744875,부산광역시,128.9829918,Public WiFi,051-310-3081,사상구,부산광역시 사상구 덕포동 403-9,부산광역시 사상구 사상로337번길 17,민원실,SKT,관공서
1277,부산광역시,모라 어깨동무 지역아동센터,35.1849128,부산광역시,128.9933876,Public WiFi,051-315-1391,사상구,부산광역시 사상구 모라동 422-4,부산광역시 사상구 모라로110번길 43 (모라동),센터,SKT,관공서
1278,부산광역시,모라1동주민센터,35.1911136,부산광역시,128.9923337,Public WiFi,051-310-3021,사상구,부산광역시 사상구 모라1동 1343,부산광역시 사상구 백양대로 952,민원실,SKT,관공서
1279,부산광역시,모라3동주민센터,35.1846329,부산광역시,128.9960819,Public WiFi,051-310-3041,사상구,부산광역시 사상구 모라3동 551-1,부산광역시 사상구 모라로110번길 99,민원실,SKT,관공서
1280,부산광역시,모라종합사회복지관,35.1846329,부산광역시,128.9960819,Public WiFi,051-304-9877,사상구,부산광역시 사상구 모라3동 551,부산광역시 사상구 모라로110번길 129,복지관,SKT,서민·복지시설
1281,부산광역시,백양종합사회복지관,35.183407,부산광역시,129.000513,Public WiFi,051-305-4287,사상구,부산광역시 사상구 모라3동 75 모라주공3단지내,부산광역시 사상구 모라로192번길 20-33,복지관,KT,서민·복지시설
1282,부산광역시,부산사상도서관,35.1781589,부산광역시,128.9898827,Public WiFi,051-310-7951,사상구,부산광역시 사상구 덕포2동 24-65,부산광역시 사상구 덕상로72번길 9,도서관,KT,지역문화시설
1283,부산광역시,부산사상우체국,35.1605361,부산광역시,128.9859205,Public WiFi,051-320-3331,사상구,부산광역시 사상구 괘법동 554-12,부산광역시 사상구 사상로 165,민원실,KT,관공서
1284,부산광역시,부산새벽시장,35.1713005,부산광역시,128.9822514,Public WiFi,051-323-9002,사상구,부산광역시 사상구 덕포동 421-13,부산광역시 사상구 사상로293번길 12,시장,SKT,편의시설
1285,부산광역시,사상 노인대학,35.1564374,부산광역시,128.9836244,Public WiFi,051-311-7587,사상구,부산광역시 사상구 감전동 121-25,부산광역시 사상구 새벽로 172 (감전동),노인대학,SKT,서민·복지시설
1286,부산광역시,사상 해오름 지역아동센터,35.1541009,부산광역시,128.9779365,Public WiFi,051-328-5995,사상구,부산광역시 사상구 감전동 150-6,부산광역시 사상구 새벽시장로56번가길 41 (감전동),센터,SKT,서민·복지시설
1287,부산광역시,사상구 장애인복지관,35.1849042,부산광역시,129.000911,Public WiFi,051-302-5533,사상구,부산광역시 사상구 모라3동 75-9,부산광역시 사상구 모라로192번길 21,복지관,SKT,서민·복지시설
1288,부산광역시,사상구 장애인직업재활시설,35.1854721,부산광역시,129.0003431,Public WiFi,051-304-9747,사상구,부산광역시 사상구 모라동 75-1,부산광역시 사상구 모라로192번길 2 (모라동),시설,SKT,서민·복지시설
1289,부산광역시,부산사하우체국,35.101123,부산광역시 사하구청,128.9797481,Public WiFi,051-888-4602,사하구,부산광역시 사하구 당리동 481-1,부산광역시 사하구 낙동대로 346,민원실,KT,관공서
1290,부산광역시,빅월드 사업부,35.0738678,부산광역시 사하구청,128.976877,Public WiFi,051-888-4602,사하구,부산광역시 사하구 장림2동 380-2,부산광역시 사하구 다대로 317,빅월드사업부,LGU+,기타
1291,부산광역시,사하구보건소,35.0943432,부산광역시 사하구청,128.9594263,Public WiFi,051-888-4602,사하구,부산광역시 사하구 신평2동 647-5번지,부산광역시 사하구 하신번영로127번길 2,민원실,LGU+,서민·복지시설
1292,부산광역시,사하구장애인복지관,35.0855069,부산광역시 사하구청,128.9931039,Public WiFi,051-888-4602,사하구,부산광역시 사하구 구평동 43,부산광역시 사하구 사하로68번길 65,복지관,SKT,서민·복지시설
1293,부산광역시,사하구종합사회복지관,35.094477,부산광역시 사하구청,129.007815,Public WiFi,051-888-4602,사하구,부산광역시 사하구 감천2동 12-278,부산광역시 사하구 감내2로 21,복지관,SKT,서민·복지시설
1294,부산광역시,사하구청,35.105151,부산광역시 사하구청,128.974591,Public WiFi,051-888-4602,사하구,부산광역시 사하구 당리동 317,부산광역시 사하구 승학로 58,민원실,KT,관공서
1295,부산광역시,사하도서관,35.1030899,부산광역시 사하구청,128.9913128,Public WiFi,051-888-4602,사하구,부산광역시 사하구 괴정동 1040-31,부산광역시 사하구 승학로 247,도서관,KT,지역문화시설
1296,부산광역시,사하두바퀴장애인자립생활센터,35.0945931,부산광역시 사하구청,128.9598874,Public WiFi,051-888-4602,사하구,부산광역시 사하구 신평2동 647-3,부산광역시 사하구 하신번영로 135,센터,SKT,서민·복지시설
1297,부산광역시,사하사랑채노인복지관,35.103001,부산광역시 사하구청,128.998749,Public WiFi,051-888-4602,사하구,부산광역시 사하구 괴정동 284-1,부산광역시 사하구 사리로 37,복지관,SKT,서민·복지시설
1298,부산광역시,신평1동주민센터,35.090082,부산광역시 사하구청,128.974371,Public WiFi,051-888-4602,사하구,부산광역시 사하구 신평동 544-1,부산광역시 사하구 신산로 173,동대(주민자치),LGU+,관공서
1299,부산광역시,신평1동주민센터,35.0900294,부산광역시 사하구청,128.9744753,Public WiFi,051-888-4602,사하구,부산광역시 사하구 신평2동 544-1,부산광역시 사하구 신산로 173,민원실,SKT,관공서
1300,부산광역시,신평2동주민센터,35.0946795,부산광역시 사하구청,128.9594496,Public WiFi,051-888-4602,사하구,부산광역시 사하구 신평2동 647-1,부산광역시 사하구 하신번영로 137,민원실,SKT,관공서
1301,부산광역시,을숙도전시관,35.1094769,부산광역시 사하구청,128.9448753,Public WiFi,051-888-4602,사하구,부산광역시 사하구 하단2동 1151-14,부산광역시 사하구 낙동남로1233번길 25,관리동,LGU+,지역문화시설
1302,부산광역시,을숙도전시관,35.1094769,부산광역시 사하구청,128.9448753,Public WiFi,051-888-4602,사하구,부산광역시 사하구 하단2동 1151-14,부산광역시 사하구 낙동남로1233번길 25,대강당,LGU+,지역문화시설
1303,부산광역시,을숙도전시관,35.1094769,부산광역시 사하구청,128.9448753,Public WiFi,051-888-4602,사하구,부산광역시 사하구 하단2동 1151-14,부산광역시 사하구 낙동남로1233번길 25,소강당,LGU+,지역문화시설
1304,부산광역시,자매정신요양원,35.1033357,부산광역시 사하구청,128.9984146,Public WiFi,051-888-4602,사하구,부산광역시 사하구 괴정3동 245,부산광역시 사하구 사리로 37,요양원,KT,서민·복지시설
1305,부산광역시,장림1동주민센터,35.078372,부산광역시 사하구청,128.969919,Public WiFi,051-888-4602,사하구,부산광역시 사하구 장림동 1140,부산광역시 사하구 장림로161번길 2,문화교실,LGU+,관공서
1306,부산광역시,장림1동주민센터,35.0830111,부산광역시 사하구청,128.9668954,Public WiFi,051-888-4602,사하구,부산광역시 사하구 장림동 1140,부산광역시 사하구 장림로161번길 2,민원실,SKT,관공서
1307,부산광역시,장림2동주민센터,35.0778649,부산광역시 사하구청,128.9726159,Public WiFi,051-888-4602,사하구,부산광역시 사하구 장림2동 601,부산광역시 사하구 장평로 131,민원실,SKT,관공서
1308,부산광역시,장림시장,35.0807605,부산광역시 사하구청,128.9678761,Public WiFi,051-888-4602,사하구,부산광역시 사하구 장림1동 792-7번지,부산광역시 사하구 장림번영로 22,시장,LGU+,서민·복지시설
1309,부산광역시,하단1동주민센터,35.1023037,부산광역시 사하구청,128.9610914,Public WiFi,051-888-4602,사하구,부산광역시 사하구 하단1동 571-2,부산광역시 사하구 하신중앙로 266,민원실,SKT,관공서
1310,부산광역시,하단2동주민센터,35.1146068,부산광역시 사하구청,128.9605219,Public WiFi,051-888-4602,사하구,부산광역시 사하구 하단1동 1161-3,부산광역시 사하구 하신번영로 377,민원실,SKT,관공서
1311,부산광역시,해양경찰정비창(부산),35.051404,부산광역시 사하구청,128.979728,Public WiFi,051-888-4602,사하구,부산광역시 사하구 다대동 375,부산광역시 사하구 다대로605번길 93,민원실,KT,관공서
1312,부산광역시,헌혈의집 하단센터,35.1129401,부산광역시 사하구청,128.9661993,Public WiFi,051-888-4602,사하구,부산광역시 사하구 하단2동 494-3,부산광역시 사하구 낙동대로516번길 48,센터,SKT,기타
1313,부산광역시,형제복지지원재단,35.0738678,부산광역시 사하구청,128.976877,Public WiFi,051-888-4602,사하구,부산광역시 사하구 장림2동 380-2,부산광역시 사하구 다대로 317,재단,LGU+,관공서
1314,부산광역시,감천문화마을 작은박물관앞,35.097971,부산광역시 사하구청,129.010454,Public WiFi,051-888-4602,사하구,부산광역시 사하구 감천동 1-5,부산광역시 사하구 감내2로 191,박물관,SKT,지역문화시설
1315,부산광역시,낙동강하구에코센터,35.104501,부산광역시 사하구청,128.945994,Public WiFi,051-888-4602,사하구,부산광역시 사하구 하단동 1207-2,부산광역시 사하구 낙동남로 1240,센터,SKT,지역문화시설
1316,부산광역시,서부산농협 감천지점,35.090032,부산광역시 사하구청,129.005741,Public WiFi,051-888-4602,사하구,부산광역시 사하구 감천동 547-7,부산광역시 사하구 옥천로 27,민원실,KT,기타
1317,부산광역시,서부산농협 구평지점,35.072736,부산광역시 사하구청,128.983119,Public WiFi,051-888-4602,사하구,부산광역시 사하구 구평동 435-231,부산광역시 사하구 두송로 142,민원실,KT,기타
1318,부산광역시,부산은행 을숙도,35.115659,부산광역시 사하구청,128.960509,Public WiFi,051-888-4602,사하구,부산광역시 사하구 하단동 1160-5,부산광역시 사하구 하신번영로 387,민원실,SKT,기타
1319,부산광역시,농협 승학지점(괴정동),35.098993,부산광역시 사하구청,128.989447,Public WiFi,051-888-4602,사하구,부산광역시 사하구 괴정동 744-3,부산광역시 사하구 낙동대로 251,민원실,SKT,기타
1320,부산광역시,다대포해수욕장,35.047162,부산광역시 사하구청,128.968126,Dynamic Busan,051-888-4602,사하구,부산광역시 사하구 다대동,부산광역시 사하구 몰운대1길 11,해변공원관리센터,부산광역시,관광
1321,부산광역시,을숙도문화회관,35.109888,부산광역시 사하구청,128.944802,Dynamic Busan,051-888-4602,사하구,부산광역시 사하구 하단동 1151-14,부산광역시 사하구 낙동남로1233번길 25,본관,부산광역시,지역문화시설
1322,부산광역시,(주)청산장례식장,35.0802511,부산광역시 사하구청,128.9619395,Public WiFi,051-888-4602,사하구,부산광역시 사하구 장림1동 990-2,부산광역시 사하구 하신중앙로17번길 25,장례식장,LGU+,서민·복지시설
1323,부산광역시,감내꿈나무센터,35.097951,부산광역시 사하구청,129.009569,Public WiFi,051-888-4602,사하구,부산광역시 사하구 감천동 7,부산광역시 사하구 감내1로 234,센터,SKT,서민·복지시설
1324,부산광역시,감천1동주민센터,35.0882595,부산광역시 사하구청,129.0055555,Public WiFi,051-888-4602,사하구,부산광역시 사하구 감천1동 471,부산광역시 사하구 옥천로 8,민원실,SKT,관공서
1325,부산광역시,감천2동 주민센터,35.0945947,부산광역시 사하구청,129.0093312,Public WiFi,051-888-4602,사하구,부산광역시 사하구 감천동 12-9,부산광역시 사하구 옥천로93번길 14,민원실,LGU+,관공서
1326,부산광역시,감천2동시장,35.0938796,부산광역시 사하구청,129.0087894,Public WiFi,051-888-4602,사하구,부산광역시 사하구 감천2동 13-13,부산광역시 사하구 옥천로5번길 17,시장,SKT,서민·복지시설
1327,부산광역시,감천재래시장,35.0882595,부산광역시 사하구청,129.0055555,Public WiFi,051-888-4602,사하구,부산광역시 사하구 감천1동 471,부산광역시 사하구 옥천로 8,시장,SKT,서민·복지시설
1328,부산광역시,감천횃불작은도서관,35.0909546,부산광역시 사하구청,129.0074519,Public WiFi,051-888-4602,사하구,부산광역시 사하구 감천2동 16-1023번지,부산광역시 사하구 옥천로 48-5,도서관,LGU+,지역문화시설
1329,부산광역시,괴정1동주민센터,35.0996941,부산광역시 사하구청,128.9893536,Public WiFi,051-888-4602,사하구,부산광역시 사하구 괴정1동 820-3,부산광역시 사하구 낙동대로 250,민원실,SKT,관공서
1330,부산광역시,괴정2동주민센터,35.103391,부산광역시 사하구청,129.0040197,Public WiFi,051-888-4602,사하구,부산광역시 사하구 괴정2동 354-22번지,부산광역시 사하구 까치고개로 14-1,민원실,LGU+,관공서
1331,부산광역시,괴정3동주민센터,35.1003126,부산광역시 사하구청,128.9980668,Public WiFi,051-888-4602,사하구,부산광역시 사하구 괴정동 404-2,부산광역시 사하구 낙동대로171번길 30-5 (괴정동),민원실,SKT,관공서
1332,부산광역시,괴정4동 주민센터,35.099145,부산광역시 사하구청,128.983164,Public WiFi,051-888-4602,사하구,부산광역시 사하구 괴정4동 571-2,부산광역시 사하구 낙동대로30번길 9,민원실,SKT,관공서
1333,부산광역시,구평동 주민센터,35.0819117,부산광역시 사하구청,128.9878133,Public WiFi,051-888-4602,사하구,부산광역시 사하구 구평동 159-1,부산광역시 사하구 서포로 48,민원실,LGU+,관공서
1334,부산광역시,구평동 주민센터,35.0938796,부산광역시 사하구청,129.0087894,Public WiFi,051-888-4602,사하구,부산광역시 사하구 감천2동 13-13,부산광역시 사하구 옥천로5번길 17,민원실,SKT,관공서
1335,부산광역시,구평동사무소,35.0818547,부산광역시 사하구청,128.9874493,Public WiFi,051-888-4602,사하구,부산광역시 사하구 구평동 159,부산광역시 사하구 구평동 159,컴퓨터학습장,SKT,관공서
1336,부산광역시,기술보증기금(사하구),35.0895017,부산광역시 사하구청,128.9733557,Public WiFi,051-888-4602,사하구,부산광역시 사하구 신평1동 545,부산광역시 사하구 장평로 262,민원실,LGU+,관공서
1337,부산광역시,다대1동 주민센터,35.058554,부산광역시 사하구청,128.9743974,Public WiFi,051-888-4602,사하구,부산광역시 사하구 다대1동 235,부산광역시 사하구 다대동로 83-1,민원실,SKT,관공서
1338,부산광역시,동산요양병원,35.1007568,부산광역시 사하구청,128.9932002,Public WiFi,051-888-4602,사하구,부산광역시 사하구 괴정3동 1003-0,부산광역시 사하구 낙동대로216번길 10,병원,LGU+,서민·복지시설
1339,부산광역시,두송종합사회복지관(다대2동),35.062233,부산광역시 사하구청,128.985434,Public WiFi,051-888-4602,사하구,부산광역시 사하구 다대2동 96-1,부산광역시 사하구 다송로 59 다대4지구도개공영구임대아파트,복지관,SKT,서민·복지시설
1340,부산광역시,마리아마을,35.0841264,부산광역시 사하구청,128.9805812,Public WiFi,051-888-4602,사하구,부산광역시 사하구 장림2동 86-2번지,부산광역시 사하구 장림로 298,마리아마을,LGU+,서민·복지시설
1341,부산광역시,몰운대종합사회복지관,35.0510926,부산광역시 사하구청,128.9635696,Public WiFi,051-888-4602,사하구,부산광역시 사하구 다대동 1548-12,부산광역시 사하구 다대낙조 2길 15,복지관,KT,서민·복지시설
1342,부산광역시,송정해수욕장,35.179475,부산광역시,129.199578,Dynamic Busan,051-888-4601,해운대구,부산광역시 해운대구 송정동 712-1,부산광역시 해운대구 송정해변로 62,임해봉사실,부산광역시,관광
1343,부산광역시,송정해수욕장,35.179815,부산광역시,129.205194,Dynamic Busan,051-888-4601,해운대구,부산광역시 해운대구 송정동 288-60,부산광역시 해운대구 송정동 288-60,죽도공원앞화장실,부산광역시,관광
1344,부산광역시,송정해수욕장,35.176043,부산광역시,129.197121,Dynamic Busan,051-888-4601,해운대구,부산광역시 해운대구 송정동 913-4,부산광역시 해운대구 송정동 913-4,송정해수욕장입구굴다리앞,부산광역시,관광
1345,부산광역시,시립미술관,35.165074,부산광역시,129.134747,Dynamic Busan,051-888-4601,해운대구,부산광역시 해운대구 우동 1413,부산광역시 해운대구 APEC로 58,시립미술관,부산광역시,지역문화시설
1346,부산광역시,해운대해수욕장,35.159959,부산광역시,129.162114,Dynamic Busan,051-888-4601,해운대구,부산광역시 해운대구 중동 1393-5,부산광역시 해운대구 구남로 29,다비치안경점 앞,부산광역시,관광
1347,부산광역시,해운대해수욕장,35.159959,부산광역시,129.162114,Dynamic Busan,051-888-4601,해운대구,부산광역시 해운대구 중동 1383-9,부산광역시 해운대구 구남로 23,농협 맞은 편,부산광역시,관광
1348,부산광역시,해운대해수욕장,35.161028,부산광역시,129.163979,Dynamic Busan,051-888-4601,해운대구,부산광역시 해운대구 중동 1412-1,부산광역시 해운대구 해운대해변로 277,뉴비치호텔앞,부산광역시,관광
1349,부산광역시,해운대해수욕장,35.159959,부산광역시,129.162114,Dynamic Busan,051-888-4601,해운대구,부산광역시 해운대구 우동 620-3,부산광역시 해운대구 해운대해변로 264,관광사업소앞도로변,부산광역시,관광
1350,부산광역시,해운대해수욕장,35.159959,부산광역시,129.162114,Dynamic Busan,051-888-4601,해운대구,부산광역시 해운대구 중동 1391-72,부산광역시 해운대구 해운대해변로265번길 6,해운대우체국주변,부산광역시,관광
1351,부산광역시,해운대해수욕장,35.159544,부산광역시,129.157988,Dynamic Busan,051-888-4601,해운대구,부산광역시 해운대구 중동 1412-1,부산광역시 해운대구 해운대해변로 277,삼거리길건너편,부산광역시,관광
1352,부산광역시,해운대해수욕장,35.159354,부산광역시,129.160371,Dynamic Busan,051-888-4601,해운대구,부산광역시 해운대구 우동 628-5,부산광역시 해운대구 해운대해변로 243,글로리콘도앞,부산광역시,관광
1353,부산광역시,해운대해수욕장,35.159985,부산광역시,129.161167,Dynamic Busan,051-888-4601,해운대구,부산광역시 해운대구 우동 622-4,부산광역시 해운대구 해운대해변로 236,포장마차촌,부산광역시,관광
1354,부산광역시,해운대해수욕장,35.158386,부산광역시,129.157304,Dynamic Busan,051-888-4601,해운대구,부산광역시 해운대구 우동 760-3,부산광역시 해운대구 해운대해변로 203,오션스카이앞,부산광역시,관광
1355,부산광역시,해운대해수욕장,35.158573,부산광역시,129.154577,Dynamic Busan,051-888-4601,해운대구,부산광역시 해운대구 우동 1151-14,부산광역시 해운대구 우동 1151-14,동백사거리신호등,부산광역시,관광
1356,부산광역시,해운대해수욕장,35.158019,부산광역시,129.152419,Dynamic Busan,051-888-4601,해운대구,부산광역시 해운대구 중동 1439-32,부산광역시 해운대구 중동 1439-32,노보텔앞삼거리신호등,부산광역시,관광
1357,부산광역시,해운대해수욕장,35.159546,부산광역시,129.168097,Dynamic Busan,051-888-4601,해운대구,부산광역시 해운대구 중동 1405-10,부산광역시 해운대구 해운대해변로 302,대림맨션앞도로변,부산광역시,관광
1358,부산광역시,해운대해수욕장,35.162449,부산광역시,129.163234,Dynamic Busan,051-888-4601,해운대구,부산광역시 해운대구 중동 1378-7,부산광역시 해운대구 중동1로 33-1,해운대시장입구(구청쪽),부산광역시,관광
1359,부산광역시,해운대해수욕장,35.152417,부산광역시,129.152543,Dynamic Busan,051-888-4601,해운대구,부산광역시 해운대구 우동 710-1,부산광역시 해운대구 우동 710-1,동백섬등대광장,부산광역시,관광
1360,부산광역시,해운대해수욕장,35.160846,부산광역시,129.163499,Dynamic Busan,051-888-4601,해운대구,부산광역시 해운대구 중동 1411-14,부산광역시 해운대구 중동 1411-14,노보텔앞해변가,부산광역시,관광
1361,부산광역시,해운대해수욕장,35.159544,부산광역시,129.163032,Dynamic Busan,051-888-4601,해운대구,부산광역시 해운대구 중동 1408-17,부산광역시 해운대구 중동 1408-17,파라다이스호텔앞해변가,부산광역시,관광
1362,부산광역시,해운대해수욕장,35.159626,부산광역시,129.164829,Dynamic Busan,051-888-4601,해운대구,부산광역시 해운대구 중동 1055-5,부산광역시 해운대구 중동 1055-5,팔레드시즈앞해변가,부산광역시,관광
1363,부산광역시,해운대해수욕장,35.159668,부산광역시,129.166629,Dynamic Busan,051-888-4601,해운대구,부산광역시 해운대구 중동 1039-9,부산광역시 해운대구 중동 1039-9,엘시티앞해변가,부산광역시,관광
1364,부산광역시,해운대해수욕장,35.159039,부산광역시,129.160315,Dynamic Busan,051-888-4601,해운대구,부산광역시 해운대구 우동 620-3,부산광역시 해운대구 해운대해변로 264,관광사업소앞해변가,부산광역시,관광
1365,부산광역시,해운대해수욕장,35.158638,부산광역시,129.158378,Dynamic Busan,051-888-4601,해운대구,부산광역시 해운대구 우동 622-31,부산광역시 해운대구 우동 622-31,공영주차장앞해변가,부산광역시,관광
1366,부산광역시,해운대해수욕장,35.158309,부산광역시,129.157057,Dynamic Busan,051-888-4601,해운대구,부산광역시 해운대구 우동 699-8,부산광역시 해운대구 우동 699-8,포장마차촌앞해변가,부산광역시,관광
1367,부산광역시,해운대해수욕장,35.157112,부산광역시,129.155395,Dynamic Busan,051-888-4601,해운대구,부산광역시 해운대구 우동 706,부산광역시 해운대구 우동 706,송림공원앞해변가,부산광역시,관광
1368,부산광역시,대한적십자 해운대점,35.1625885,부산광역시,129.1623498,Public WiFi,051-888-4601,해운대구,부산광역시 해운대구 중1동 1394-385,부산광역시 해운대구 구남로29번길 38,민원실,KT,관공서
1369,부산광역시,로뎀요양병원,35.2267783,부산광역시,129.1469633,Public WiFi,051-888-4601,해운대구,부산광역시 해운대구 반송1동 696-1,부산광역시 해운대구 아랫반송로1번길 27-3,병원,LGU+,서민·복지시설
1370,부산광역시,반송1동주민센터,35.2251983,부산광역시,129.1478078,Public WiFi,051-888-4601,해운대구,부산광역시 해운대구 반송동 717-5번지,부산광역시 해운대구 아랫반송로 16 (반송동),민원실,SKT,관공서
1371,부산광역시,반송2동 시장,35.2311218,부산광역시,129.1562102,Public WiFi,051-888-4601,해운대구,부산광역시 해운대구 반송2동 40-762,부산광역시 해운대구 윗반송로51번길 86,시장,LGU+,서민·복지시설
1372,부산광역시,반송2동주민센터,35.2287988,부산광역시,129.1603701,Public WiFi,051-888-4601,해운대구,부산광역시 해운대구 반송동 890번지,부산광역시 해운대구 신반송로 173 (반송동),민원실,SKT,관공서
1373,부산광역시,반송3동주민센터,35.2245734,부산광역시,129.1522136,Public WiFi,051-888-4601,해운대구,부산광역시 해운대구 반송동 259-113번지,부산광역시 해운대구 반송순환로 158 (반송동),민원실,SKT,관공서
1374,부산광역시,반송골목시장,35.224018,부산광역시,129.150362,Public WiFi,051-888-4601,해운대구,부산광역시 해운대구 반송동 250-410,부산광역시 해운대구 아랫반송로39번길 18-12,시장,SKT,서민·복지시설
1375,부산광역시,반송보건지소,35.2298342,부산광역시,129.1475114,Public WiFi,051-888-4601,해운대구,부산광역시 해운대구 반송동 683-48번지,부산광역시 해운대구 반송로 853 (반송동),민원실,SKT,서민·복지시설
1376,부산광역시,반송복지관(해운대),35.2263444,부산광역시,129.1468777,Public WiFi,051-888-4601,해운대구,부산광역시 해운대구 반송1동 697-2,부산광역시 해운대구 아랫반송로1번길 15,복지관,SKT,서민·복지시설
1377,부산광역시,부산동부지원,35.1892224,부산광역시,129.1292197,Public WiFi,051-888-4601,해운대구,부산광역시 해운대구 재송동 1133,부산광역시 해운대구 재반로112번길 19,민원실,KT,관공서
1378,부산광역시,반여1동주민센터,35.2012552,부산광역시,129.1189954,Public WiFi,051-888-4601,해운대구,부산광역시 해운대구 반여1동 1441-34번지,부산광역시 해운대구 선수촌로 85 (반여동),민원실,SKT,관공서
1379,부산광역시,반여2동 상가시장,35.1956196,부산광역시,129.1286673,Public WiFi,051-888-4601,해운대구,부산광역시 해운대구 반여2동 1291-918번지,부산광역시 해운대구 해운대로61번길 95-47,시장,SKT,서민·복지시설
1380,부산광역시,반여2동주민센터,35.1959634,부산광역시,129.1301538,Public WiFi,051-888-4601,해운대구,부산광역시 해운대구 반여동 1291-836번지,부산광역시 해운대구 재반로211번길 9 (반여동),민원실,SKT,관공서
1381,부산광역시,반여3동 골목시장,35.199931,부산광역시,129.132061,Public WiFi,051-888-4601,해운대구,부산광역시 해운대구 반여3동 1607-2,부산광역시 해운대구 재반로256번길 8,시장,SKT,서민·복지시설
1382,부산광역시,반여3동주민센터,35.2009859,부산광역시,129.1335166,Public WiFi,051-888-4601,해운대구,부산광역시 해운대구 반여동 1591-4번지,부산광역시 해운대구 재반로256번길 29-70 (반여동),민원실,SKT,관공서
1383,부산광역시,반여4동주민센터,35.2091987,부산광역시,129.1172135,Public WiFi,051-888-4601,해운대구,부산광역시 해운대구 반여동 1122번지,부산광역시 해운대구 삼어로133번길 50 (반여동),민원실,SKT,관공서
1384,부산광역시,반여농산물 도매시장,35.2148598,부산광역시,129.1225336,Public WiFi,051-888-4601,해운대구,부산광역시 해운대구 반여동 559,부산광역시 해운대구 수영강변대로 626,시장,SKT,서민·복지시설
1385,부산광역시,반여도서관,35.2018799,부산광역시,129.1337839,Public WiFi,051-888-4601,해운대구,부산광역시 해운대구 반여동 1575-78,부산광역시 해운대구 재반로282번길 38,도서관,KT,지역문화시설
1386,부산광역시,반여도서관,35.2018799,부산광역시,129.1337839,Public WiFi,051-888-4601,해운대구,부산광역시 해운대구 반여동 1575-78,부산광역시 해운대구 재반로 282번길 38,도서관,SKT,지역문화시설
1387,부산광역시,반여복지관,35.1982412,부산광역시,129.1318837,Public WiFi,051-888-4601,해운대구,부산광역시 해운대구 반여2동 1291-1360,부산광역시 해운대구 재반로226번길 13-73,복지관,LGU+,서민·복지시설
1388,부산광역시,반여시장,35.195617,부산광역시,129.1287678,Public WiFi,051-888-4601,해운대구,부산광역시 해운대구 반여동 1291-918,부산광역시 해운대구 해운대로61번길 95-47,시장,SKT,편의시설
1389,부산광역시,부산시립미술관,35.1660415,부산광역시,129.1369819,Public WiFi,051-888-4601,해운대구,부산광역시 해운대구 우동 1413,부산광역시 해운대구 APEC로 58,1층,SKT,지역문화시설
1390,부산광역시,부산시립미술관,35.1660415,부산광역시,129.1369819,Public WiFi,051-888-4601,해운대구,부산광역시 해운대구 우동 1413,부산광역시 해운대구 APEC로 58,2층,SKT,지역문화시설
1391,부산광역시,부산시립미술관,35.1660415,부산광역시,129.1369819,Public WiFi,051-888-4601,해운대구,부산광역시 해운대구 우동 1413,부산광역시 해운대구 APEC로 58,3층,SKT,지역문화시설
1392,부산광역시,부산시립미술관,35.1660415,부산광역시,129.1369819,Public WiFi,051-888-4601,해운대구,부산광역시 해운대구 우동 1413,부산광역시 해운대구 APEC로 58,지하1층,SKT,지역문화시설
1393,부산광역시,부산시립해운대도서관,35.168802,부산광역시,129.155751,Public WiFi,051-888-4601,해운대구,부산광역시 해운대구 우1동 379,부산광역시 해운대구 우동1로 89,도서관,KT,지역문화시설
1394,부산광역시,부산지방검찰청 동부지청 민원실,35.1892224,부산광역시,129.1292197,Public WiFi,051-888-4601,해운대구,부산광역시 해운대구 재송2동 1133,부산광역시 해운대구 재반로112번길 19,민원실,SKT,관공서
1395,부산광역시,시립미술관역,35.1689035,부산광역시,129.1385252,Public WiFi,051-888-4601,해운대구,부산광역시 해운대구 우2동 1090-2,부산광역시 해운대구 우2동 1090-2,역사,LGU+,교통시설
1396,부산광역시,어진샘노인종합복지관,35.1799103,부산광역시,129.1278193,Public WiFi,051-888-4601,해운대구,부산광역시 해운대구 재송1동 100-9,부산광역시 해운대구 재반로 12번길 16,복지관,LGU+,서민·복지시설
1397,부산광역시,영광재활원,35.205771,부산광역시,129.1179387,Public WiFi,051-888-4601,해운대구,부산광역시 해운대구 반여1동 1062-1,부산광역시 해운대구 삼의로 91번지,재활원,SKT,서민·복지시설
1398,부산광역시,영진종합사회복지관,35.205783,부산광역시,129.126315,Public WiFi,051-888-4601,해운대구,부산광역시 해운대구 반여1동 1247,부산광역시 해운대구 반여로 165,복지관,SKT,서민·복지시설
1399,부산광역시,우1동주민센터,35.1628875,부산광역시,129.1580827,Public WiFi,051-888-4601,해운대구,부산광역시 해운대구 우동 539-4,부산광역시 해운대구 해운대로 612,민원실,SKT,관공서
1400,부산광역시,우2동주민센터,35.1712048,부산광역시,129.1399222,Public WiFi,051-888-4601,해운대구,부산광역시 해운대구 우동 1185-120,부산광역시 해운대구 해운대로 383번가길 7,민원실,SKT,관공서
1401,부산광역시,우동종합상가시장,35.1703643,부산광역시,129.1389344,Public WiFi,051-888-4601,해운대구,부산광역시 해운대구 우동 1092-16,부산광역시 해운대구 해운대로383번길 21,시장,SKT,편의시설
1402,부산광역시,우일시장,35.1649926,부산광역시,129.1599029,Public WiFi,051-888-4601,해운대구,부산광역시 해운대구 우동 552-2,부산광역시 해운대구 우동1로20번길 56,시장,SKT,편의시설
1403,부산광역시,인덕원,35.235168,부산광역시,129.149861,Public WiFi,051-888-4601,해운대구,부산광역시 해운대구 반송2동 424-5,부산광역시 해운대구 반송로877번길 122 (반송동),인덕원,KT,서민·복지시설
1404,부산광역시,장산노인복지관,35.173874,부산광역시,129.178664,Public WiFi,051-888-4601,해운대구,부산광역시 해운대구 좌동 1305-1,부산광역시 해운대구 좌동로 126,복지관,KT,서민·복지시설
1405,부산광역시,재반보건지소,35.1924165,부산광역시,129.1228472,Public WiFi,051-888-4601,해운대구,부산광역시 해운대구 재송동 179-41번지,부산광역시 해운대구 해운대로61번길 28 (재송동),민원실,SKT,서민·복지시설
1406,부산광역시,재송1동주민센터,35.1846153,부산광역시,129.1251852,Public WiFi,051-888-4601,해운대구,부산광역시 해운대구 재송1동 274-2번지,부산광역시 해운대구 재반로63번길 23 (재송동),민원실,SKT,관공서
1407,부산광역시,재송2동주민센터,35.1896039,부산광역시,129.1253134,Public WiFi,051-888-4601,해운대구,부산광역시 해운대구 재송동 1046,부산광역시 해운대구 재반로125번길 26,민원실,SKT,관공서
1408,부산광역시,재송어린이도서관,35.1896156,부산광역시,129.1184815,Public WiFi,051-888-4601,해운대구,부산광역시 해운대구 재송동 948-23,부산광역시 해운대구 해운대로 76번길 35-1,도서관,SKT,지역문화시설
1409,부산광역시,좌1동주민센터,35.1709067,부산광역시,129.174256,Public WiFi,051-888-4601,해운대구,부산광역시 해운대구 좌동 1458-2,부산광역시 해운대구 양운로 91,민원실,SKT,관공서
1410,부산광역시,좌2동주민센터,35.1691557,부산광역시,129.1826244,Public WiFi,051-888-4601,해운대구,부산광역시 해운대구 좌동 1327-2,부산광역시 해운대구 좌동순환로302,민원실,KT,관공서
1411,부산광역시,좌3동주민센터,35.1722617,부산광역시,129.1666317,Public WiFi,051-888-4601,해운대구,부산광역시 해운대구 좌동 1341-3,부산광역시 해운대구 좌동순환로 65,민원실,KT,관공서
1412,부산광역시,좌4동주민센터,35.1778997,부산광역시,129.176251,Public WiFi,051-888-4601,해운대구,부산광역시 해운대구 좌동 1407-6,부산광역시 해운대구 좌동순환로 183,민원실,KT,관공서
1413,부산광역시,좌동재래시장,35.1730816,부산광역시,129.1744706,Public WiFi,051-888-4601,해운대구,부산광역시 해운대구 좌동 892,부산광역시 해운대구 좌동로 91번길 20,시장,SKT,서민·복지시설
1414,부산광역시,중1동주민센터,35.1625222,부산광역시,129.1642093,Public WiFi,051-888-4601,해운대구,부산광역시 해운대구 중동 1394-68,부산광역시 해운대구 중동1로 37번길 20,민원실,SKT,관공서
1415,부산광역시,중2동 주민센터,35.1624026,부산광역시,129.1799244,Public WiFi,051-888-4601,해운대구,부산광역시 해운대구 중동 1519-3,부산광역시 해운대구 좌동순환로433번길 34,민원실,SKT,관공서
1416,부산광역시,중동거리,35.168963,부산광역시,129.138526,Public WiFi,051-888-4601,해운대구,부산광역시 해운대구 우2동 1090-2,부산광역시 해운대구 우2동 1090-2,중동거리,LGU+,기타
1417,부산광역시,추리문학관,35.1616978,부산광역시,129.1832955,Public WiFi,051-888-4601,해운대구,부산광역시 해운대구 중2동 1483-6,부산광역시 해운대구 달맞이길117번나길 111,추리문학관,SKT,지역문화시설
1418,부산광역시,해운대 보건소,35.164085,부산광역시,129.178649,Public WiFi,051-888-4601,해운대구,부산광역시 해운대구 좌동 1339,부산광역시 해운대구 양운로37번길 59　,민원실,KT,서민·복지시설
1419,부산광역시,해운대 임해행정봉사실,35.159181,부산광역시,129.160948,Public WiFi,051-888-4601,해운대구,부산광역시 해운대구 중1동 1415,부산광역시 해운대구 중1동 1415,봉사실,LGU+,관공서
1420,부산광역시,해운대구 문화복합센터,35.1820967,부산광역시,129.1215484,Public WiFi,051-888-4601,해운대구,부산광역시 해운대구 재송동 1192,부산광역시 해운대구 센텀중앙로 170,센터,SKT,서민·복지시설
1421,부산광역시,해운대구청,35.1629742,부산광역시,129.1637253,Public WiFi,051-888-4601,해운대구,부산광역시 해운대구 중동 1378-95,부산광역시 해운대구 중동2로 11,민원실,SKT,관공서
1422,부산광역시,해운대구청소년문화의집,35.2287844,부산광역시,129.1603893,Public WiFi,051-888-4601,해운대구,부산광역시 해운대구 반송동 890,부산광역시 해운대구 신반송로 173,문화의집,SKT,지역문화시설
1423,부산광역시,해운대복지관,35.1799103,부산광역시,129.1278193,Public WiFi,051-888-4601,해운대구,부산광역시 해운대구 재송1동 100-9,부산광역시 해운대구 재반로 12번길 16,복지관,LGU+,서민·복지시설
1424,부산광역시,해운대역,35.163651,부산광역시,129.158897,Public WiFi,051-888-4601,해운대구,부산광역시 해운대구 우1동 539,부산광역시 해운대구 해운대로 612,역사,LGU+,교통시설
1425,부산광역시,해운대은혜의집,35.174262,부산광역시,129.1327413,Public WiFi,051-888-4601,해운대구,부산광역시 해운대구 우동 1201,부산광역시 해운대구 해운대로295번길 16,은혜의집,SKT,서민·복지시설
1426,부산광역시,해운대청소년 수련원,35.1738065,부산광역시,129.1953348,Public WiFi,051-888-4601,해운대구,부산광역시 해운대구 송정동 775-2,부산광역시 해운대구 광어골로82번길 25,수련원,SKT,지역문화시설
1427,부산광역시,고은사진미술관(중1동),35.163275,부산광역시,129.141214,Public WiFi,051-888-4601,해운대구,부산광역시 해운대구 우동 1005-17,부산광역시 해운대구 해운대로452번길 16,미술관,SKT,지역문화시설
1428,부산광역시,누리마루Apec하우스,35.152385,부산광역시,129.151302,Public WiFi,051-888-4601,해운대구,부산광역시 해운대구 우동 714-1,부산광역시 해운대구 동백로 116 누리마루APEC하우스,누리마루,KT,관광
1429,부산광역시,부산반여3동우체국,35.201122,부산광역시,129.131511,Public WiFi,051-888-4601,해운대구,부산광역시 해운대구 반여동 1603-1,부산광역시 해운대구 재반로 267,민원실,KT,기타
1430,부산광역시,부산우1동우체국,35.163961,부산광역시,129.161174,Public WiFi,051-888-4601,해운대구,부산광역시 해운대구 우동 601-6,부산광역시 해운대구 중동1로 11,민원실,KT,기타
1431,부산광역시,해운대우체국,35.170638,부산광역시,129.174451,Public WiFi,051-888-4601,해운대구,부산광역시 해운대구 좌동 1458-3,부산광역시 해운대구 양운로 87,민원실,KT,기타
1432,부산광역시,부산재송동우체국,35.189303,부산광역시,129.126437,Public WiFi,051-888-4601,해운대구,부산광역시 해운대구 재송동 1058-18,부산광역시 해운대구 재반로 121-1,민원실,KT,기타
1433,부산광역시,농협 해운대중동지점,35.162045,부산광역시,129.160509,Public WiFi,051-888-4601,해운대구,부산광역시 해운대구 중동 1383-9,부산광역시 해운대구 구남로 23,민원실,SKT,기타
1434,부산광역시,해운대동백섬,35.152417,부산광역시,129.152543,Public WiFi,051-888-4601,해운대구,부산광역시 해운대구 우동 710-1,부산광역시 해운대구 우동 710-1,동백섬등대광장,KT,관광
